{"type":"FeatureCollection","bandset":"gt","cycle":"20101030.00000","features":[{"type":"Feature","geometry":{"type":"Polygon","coordinates":[[[-59.61375,13.33486],[-59.63402,13.32847],[-59.65013,13.30791],[-59.64986,13.28263],[-59.64180,13.26097],[-59.64402,13.25875],[-59.64402,13.23708],[-59.63986,13.20708],[-59.64180,13.19625],[-59.63791,13.18819],[-59.63875,13.14402],[-59.63347,13.12513],[-59.62736,13.11652],[-59.62958,13.11152],[-59.62736,13.11152],[-59.62569,13.10652],[-59.62986,13.10569],[-59.62930,13.10041],[-59.61680,13.09708],[-59.61041,13.09125],[-59.61069,13.07819],[-59.57513,13.06986],[-59.57458,13.06708],[-59.56541,13.06430],[-59.55180,13.06597],[-59.54180,13.06375],[-59.53319,13.04736],[-59.52736,13.04486],[-59.51708,13.04708],[-59.51041,13.05069],[-59.51041,13.05319],[-59.50263,13.05319],[-59.49791,13.06569],[-59.48958,13.06652],[-59.48958,13.06986],[-59.48319,13.06986],[-59.48125,13.07402],[-59.47708,13.07486],[-59.47708,13.07819],[-59.46513,13.08291],[-59.46458,13.08652],[-59.46041,13.08652],[-59.45625,13.09069],[-59.45625,13.09486],[-59.45208,13.09541],[-59.44986,13.10319],[-59.44430,13.10541],[-59.44152,13.11375],[-59.43125,13.12236],[-59.43125,13.13041],[-59.42708,13.13097],[-59.42708,13.13652],[-59.42291,13.14069],[-59.42291,13.15569],[-59.43152,13.16402],[-59.44791,13.16597],[-59.45013,13.17430],[-59.45819,13.18263],[-59.46513,13.17986],[-59.47291,13.18263],[-59.47763,13.18902],[-59.48652,13.19180],[-59.48763,13.19736],[-59.49791,13.19736],[-59.50819,13.20958],[-59.52486,13.21402],[-59.53013,13.21875],[-59.54152,13.23069],[-59.54375,13.23736],[-59.54791,13.23902],[-59.54875,13.24458],[-59.55291,13.24930],[-59.55625,13.24930],[-59.56069,13.26458],[-59.56458,13.26597],[-59.56875,13.28597],[-59.57736,13.29763],[-59.57486,13.29902],[-59.57513,13.30319],[-59.57791,13.30402],[-59.57736,13.30875],[-59.58958,13.31402],[-59.59319,13.32013],[-59.59986,13.32430],[-59.59986,13.32708],[-59.61375,13.33486]]]},"properties":{"zone":1,"cells":462472,"area_km2":442.208,"p90":16.7,"p90_max":22.32,"p90_mean":10.42,"hazard_class":4,"hazard_name":"Very high","worst_class":4,"worst_class_name":"Very high","share_at_class":98.9,"share_worst":98.9,"prob_band1":1.0,"confidence":"HIGH","impact_axis":4,"level":4,"level_name":"Very high","population":257613,"n_eds":609,"eds":"1,3,4,5,7,6,9,10...","n_parishes":11,"parishes":"Saint Philip, Christ Church, Saint George, Saint Michael and others","p_ge_05":1.0,"p_ge_1":1.0,"p_ge_2":0.94,"p_ge_4":0.65}}]}