{"type":"FeatureCollection","bandset":"bb","cycle":"20260817.16000","features":[{"type":"Feature","geometry":{"type":"MultiPolygon","coordinates":[[[[-59.44763,13.10958],[-59.44875,13.10847],[-59.44875,13.10958],[-59.44763,13.10958]]],[[[-59.60430,13.15319],[-59.60513,13.15513],[-59.60430,13.15513],[-59.60430,13.15319]]],[[[-59.44736,13.16486],[-59.44236,13.16347],[-59.44180,13.16097],[-59.44736,13.16486]]],[[[-59.62069,13.18319],[-59.62152,13.18402],[-59.62069,13.18402],[-59.62069,13.18319]]],[[[-59.59680,13.18625],[-59.59819,13.18736],[-59.59680,13.18736],[-59.59680,13.18625]]],[[[-59.59819,13.19013],[-59.59930,13.18152],[-59.59597,13.17708],[-59.60041,13.17874],[-59.59930,13.18069],[-59.60569,13.17958],[-59.60875,13.18263],[-59.60819,13.19708],[-59.61097,13.19847],[-59.60791,13.20291],[-59.60513,13.20097],[-59.60347,13.20236],[-59.60597,13.20208],[-59.60430,13.20569],[-59.60902,13.20597],[-59.60875,13.21097],[-59.61263,13.20958],[-59.61680,13.21180],[-59.61569,13.21375],[-59.61458,13.21152],[-59.61458,13.21569],[-59.61208,13.21569],[-59.61013,13.21763],[-59.61541,13.21652],[-59.61208,13.21791],[-59.61319,13.22208],[-59.61680,13.22430],[-59.62069,13.21986],[-59.61819,13.21875],[-59.61902,13.21375],[-59.61708,13.21236],[-59.61763,13.20930],[-59.62152,13.21319],[-59.61902,13.21541],[-59.62236,13.21875],[-59.62041,13.22513],[-59.62430,13.22430],[-59.62236,13.22069],[-59.62458,13.21986],[-59.62902,13.22402],[-59.63013,13.22208],[-59.63708,13.22486],[-59.63597,13.22930],[-59.63347,13.22930],[-59.63458,13.23125],[-59.63152,13.23152],[-59.63513,13.23319],[-59.63125,13.23569],[-59.63625,13.23708],[-59.63986,13.23291],[-59.63597,13.23180],[-59.63875,13.23152],[-59.63986,13.22875],[-59.64263,13.23013],[-59.64013,13.23875],[-59.63819,13.23569],[-59.63513,13.23847],[-59.62680,13.24013],[-59.63041,13.23791],[-59.63041,13.23263],[-59.62625,13.22986],[-59.62625,13.23625],[-59.62347,13.23736],[-59.62347,13.23041],[-59.62597,13.22736],[-59.61541,13.22875],[-59.62125,13.23041],[-59.62180,13.23791],[-59.61958,13.24013],[-59.62402,13.24041],[-59.61958,13.24930],[-59.62263,13.24819],[-59.62208,13.24458],[-59.62402,13.24680],[-59.63041,13.24597],[-59.62486,13.24291],[-59.62875,13.24124],[-59.63208,13.24958],[-59.63347,13.24652],[-59.63597,13.24986],[-59.64347,13.25013],[-59.64069,13.25347],[-59.64097,13.25847],[-59.63736,13.25791],[-59.63708,13.25930],[-59.64236,13.25930],[-59.64347,13.25375],[-59.64347,13.26013],[-59.63902,13.26124],[-59.64319,13.26319],[-59.64930,13.28125],[-59.64902,13.30569],[-59.64236,13.29902],[-59.64069,13.30347],[-59.63791,13.30319],[-59.63847,13.29875],[-59.63486,13.30569],[-59.64013,13.30597],[-59.64069,13.30958],[-59.64541,13.30319],[-59.64486,13.30680],[-59.64986,13.30624],[-59.64958,13.30875],[-59.64347,13.31708],[-59.63763,13.31875],[-59.63958,13.32125],[-59.63486,13.32430],[-59.63375,13.32847],[-59.61875,13.33263],[-59.61791,13.32763],[-59.61763,13.33263],[-59.61347,13.33458],[-59.61125,13.33375],[-59.61236,13.32902],[-59.60930,13.33263],[-59.59986,13.32708],[-59.60291,13.32486],[-59.60347,13.32152],[-59.60041,13.32374],[-59.59791,13.32319],[-59.59902,13.31986],[-59.59569,13.32180],[-59.59625,13.31541],[-59.59458,13.32013],[-59.59208,13.31902],[-59.58986,13.31513],[-59.59236,13.31097],[-59.59513,13.31125],[-59.59319,13.30819],[-59.59097,13.31319],[-59.58597,13.31347],[-59.58708,13.31069],[-59.58902,13.31236],[-59.58930,13.30458],[-59.58458,13.30541],[-59.58847,13.30847],[-59.58597,13.31013],[-59.58569,13.30763],[-59.58513,13.31097],[-59.57736,13.30847],[-59.57902,13.30569],[-59.57486,13.30125],[-59.57708,13.29652],[-59.56875,13.28569],[-59.57069,13.28041],[-59.56875,13.28041],[-59.56458,13.26597],[-59.56125,13.26541],[-59.55875,13.25569],[-59.55625,13.25513],[-59.55652,13.24763],[-59.55375,13.24625],[-59.55541,13.24875],[-59.55291,13.24930],[-59.54791,13.24319],[-59.54736,13.23791],[-59.54375,13.23736],[-59.54152,13.23152],[-59.54402,13.22986],[-59.54013,13.23069],[-59.52319,13.21236],[-59.51541,13.21291],[-59.51125,13.20902],[-59.50958,13.21013],[-59.49791,13.19736],[-59.48763,13.19736],[-59.48625,13.19152],[-59.47763,13.18902],[-59.47291,13.18263],[-59.46708,13.17986],[-59.45819,13.18263],[-59.45041,13.17430],[-59.44847,13.16930],[-59.45041,13.16513],[-59.44736,13.16486],[-59.44986,13.16402],[-59.45041,13.16180],[-59.44569,13.16291],[-59.44513,13.16041],[-59.44763,13.15986],[-59.44319,13.15902],[-59.44569,13.15624],[-59.44847,13.15736],[-59.44791,13.15263],[-59.45236,13.15125],[-59.44819,13.15180],[-59.44902,13.14930],[-59.44708,13.14958],[-59.44458,13.15708],[-59.44375,13.15402],[-59.43791,13.15236],[-59.43930,13.14930],[-59.44236,13.15041],[-59.44180,13.14791],[-59.45013,13.14791],[-59.44819,13.14208],[-59.45152,13.13375],[-59.44902,13.12902],[-59.45041,13.12513],[-59.44458,13.12291],[-59.44569,13.12902],[-59.43902,13.13180],[-59.44319,13.12680],[-59.43958,13.12208],[-59.43930,13.12708],[-59.43402,13.12763],[-59.43375,13.12124],[-59.44125,13.12069],[-59.43652,13.11763],[-59.44208,13.11791],[-59.44708,13.11097],[-59.44625,13.11597],[-59.44875,13.12124],[-59.44791,13.11569],[-59.45069,13.11069],[-59.44875,13.10763],[-59.45263,13.10486],[-59.44986,13.10402],[-59.45069,13.10097],[-59.45569,13.10069],[-59.45486,13.09847],[-59.45819,13.09763],[-59.45402,13.09791],[-59.45263,13.10041],[-59.45236,13.09513],[-59.45625,13.09486],[-59.45625,13.09069],[-59.46041,13.08652],[-59.46458,13.08652],[-59.46513,13.08291],[-59.47708,13.07819],[-59.47763,13.07430],[-59.48125,13.07402],[-59.48347,13.06986],[-59.48958,13.06986],[-59.49013,13.06652],[-59.49263,13.06930],[-59.49319,13.06652],[-59.49430,13.06874],[-59.50486,13.06902],[-59.50486,13.06708],[-59.49708,13.06680],[-59.49986,13.06513],[-59.50291,13.05319],[-59.51041,13.05319],[-59.51125,13.05013],[-59.52569,13.04513],[-59.52680,13.04763],[-59.53319,13.04736],[-59.53486,13.05152],[-59.53152,13.05402],[-59.53736,13.05597],[-59.53847,13.06041],[-59.54319,13.06374],[-59.54208,13.06680],[-59.54763,13.06819],[-59.54458,13.06430],[-59.56180,13.06791],[-59.56236,13.06569],[-59.56680,13.06541],[-59.57375,13.06708],[-59.57236,13.07041],[-59.57847,13.07041],[-59.57958,13.07374],[-59.58263,13.07125],[-59.60430,13.07569],[-59.60708,13.07930],[-59.61069,13.07819],[-59.60875,13.08486],[-59.61069,13.09152],[-59.61763,13.09763],[-59.62291,13.09708],[-59.62930,13.10041],[-59.62958,13.10541],[-59.62569,13.10652],[-59.62736,13.11180],[-59.62958,13.11152],[-59.62680,13.11763],[-59.63291,13.12402],[-59.63152,13.12736],[-59.63486,13.12902],[-59.63097,13.13180],[-59.63541,13.13152],[-59.63402,13.13680],[-59.63736,13.13874],[-59.63847,13.14986],[-59.63486,13.15069],[-59.63736,13.14930],[-59.63486,13.14597],[-59.63041,13.14680],[-59.63041,13.15041],[-59.62708,13.14902],[-59.62625,13.15930],[-59.63152,13.16069],[-59.62930,13.16263],[-59.62541,13.16013],[-59.62541,13.15736],[-59.62263,13.15736],[-59.62541,13.15125],[-59.62263,13.15263],[-59.62152,13.14958],[-59.61791,13.14986],[-59.61763,13.15319],[-59.61569,13.15319],[-59.61569,13.14958],[-59.61125,13.15236],[-59.60847,13.14708],[-59.60763,13.15097],[-59.60486,13.14847],[-59.60513,13.15180],[-59.59513,13.15069],[-59.59763,13.15569],[-59.60180,13.15374],[-59.60541,13.15652],[-59.60597,13.15958],[-59.60180,13.15791],[-59.60375,13.16180],[-59.60680,13.15986],[-59.60430,13.16569],[-59.60041,13.16319],[-59.60013,13.16541],[-59.59819,13.16625],[-59.59791,13.16180],[-59.59708,13.16708],[-59.60152,13.16791],[-59.60763,13.16430],[-59.60347,13.17097],[-59.59791,13.17013],[-59.59486,13.17430],[-59.59569,13.17736],[-59.59486,13.17569],[-59.59291,13.17736],[-59.59319,13.18097],[-59.59513,13.17763],[-59.59763,13.18458],[-59.59541,13.18513],[-59.59486,13.18986],[-59.59819,13.19013]]],[[[-59.61736,13.20874],[-59.61513,13.20347],[-59.61541,13.20930],[-59.60986,13.20847],[-59.61152,13.20180],[-59.61569,13.20152],[-59.61236,13.20013],[-59.61430,13.19847],[-59.61263,13.18680],[-59.61013,13.19069],[-59.60930,13.18569],[-59.61291,13.17569],[-59.62013,13.17986],[-59.61958,13.18208],[-59.61680,13.18041],[-59.61680,13.18291],[-59.62069,13.18541],[-59.62763,13.18236],[-59.62513,13.18819],[-59.63097,13.18652],[-59.63097,13.18402],[-59.63402,13.18569],[-59.63125,13.18930],[-59.63625,13.18597],[-59.63513,13.19180],[-59.63402,13.18986],[-59.63152,13.19041],[-59.63347,13.19319],[-59.62652,13.19069],[-59.62569,13.19569],[-59.63986,13.19208],[-59.63541,13.19513],[-59.64069,13.19958],[-59.63736,13.20291],[-59.63569,13.20152],[-59.63041,13.20486],[-59.62958,13.19625],[-59.62625,13.20208],[-59.62263,13.20180],[-59.62375,13.20708],[-59.61736,13.20874]]],[[[-59.63875,13.22930],[-59.63791,13.23013],[-59.63791,13.22930],[-59.63875,13.22930]]],[[[-59.63708,13.23763],[-59.63819,13.23902],[-59.63708,13.23902],[-59.63708,13.23763]]]]},"properties":{"zone":1,"cells":415894,"area_km2":397.671,"p90":0.4,"p90_max":0.6,"hazard_class":2,"hazard_name":"Moderate","worst_class":3,"worst_class_name":"High","share_at_class":13.4,"share_worst":2.7,"prob_band1":0.5,"confidence":"HIGH","impact_axis":3,"level":4,"level_name":"Very high","population":225553,"n_eds":580,"eds":"1,3,4,5,7,6,9,10..."}},{"type":"Feature","geometry":{"type":"Polygon","coordinates":[[[-59.62597,13.21569],[-59.62708,13.20902],[-59.62902,13.20986],[-59.63097,13.20652],[-59.62902,13.20458],[-59.62402,13.20652],[-59.62569,13.21291],[-59.62236,13.20958],[-59.62597,13.21569]]]},"properties":{"zone":2,"cells":532,"area_km2":0.509,"p90":0.3,"p90_max":0.31,"hazard_class":1,"hazard_name":"Low","worst_class":1,"worst_class_name":"Low","share_at_class":36.1,"share_worst":36.1,"prob_band1":0.32,"confidence":"MED","impact_axis":1,"level":1,"level_name":"Low","population":164,"n_eds":1,"eds":"459"}},{"type":"Feature","geometry":{"type":"Polygon","coordinates":[[[-59.43347,13.16236],[-59.43375,13.15902],[-59.43625,13.15847],[-59.43625,13.16097],[-59.43847,13.15902],[-59.43291,13.15708],[-59.42763,13.15902],[-59.42791,13.16180],[-59.43347,13.16236]]]},"properties":{"zone":3,"cells":377,"area_km2":0.36,"p90":0.21,"p90_max":0.3,"hazard_class":0,"hazard_name":"No signal","worst_class":1,"worst_class_name":"Low","share_at_class":null,"share_worst":7.4,"prob_band1":0.2,"confidence":"MED","impact_axis":1,"level":1,"level_name":"Low","population":179,"n_eds":4,"eds":"366,367,374,417"}},{"type":"Feature","geometry":{"type":"Polygon","coordinates":[[[-59.42930,13.14180],[-59.42958,13.13680],[-59.43208,13.13875],[-59.43180,13.13430],[-59.43708,13.12902],[-59.42708,13.13152],[-59.42902,13.13486],[-59.42680,13.13930],[-59.42930,13.14180]]]},"properties":{"zone":4,"cells":691,"area_km2":0.661,"p90":0.21,"p90_max":0.3,"hazard_class":0,"hazard_name":"No signal","worst_class":1,"worst_class_name":"Low","share_at_class":null,"share_worst":1.9,"prob_band1":0.2,"confidence":"MED","impact_axis":1,"level":1,"level_name":"Low","population":606,"n_eds":4,"eds":"410,413,415,414"}}]}