{"type":"FeatureCollection","bandset":"bb","cycle":"20260816.23000","features":[{"type":"Feature","geometry":{"type":"MultiPolygon","coordinates":[[[[-59.56986,13.13458],[-59.56458,13.13486],[-59.56652,13.13402],[-59.56486,13.13152],[-59.56847,13.13430],[-59.57125,13.13291],[-59.56986,13.13458]]],[[[-59.57152,13.13458],[-59.57986,13.13347],[-59.58180,13.14041],[-59.58791,13.14180],[-59.58847,13.14986],[-59.57875,13.14986],[-59.57847,13.14763],[-59.57708,13.14986],[-59.56958,13.14986],[-59.56847,13.14708],[-59.56347,13.14819],[-59.56208,13.14569],[-59.56180,13.14875],[-59.55847,13.14819],[-59.55736,13.14319],[-59.56486,13.14458],[-59.56041,13.14263],[-59.56347,13.14180],[-59.56319,13.13930],[-59.56097,13.14041],[-59.55625,13.13486],[-59.55041,13.13625],[-59.55208,13.13125],[-59.54986,13.12930],[-59.55319,13.12986],[-59.55319,13.13291],[-59.55513,13.13125],[-59.55458,13.13402],[-59.55708,13.13152],[-59.55791,13.13430],[-59.56291,13.13263],[-59.56125,13.13625],[-59.56347,13.13875],[-59.56569,13.13736],[-59.56625,13.14291],[-59.56680,13.13791],[-59.56875,13.13986],[-59.56930,13.13736],[-59.57263,13.13763],[-59.57152,13.13458]]]]},"properties":{"zone":1,"cells":4784,"area_km2":4.574,"p90":0.3,"p90_max":0.3,"hazard_class":1,"hazard_name":"Low","worst_class":1,"worst_class_name":"Low","share_at_class":45.3,"share_worst":45.3,"prob_band1":0.7,"confidence":"HIGH","impact_axis":1,"level":2,"level_name":"Moderate","population":2558,"n_eds":15,"eds":"82,83,324,332,333,336,337,338..."}},{"type":"Feature","geometry":{"type":"Polygon","coordinates":[[[-59.55347,13.14986],[-59.55652,13.14319],[-59.55375,13.14402],[-59.55569,13.14041],[-59.55069,13.13986],[-59.55347,13.14291],[-59.55263,13.14652],[-59.54986,13.14402],[-59.54986,13.14902],[-59.55236,13.14763],[-59.55347,13.14986]]]},"properties":{"zone":2,"cells":405,"area_km2":0.387,"p90":0.3,"p90_max":0.3,"hazard_class":1,"hazard_name":"Low","worst_class":1,"worst_class_name":"Low","share_at_class":58.3,"share_worst":58.3,"prob_band1":0.7,"confidence":"HIGH","impact_axis":1,"level":2,"level_name":"Moderate","population":356,"n_eds":5,"eds":"325,334,341,343,346"}},{"type":"Feature","geometry":{"type":"MultiPolygon","coordinates":[[[[-59.58486,13.13208],[-59.58291,13.12680],[-59.58319,13.12541],[-59.58652,13.12624],[-59.58486,13.13208]]],[[[-59.58402,13.13430],[-59.58986,13.13291],[-59.59486,13.12597],[-59.59930,13.12763],[-59.60097,13.13236],[-59.60041,13.13430],[-59.59819,13.12875],[-59.59513,13.12930],[-59.59513,13.14180],[-59.59708,13.13930],[-59.59736,13.14263],[-59.59347,13.14291],[-59.59430,13.14875],[-59.59125,13.14652],[-59.59152,13.14291],[-59.58930,13.14541],[-59.58819,13.14069],[-59.58430,13.13930],[-59.58402,13.13430]]]]},"properties":{"zone":3,"cells":2168,"area_km2":2.073,"p90":0.3,"p90_max":0.3,"hazard_class":1,"hazard_name":"Low","worst_class":1,"worst_class_name":"Low","share_at_class":45.9,"share_worst":45.9,"prob_band1":0.76,"confidence":"HIGH","impact_axis":2,"level":3,"level_name":"High","population":1461,"n_eds":11,"eds":"77,79,80,82,83,119,81,76..."}},{"type":"Feature","geometry":{"type":"Polygon","coordinates":[[[-59.60486,13.14152],[-59.60402,13.13624],[-59.60680,13.13513],[-59.60402,13.13319],[-59.60625,13.12847],[-59.61041,13.12930],[-59.61069,13.13208],[-59.61208,13.13097],[-59.60347,13.12069],[-59.60458,13.12736],[-59.59958,13.12569],[-59.60069,13.12874],[-59.60291,13.12736],[-59.60319,13.13513],[-59.59875,13.13541],[-59.59819,13.13847],[-59.60486,13.14152]]]},"properties":{"zone":4,"cells":1158,"area_km2":1.107,"p90":0.3,"p90_max":0.3,"hazard_class":1,"hazard_name":"Low","worst_class":1,"worst_class_name":"Low","share_at_class":52.8,"share_worst":52.8,"prob_band1":0.7,"confidence":"HIGH","impact_axis":2,"level":3,"level_name":"High","population":1404,"n_eds":12,"eds":"36,56,58,62,75,77,37,59..."}},{"type":"Feature","geometry":{"type":"MultiPolygon","coordinates":[[[[-59.57986,13.12236],[-59.58291,13.11597],[-59.58486,13.11569],[-59.58597,13.12208],[-59.58208,13.12180],[-59.58319,13.12458],[-59.57986,13.12236]]],[[[-59.56013,13.12402],[-59.55847,13.12236],[-59.56069,13.12208],[-59.56013,13.12402]]],[[[-59.55902,13.12541],[-59.55986,13.12624],[-59.56319,13.12375],[-59.56291,13.12180],[-59.56625,13.12125],[-59.56430,13.12263],[-59.56513,13.12624],[-59.56680,13.12291],[-59.56930,13.12347],[-59.56902,13.12069],[-59.57513,13.12347],[-59.57430,13.11763],[-59.57847,13.11486],[-59.57958,13.11875],[-59.57513,13.12097],[-59.57847,13.12013],[-59.57986,13.12430],[-59.57319,13.12430],[-59.57513,13.12930],[-59.57291,13.13180],[-59.56958,13.12986],[-59.57236,13.12736],[-59.57013,13.12375],[-59.56680,13.12958],[-59.56097,13.12763],[-59.56180,13.12986],[-59.55958,13.13041],[-59.55791,13.12597],[-59.55513,13.12791],[-59.55013,13.12652],[-59.55291,13.12569],[-59.55291,13.12291],[-59.55375,13.12569],[-59.55902,13.12541]]]]},"properties":{"zone":5,"cells":2078,"area_km2":1.987,"p90":0.3,"p90_max":0.3,"hazard_class":1,"hazard_name":"Low","worst_class":1,"worst_class_name":"Low","share_at_class":55.7,"share_worst":55.7,"prob_band1":0.7,"confidence":"HIGH","impact_axis":1,"level":2,"level_name":"Moderate","population":823,"n_eds":9,"eds":"180,310,311,330,332,337,182,329..."}},{"type":"Feature","geometry":{"type":"Polygon","coordinates":[[[-59.57291,13.12069],[-59.57208,13.11652],[-59.57597,13.11541],[-59.57680,13.11069],[-59.56819,13.11763],[-59.57291,13.12069]]]},"properties":{"zone":6,"cells":443,"area_km2":0.424,"p90":0.3,"p90_max":0.3,"hazard_class":1,"hazard_name":"Low","worst_class":1,"worst_class_name":"Low","share_at_class":59.4,"share_worst":59.4,"prob_band1":0.7,"confidence":"HIGH","impact_axis":1,"level":2,"level_name":"Moderate","population":255,"n_eds":5,"eds":"180,181,179,310,330"}},{"type":"Feature","geometry":{"type":"Polygon","coordinates":[[[-59.59958,13.11791],[-59.60736,13.11736],[-59.60236,13.11624],[-59.59513,13.10791],[-59.59486,13.10013],[-59.59152,13.10124],[-59.58847,13.10569],[-59.59152,13.10625],[-59.59347,13.10180],[-59.59402,13.10763],[-59.59013,13.10874],[-59.59069,13.11124],[-59.59708,13.11069],[-59.59458,13.11402],[-59.59736,13.11819],[-59.59930,13.11430],[-59.59958,13.11791]]]},"properties":{"zone":7,"cells":1036,"area_km2":0.991,"p90":0.3,"p90_max":0.3,"hazard_class":1,"hazard_name":"Low","worst_class":1,"worst_class_name":"Low","share_at_class":61.1,"share_worst":61.1,"prob_band1":0.74,"confidence":"HIGH","impact_axis":2,"level":3,"level_name":"High","population":1606,"n_eds":19,"eds":"54,58,108,109,110,111,118,119..."}},{"type":"Feature","geometry":{"type":"Polygon","coordinates":[[[-59.56902,13.11513],[-59.57041,13.10874],[-59.57902,13.10513],[-59.57819,13.10180],[-59.58041,13.10263],[-59.58069,13.09986],[-59.57597,13.10069],[-59.57236,13.10652],[-59.57013,13.10541],[-59.56902,13.11513]]]},"properties":{"zone":8,"cells":652,"area_km2":0.623,"p90":0.3,"p90_max":0.3,"hazard_class":1,"hazard_name":"Low","worst_class":1,"worst_class_name":"Low","share_at_class":62.6,"share_worst":62.6,"prob_band1":0.7,"confidence":"HIGH","impact_axis":1,"level":2,"level_name":"Moderate","population":970,"n_eds":9,"eds":"168,178,181,179,309,310,311,177..."}},{"type":"Feature","geometry":{"type":"Polygon","coordinates":[[[-59.54986,13.10902],[-59.55958,13.10847],[-59.55652,13.10736],[-59.55680,13.10347],[-59.55458,13.10625],[-59.55125,13.10375],[-59.54986,13.10902]]]},"properties":{"zone":9,"cells":436,"area_km2":0.417,"p90":0.3,"p90_max":0.3,"hazard_class":1,"hazard_name":"Low","worst_class":1,"worst_class_name":"Low","share_at_class":55.5,"share_worst":55.5,"prob_band1":0.7,"confidence":"HIGH","impact_axis":1,"level":2,"level_name":"Moderate","population":96,"n_eds":3,"eds":"237,311,312"}},{"type":"Feature","geometry":{"type":"Polygon","coordinates":[[[-59.61652,13.10541],[-59.61513,13.09930],[-59.61236,13.10180],[-59.60875,13.09736],[-59.61125,13.10180],[-59.60875,13.10430],[-59.61236,13.10513],[-59.61291,13.10291],[-59.61652,13.10541]]]},"properties":{"zone":10,"cells":374,"area_km2":0.358,"p90":0.3,"p90_max":0.3,"hazard_class":1,"hazard_name":"Low","worst_class":1,"worst_class_name":"Low","share_at_class":47.1,"share_worst":47.1,"prob_band1":0.28,"confidence":"MED","impact_axis":2,"level":2,"level_name":"Moderate","population":682,"n_eds":10,"eds":"3,4,5,7,6,91,114,113..."}}]}