{"type":"FeatureCollection","bandset":"bb","cycle":"20260817.14000","features":[{"type":"Feature","geometry":{"type":"MultiPolygon","coordinates":[[[[-59.64458,13.29291],[-59.64458,13.28680],[-59.64819,13.28513],[-59.64930,13.30513],[-59.64625,13.30402],[-59.64597,13.29986],[-59.64263,13.30097],[-59.64041,13.29291],[-59.64125,13.29902],[-59.63902,13.29902],[-59.63986,13.29569],[-59.63819,13.29486],[-59.63791,13.29847],[-59.63402,13.29847],[-59.63680,13.30152],[-59.63430,13.30430],[-59.63819,13.30736],[-59.64013,13.30597],[-59.64069,13.30958],[-59.64541,13.30319],[-59.64486,13.30680],[-59.64986,13.30624],[-59.64986,13.30819],[-59.64430,13.31152],[-59.64597,13.31319],[-59.64347,13.31708],[-59.63763,13.31875],[-59.63958,13.32125],[-59.63486,13.32430],[-59.63375,13.32847],[-59.63125,13.32569],[-59.63041,13.32958],[-59.62791,13.32986],[-59.62902,13.32486],[-59.63486,13.32291],[-59.63402,13.31958],[-59.63013,13.32291],[-59.62736,13.31819],[-59.63375,13.31458],[-59.63291,13.31736],[-59.63541,13.31652],[-59.63486,13.31069],[-59.63708,13.31152],[-59.63791,13.30847],[-59.63291,13.30569],[-59.63375,13.31041],[-59.62736,13.31319],[-59.62708,13.31041],[-59.63263,13.30875],[-59.63208,13.30569],[-59.63069,13.30513],[-59.63180,13.30847],[-59.62875,13.30847],[-59.62875,13.30486],[-59.62625,13.31041],[-59.62263,13.30986],[-59.62041,13.30458],[-59.61652,13.30624],[-59.61680,13.31041],[-59.61930,13.31013],[-59.61708,13.31319],[-59.61958,13.31263],[-59.61902,13.31625],[-59.62152,13.31763],[-59.62375,13.31430],[-59.62958,13.31347],[-59.62652,13.31875],[-59.62152,13.31847],[-59.62263,13.32180],[-59.62902,13.32125],[-59.62513,13.32763],[-59.62652,13.33097],[-59.62402,13.32930],[-59.62458,13.33152],[-59.61875,13.33236],[-59.61986,13.32291],[-59.61847,13.32541],[-59.61652,13.32374],[-59.61847,13.32736],[-59.61513,13.33430],[-59.61125,13.33375],[-59.61291,13.32930],[-59.61013,13.32486],[-59.60902,13.32847],[-59.60625,13.32680],[-59.60625,13.32958],[-59.59986,13.32708],[-59.60097,13.32430],[-59.60486,13.32625],[-59.60347,13.32152],[-59.59902,13.32374],[-59.59902,13.31958],[-59.59569,13.32180],[-59.59763,13.31930],[-59.59625,13.31541],[-59.59541,13.31736],[-59.58986,13.31597],[-59.59597,13.31374],[-59.59180,13.31430],[-59.59236,13.31097],[-59.59513,13.31041],[-59.58763,13.30708],[-59.59125,13.30125],[-59.58097,13.30847],[-59.58375,13.30986],[-59.58541,13.30680],[-59.58513,13.31097],[-59.57736,13.30847],[-59.57902,13.30569],[-59.57486,13.30125],[-59.57708,13.29652],[-59.56875,13.28569],[-59.57125,13.28041],[-59.56902,13.28041],[-59.56736,13.27069],[-59.56486,13.27013],[-59.56458,13.26597],[-59.56125,13.26541],[-59.55875,13.25569],[-59.55625,13.25513],[-59.55708,13.25069],[-59.54875,13.24458],[-59.54791,13.23902],[-59.54375,13.23736],[-59.54152,13.23069],[-59.53013,13.21875],[-59.52486,13.21402],[-59.50819,13.20958],[-59.49791,13.19736],[-59.48763,13.19736],[-59.48625,13.19152],[-59.47763,13.18902],[-59.47291,13.18263],[-59.46708,13.17986],[-59.45819,13.18263],[-59.45013,13.17430],[-59.44847,13.16930],[-59.45013,13.16736],[-59.43597,13.16263],[-59.43625,13.15847],[-59.43375,13.15902],[-59.43458,13.16402],[-59.42791,13.16180],[-59.42736,13.15902],[-59.43152,13.15708],[-59.44236,13.15763],[-59.43736,13.15430],[-59.43819,13.14569],[-59.44097,13.14652],[-59.44097,13.14402],[-59.43291,13.14624],[-59.43180,13.14819],[-59.43430,13.14875],[-59.43180,13.15041],[-59.42791,13.14430],[-59.42486,13.14458],[-59.42680,13.14708],[-59.42513,13.15069],[-59.42819,13.14986],[-59.42625,13.15208],[-59.42847,13.15791],[-59.42291,13.15513],[-59.42291,13.14208],[-59.42708,13.13652],[-59.42708,13.13097],[-59.43319,13.13013],[-59.43125,13.12236],[-59.43375,13.12263],[-59.43541,13.11847],[-59.43875,13.11986],[-59.43958,13.11402],[-59.44486,13.11513],[-59.44152,13.11208],[-59.44236,13.10763],[-59.44541,13.10541],[-59.44763,13.10874],[-59.45291,13.09819],[-59.45208,13.09541],[-59.45625,13.09486],[-59.45625,13.09069],[-59.46041,13.08652],[-59.46458,13.08652],[-59.46513,13.08291],[-59.47708,13.07819],[-59.47708,13.07486],[-59.48125,13.07402],[-59.48319,13.06986],[-59.48958,13.06986],[-59.49013,13.06652],[-59.49958,13.06513],[-59.50263,13.05319],[-59.51041,13.05319],[-59.51125,13.05013],[-59.52513,13.04541],[-59.52680,13.04736],[-59.52041,13.04958],[-59.52486,13.04874],[-59.52541,13.05097],[-59.52625,13.05097],[-59.52625,13.04763],[-59.53319,13.04736],[-59.53513,13.04958],[-59.53375,13.05347],[-59.54180,13.06374],[-59.57347,13.06680],[-59.57486,13.06874],[-59.57236,13.07013],[-59.58125,13.07013],[-59.61069,13.07819],[-59.61041,13.09124],[-59.61680,13.09708],[-59.62930,13.10041],[-59.62986,13.10569],[-59.62569,13.10652],[-59.62736,13.11180],[-59.62958,13.11152],[-59.62708,13.11652],[-59.63291,13.12402],[-59.63875,13.14402],[-59.63680,13.15624],[-59.63930,13.17763],[-59.63791,13.18819],[-59.64152,13.19569],[-59.63986,13.20708],[-59.64402,13.23708],[-59.64291,13.25263],[-59.63847,13.25319],[-59.63930,13.25625],[-59.63458,13.25652],[-59.63652,13.26069],[-59.63847,13.25958],[-59.63875,13.26208],[-59.64319,13.26347],[-59.64375,13.26986],[-59.64625,13.27097],[-59.64736,13.28041],[-59.64458,13.28180],[-59.64847,13.28069],[-59.64875,13.28319],[-59.64569,13.28347],[-59.64541,13.28597],[-59.64208,13.28486],[-59.64097,13.29069],[-59.64458,13.29291]]],[[[-59.64347,13.29013],[-59.64430,13.28874],[-59.64430,13.29013],[-59.64347,13.29013]]],[[[-59.61013,13.33236],[-59.60625,13.32958],[-59.60986,13.32875],[-59.61013,13.33236]]]]},"properties":{"zone":1,"cells":451389,"area_km2":431.611,"p90":0.4,"p90_max":0.6,"hazard_class":2,"hazard_name":"Moderate","worst_class":3,"worst_class_name":"High","share_at_class":10.4,"share_worst":0.9,"prob_band1":0.5,"confidence":"HIGH","impact_axis":3,"level":4,"level_name":"Very high","population":252600,"n_eds":609,"eds":"1,3,4,5,7,6,9,10..."}}]}