{"type":"FeatureCollection","bandset":"bb","cycle":"20260817.12000","features":[{"type":"Feature","geometry":{"type":"MultiPolygon","coordinates":[[[[-59.63597,13.29291],[-59.63513,13.28736],[-59.63152,13.28430],[-59.63347,13.28125],[-59.63069,13.28402],[-59.62458,13.28402],[-59.63375,13.28791],[-59.63402,13.29291],[-59.63013,13.28902],[-59.63013,13.29263],[-59.63291,13.29402],[-59.62930,13.29375],[-59.63180,13.29624],[-59.62986,13.30013],[-59.63152,13.30791],[-59.62791,13.30486],[-59.62208,13.30847],[-59.61958,13.30458],[-59.61652,13.30624],[-59.61652,13.31041],[-59.61930,13.31013],[-59.61652,13.31430],[-59.61958,13.31263],[-59.61902,13.31625],[-59.62152,13.31763],[-59.62375,13.31430],[-59.62625,13.31569],[-59.62513,13.31958],[-59.62236,13.31847],[-59.62152,13.31958],[-59.62791,13.32402],[-59.62458,13.32763],[-59.62708,13.32902],[-59.62652,13.33097],[-59.62402,13.32930],[-59.62263,13.33263],[-59.61875,13.33236],[-59.61930,13.32680],[-59.62125,13.32930],[-59.62263,13.32763],[-59.62041,13.32291],[-59.61847,13.32541],[-59.61652,13.32374],[-59.61847,13.32736],[-59.61458,13.33041],[-59.61597,13.33375],[-59.61263,13.33458],[-59.61069,13.32374],[-59.61680,13.31958],[-59.62041,13.32013],[-59.62041,13.31763],[-59.61625,13.31819],[-59.61541,13.30763],[-59.60986,13.31041],[-59.61375,13.30708],[-59.61625,13.30097],[-59.61263,13.29875],[-59.61013,13.30125],[-59.60930,13.29902],[-59.60708,13.29875],[-59.60847,13.30125],[-59.60625,13.30152],[-59.60986,13.30458],[-59.60680,13.30402],[-59.60430,13.30791],[-59.59986,13.30263],[-59.59458,13.30430],[-59.59458,13.30152],[-59.59152,13.30069],[-59.58652,13.30097],[-59.58819,13.30319],[-59.58458,13.30569],[-59.58125,13.30486],[-59.58125,13.30263],[-59.58625,13.30319],[-59.58375,13.30013],[-59.57513,13.30152],[-59.57819,13.29875],[-59.57291,13.29347],[-59.57541,13.28819],[-59.57069,13.28874],[-59.56930,13.28513],[-59.57319,13.28624],[-59.57208,13.28041],[-59.56986,13.28041],[-59.57013,13.27569],[-59.56791,13.27708],[-59.56930,13.27375],[-59.56597,13.27236],[-59.57208,13.26847],[-59.56458,13.26708],[-59.56569,13.26486],[-59.56152,13.26569],[-59.55819,13.25680],[-59.56736,13.25763],[-59.56763,13.25013],[-59.57041,13.25402],[-59.57041,13.25041],[-59.57930,13.24986],[-59.57958,13.25208],[-59.58125,13.25013],[-59.57986,13.25486],[-59.58819,13.24958],[-59.60013,13.24958],[-59.59986,13.25180],[-59.62152,13.24986],[-59.62319,13.25263],[-59.62375,13.24958],[-59.63847,13.25041],[-59.63569,13.25319],[-59.63847,13.25652],[-59.63041,13.25597],[-59.62958,13.25430],[-59.63375,13.25402],[-59.63263,13.25152],[-59.62930,13.25347],[-59.62736,13.25680],[-59.62875,13.26041],[-59.62652,13.26152],[-59.63152,13.26319],[-59.62958,13.25652],[-59.63569,13.25652],[-59.63819,13.26097],[-59.63625,13.26458],[-59.63958,13.26625],[-59.63680,13.26736],[-59.63680,13.27097],[-59.64208,13.26625],[-59.64625,13.27097],[-59.64736,13.28013],[-59.64263,13.28013],[-59.64625,13.28236],[-59.64513,13.28597],[-59.64180,13.28513],[-59.64041,13.29513],[-59.63597,13.29291]]],[[[-59.63347,13.30069],[-59.63291,13.29486],[-59.63597,13.29430],[-59.63569,13.29708],[-59.63680,13.29597],[-59.63847,13.29708],[-59.63597,13.29847],[-59.63375,13.29680],[-59.63347,13.30069]]],[[[-59.60875,13.30736],[-59.61097,13.30347],[-59.61291,13.30430],[-59.61236,13.30736],[-59.60875,13.30736]]]]},"properties":{"zone":1,"cells":50583,"area_km2":48.367,"p90":0.4,"p90_max":0.5,"hazard_class":2,"hazard_name":"Moderate","worst_class":3,"worst_class_name":"High","share_at_class":15.0,"share_worst":0.2,"prob_band1":0.2,"confidence":"MED","impact_axis":3,"level":3,"level_name":"High","population":13463,"n_eds":44,"eds":"546,552,554,555,557,558,562,564..."}},{"type":"Feature","geometry":{"type":"Polygon","coordinates":[[[-59.60625,13.32958],[-59.60625,13.32680],[-59.60875,13.32847],[-59.60986,13.32486],[-59.60902,13.32152],[-59.60625,13.32125],[-59.60930,13.32041],[-59.61263,13.32236],[-59.61375,13.32013],[-59.61097,13.31736],[-59.60819,13.31958],[-59.60736,13.31569],[-59.61208,13.31180],[-59.60847,13.31180],[-59.60847,13.30902],[-59.60652,13.31041],[-59.60708,13.30763],[-59.60541,13.30847],[-59.60541,13.31597],[-59.60319,13.31541],[-59.60625,13.31930],[-59.60180,13.31791],[-59.59875,13.32180],[-59.60041,13.32375],[-59.60013,13.32180],[-59.60430,13.32097],[-59.60319,13.32430],[-59.60541,13.32402],[-59.60597,13.32680],[-59.60180,13.32486],[-59.59986,13.32708],[-59.60625,13.32958]]]},"properties":{"zone":2,"cells":1526,"area_km2":1.459,"p90":0.3,"p90_max":0.3,"hazard_class":1,"hazard_name":"Low","worst_class":1,"worst_class_name":"Low","share_at_class":45.0,"share_worst":45.0,"prob_band1":0.2,"confidence":"MED","impact_axis":1,"level":1,"level_name":"Low","population":252,"n_eds":5,"eds":"596,602,608,609,597"}},{"type":"Feature","geometry":{"type":"Polygon","coordinates":[[[-59.63486,13.32430],[-59.63958,13.32013],[-59.63708,13.31847],[-59.64097,13.31875],[-59.63763,13.31236],[-59.64180,13.31013],[-59.63958,13.31458],[-59.64236,13.31791],[-59.64236,13.31347],[-59.64541,13.31375],[-59.64430,13.31125],[-59.64986,13.30819],[-59.64986,13.30625],[-59.64486,13.30680],[-59.64541,13.30319],[-59.64347,13.30902],[-59.64097,13.30791],[-59.63486,13.31180],[-59.63458,13.31736],[-59.63208,13.31791],[-59.63458,13.31625],[-59.63375,13.31458],[-59.62736,13.31819],[-59.62847,13.32041],[-59.62958,13.31791],[-59.63402,13.31958],[-59.63486,13.32430]]]},"properties":{"zone":3,"cells":1578,"area_km2":1.509,"p90":0.3,"p90_max":0.3,"hazard_class":1,"hazard_name":"Low","worst_class":1,"worst_class_name":"Low","share_at_class":32.3,"share_worst":32.3,"prob_band1":0.2,"confidence":"MED","impact_axis":1,"level":1,"level_name":"Low","population":708,"n_eds":6,"eds":"591,594,595,596,598,593"}},{"type":"Feature","geometry":{"type":"Polygon","coordinates":[[[-59.60013,13.32013],[-59.59736,13.30819],[-59.59319,13.30791],[-59.59319,13.30541],[-59.58763,13.30597],[-59.59708,13.31041],[-59.59236,13.31208],[-59.59597,13.31263],[-59.60013,13.32013]]]},"properties":{"zone":4,"cells":624,"area_km2":0.597,"p90":0.3,"p90_max":0.3,"hazard_class":1,"hazard_name":"Low","worst_class":1,"worst_class_name":"Low","share_at_class":56.9,"share_worst":56.9,"prob_band1":0.2,"confidence":"MED","impact_axis":1,"level":1,"level_name":"Low","population":177,"n_eds":5,"eds":"605,606,608,609,604"}},{"type":"Feature","geometry":{"type":"Polygon","coordinates":[[[-59.64930,13.30513],[-59.64791,13.29208],[-59.64125,13.29236],[-59.64319,13.29541],[-59.64180,13.29875],[-59.64763,13.29819],[-59.64625,13.30402],[-59.64930,13.30513]]]},"properties":{"zone":5,"cells":660,"area_km2":0.631,"p90":0.3,"p90_max":0.4,"hazard_class":1,"hazard_name":"Low","worst_class":2,"worst_class_name":"Moderate","share_at_class":42.4,"share_worst":1.4,"prob_band1":0.2,"confidence":"MED","impact_axis":1,"level":1,"level_name":"Low","population":542,"n_eds":6,"eds":"590,591,592,594,599,593"}}]}