{"type":"FeatureCollection","bandset":"bb","cycle":"20260817.13000","features":[{"type":"Feature","geometry":{"type":"MultiPolygon","coordinates":[[[[-59.60513,13.32958],[-59.59986,13.32708],[-59.60097,13.32430],[-59.60597,13.32652],[-59.60291,13.32430],[-59.60375,13.32125],[-59.59819,13.32319],[-59.59902,13.31958],[-59.59625,13.31541],[-59.59347,13.31680],[-59.59597,13.31263],[-59.59180,13.31430],[-59.59236,13.31097],[-59.59513,13.31041],[-59.58763,13.30708],[-59.59125,13.30125],[-59.58097,13.30847],[-59.58375,13.30986],[-59.58541,13.30680],[-59.58513,13.31097],[-59.57736,13.30847],[-59.57847,13.30374],[-59.57486,13.29986],[-59.57819,13.29791],[-59.57291,13.29347],[-59.57458,13.28874],[-59.57069,13.28874],[-59.56875,13.28569],[-59.56902,13.28180],[-59.57208,13.28041],[-59.56986,13.28041],[-59.56597,13.27236],[-59.57069,13.26763],[-59.56125,13.26541],[-59.55875,13.25569],[-59.55625,13.25486],[-59.55819,13.25124],[-59.54875,13.24458],[-59.54791,13.23902],[-59.54375,13.23736],[-59.54152,13.23069],[-59.53041,13.21902],[-59.52486,13.21402],[-59.50819,13.20958],[-59.49791,13.19736],[-59.48763,13.19736],[-59.48625,13.19152],[-59.47763,13.18902],[-59.47291,13.18263],[-59.46708,13.17986],[-59.45819,13.18263],[-59.45013,13.17430],[-59.45041,13.16180],[-59.44680,13.16319],[-59.44986,13.15958],[-59.44541,13.15902],[-59.44569,13.15624],[-59.44819,13.15875],[-59.45097,13.15736],[-59.44791,13.15347],[-59.45013,13.15208],[-59.44791,13.14930],[-59.45013,13.13958],[-59.44625,13.13680],[-59.45069,13.13680],[-59.45125,13.12986],[-59.45736,13.12819],[-59.45541,13.12680],[-59.44930,13.12986],[-59.45041,13.12513],[-59.44708,13.12569],[-59.44708,13.12291],[-59.44291,13.12430],[-59.43958,13.11902],[-59.44513,13.11541],[-59.44486,13.12041],[-59.44680,13.11680],[-59.44958,13.12180],[-59.44958,13.11458],[-59.45263,13.11652],[-59.45347,13.11541],[-59.45236,13.11236],[-59.44986,13.11375],[-59.44763,13.10541],[-59.44986,13.10708],[-59.45263,13.10486],[-59.44986,13.10458],[-59.45347,13.09791],[-59.45236,13.09513],[-59.45625,13.09486],[-59.45625,13.09069],[-59.46041,13.08652],[-59.46458,13.08652],[-59.46486,13.08319],[-59.47708,13.07819],[-59.48125,13.07208],[-59.48708,13.07458],[-59.48347,13.07736],[-59.48819,13.07624],[-59.48986,13.07958],[-59.49402,13.07513],[-59.49847,13.07708],[-59.49513,13.08152],[-59.49763,13.08263],[-59.49513,13.08680],[-59.49819,13.08597],[-59.50180,13.07958],[-59.49791,13.07597],[-59.49958,13.07180],[-59.49541,13.07374],[-59.49319,13.07069],[-59.49236,13.07374],[-59.49097,13.07041],[-59.48708,13.07319],[-59.48319,13.07013],[-59.48958,13.06986],[-59.49013,13.06680],[-59.49263,13.06930],[-59.50430,13.06902],[-59.50513,13.06652],[-59.50847,13.06791],[-59.51152,13.06597],[-59.49708,13.06680],[-59.49986,13.06513],[-59.50263,13.05319],[-59.51041,13.05319],[-59.51125,13.05013],[-59.51458,13.04986],[-59.51458,13.05208],[-59.51819,13.04986],[-59.52652,13.05208],[-59.53319,13.05013],[-59.53402,13.05236],[-59.53152,13.05374],[-59.53736,13.05597],[-59.54208,13.06680],[-59.54402,13.06402],[-59.56208,13.06791],[-59.56236,13.06569],[-59.56680,13.06541],[-59.57486,13.06736],[-59.57236,13.06930],[-59.57458,13.07347],[-59.57625,13.06986],[-59.57958,13.07374],[-59.58263,13.07125],[-59.59263,13.07402],[-59.59291,13.07736],[-59.59763,13.07624],[-59.59375,13.07430],[-59.59930,13.07402],[-59.60569,13.07624],[-59.60708,13.07930],[-59.61069,13.07819],[-59.60986,13.09041],[-59.61486,13.09430],[-59.61236,13.09625],[-59.61541,13.09736],[-59.61652,13.09541],[-59.62930,13.10041],[-59.62958,13.10541],[-59.62569,13.10652],[-59.62736,13.11180],[-59.62958,13.11152],[-59.62680,13.11763],[-59.63291,13.12402],[-59.63152,13.12708],[-59.63486,13.12986],[-59.63097,13.13152],[-59.63513,13.13097],[-59.63875,13.14624],[-59.63291,13.14458],[-59.63152,13.13847],[-59.62819,13.13986],[-59.62875,13.14402],[-59.63208,13.14569],[-59.63013,13.15847],[-59.62569,13.15569],[-59.62902,13.16097],[-59.62458,13.16402],[-59.62847,13.16625],[-59.62680,13.16374],[-59.62902,13.16236],[-59.62986,13.16680],[-59.62541,13.16847],[-59.62680,13.17069],[-59.62430,13.17236],[-59.62625,13.17374],[-59.62319,13.17430],[-59.62875,13.17736],[-59.62347,13.17763],[-59.62513,13.18013],[-59.62291,13.18069],[-59.62486,13.18124],[-59.62319,13.18486],[-59.62652,13.18708],[-59.62736,13.18041],[-59.63180,13.18180],[-59.62819,13.18458],[-59.62847,13.18569],[-59.63430,13.18486],[-59.63236,13.18152],[-59.63736,13.18402],[-59.63875,13.18013],[-59.63791,13.19041],[-59.64069,13.19152],[-59.64152,13.19791],[-59.63763,13.19097],[-59.62958,13.19263],[-59.63263,13.19569],[-59.63763,13.19347],[-59.63763,13.19652],[-59.64152,13.19930],[-59.64013,13.20375],[-59.63541,13.20180],[-59.63430,13.20569],[-59.63708,13.20486],[-59.63763,13.20791],[-59.63125,13.21013],[-59.63152,13.21263],[-59.63625,13.21263],[-59.63458,13.21652],[-59.63763,13.21513],[-59.63819,13.21819],[-59.62958,13.22125],[-59.63152,13.22430],[-59.63236,13.22180],[-59.63430,13.22513],[-59.63569,13.22347],[-59.63652,13.22930],[-59.63819,13.22347],[-59.63902,13.22652],[-59.64097,13.22430],[-59.64291,13.22624],[-59.64402,13.23875],[-59.64263,13.23625],[-59.64013,13.23847],[-59.63819,13.23625],[-59.63819,13.24124],[-59.63569,13.24097],[-59.63708,13.24374],[-59.63958,13.24124],[-59.64402,13.24652],[-59.64291,13.25013],[-59.64291,13.24736],[-59.63875,13.24875],[-59.64291,13.25263],[-59.63847,13.25319],[-59.63930,13.25097],[-59.63847,13.25097],[-59.63597,13.25402],[-59.63986,13.25430],[-59.63930,13.25625],[-59.63458,13.25652],[-59.63652,13.26069],[-59.63847,13.25958],[-59.63625,13.26458],[-59.63958,13.26708],[-59.63791,13.26708],[-59.63736,13.26986],[-59.64402,13.26625],[-59.64347,13.26986],[-59.64625,13.27097],[-59.64736,13.28041],[-59.64458,13.28069],[-59.64513,13.28597],[-59.64180,13.28513],[-59.64097,13.29069],[-59.64458,13.29291],[-59.64486,13.28736],[-59.64680,13.28874],[-59.64597,13.28569],[-59.64819,13.28541],[-59.64958,13.30097],[-59.64819,13.30541],[-59.64625,13.30402],[-59.64763,13.30041],[-59.64569,13.30208],[-59.64597,13.29986],[-59.64180,13.29875],[-59.64097,13.29152],[-59.63847,13.29791],[-59.63375,13.29708],[-59.63680,13.30152],[-59.63430,13.30430],[-59.63819,13.30736],[-59.64013,13.30597],[-59.64069,13.30958],[-59.64541,13.30319],[-59.64486,13.30680],[-59.64986,13.30624],[-59.64986,13.30819],[-59.64430,13.31125],[-59.64541,13.31374],[-59.64291,13.31291],[-59.64347,13.31708],[-59.63708,13.31875],[-59.63958,13.32125],[-59.63486,13.32430],[-59.63402,13.31958],[-59.63013,13.32291],[-59.63208,13.31875],[-59.62958,13.31791],[-59.62847,13.32041],[-59.62736,13.31819],[-59.63375,13.31458],[-59.63291,13.31763],[-59.63625,13.31569],[-59.63458,13.31319],[-59.63791,13.31013],[-59.63708,13.30736],[-59.63291,13.30569],[-59.63236,13.31208],[-59.62736,13.31319],[-59.62708,13.31041],[-59.63180,13.31013],[-59.63208,13.30569],[-59.62986,13.30513],[-59.63013,13.30875],[-59.62875,13.30486],[-59.62652,13.30763],[-59.62375,13.30652],[-59.62430,13.30875],[-59.62680,13.30819],[-59.62430,13.31041],[-59.61958,13.30458],[-59.61652,13.30624],[-59.61680,13.31041],[-59.61930,13.31013],[-59.61652,13.31430],[-59.61958,13.31263],[-59.61902,13.31625],[-59.62291,13.31763],[-59.62375,13.31430],[-59.62930,13.31347],[-59.62513,13.31958],[-59.62152,13.31847],[-59.62263,13.32180],[-59.62819,13.32069],[-59.62763,13.32625],[-59.62513,13.32763],[-59.62680,13.33069],[-59.62402,13.32930],[-59.62458,13.33152],[-59.61875,13.33236],[-59.61930,13.32680],[-59.62263,13.32847],[-59.61986,13.32291],[-59.61847,13.32541],[-59.61652,13.32374],[-59.61847,13.32736],[-59.61513,13.33430],[-59.61125,13.33375],[-59.61291,13.32930],[-59.61013,13.32486],[-59.60902,13.32847],[-59.60625,13.32680],[-59.60513,13.32958]]],[[[-59.60625,13.32958],[-59.61013,13.33236],[-59.60625,13.33069],[-59.60625,13.32958]]]]},"properties":{"zone":1,"cells":425071,"area_km2":406.446,"p90":0.4,"p90_max":0.51,"hazard_class":2,"hazard_name":"Moderate","worst_class":3,"worst_class_name":"High","share_at_class":11.5,"share_worst":2.2,"prob_band1":0.4,"confidence":"MED","impact_axis":3,"level":3,"level_name":"High","population":231785,"n_eds":582,"eds":"1,3,4,5,7,6,9,10..."}},{"type":"Feature","geometry":{"type":"Polygon","coordinates":[[[-59.43097,13.14236],[-59.42847,13.13986],[-59.43180,13.14013],[-59.43430,13.13458],[-59.42958,13.13319],[-59.42708,13.13847],[-59.42763,13.14208],[-59.43097,13.14236]]]},"properties":{"zone":2,"cells":475,"area_km2":0.454,"p90":0.12,"p90_max":0.12,"hazard_class":0,"hazard_name":"No signal","worst_class":0,"worst_class_name":"No signal","share_at_class":null,"share_worst":100.0,"prob_band1":0.1,"confidence":"LOW","impact_axis":2,"level":1,"level_name":"Low","population":486,"n_eds":5,"eds":"410,413,415,412,414"}},{"type":"Feature","geometry":{"type":"Polygon","coordinates":[[[-59.43291,13.12736],[-59.43958,13.12736],[-59.44041,13.12125],[-59.43458,13.12236],[-59.43291,13.12736]]]},"properties":{"zone":3,"cells":476,"area_km2":0.455,"p90":0.12,"p90_max":0.12,"hazard_class":0,"hazard_name":"No signal","worst_class":0,"worst_class_name":"No signal","share_at_class":null,"share_worst":100.0,"prob_band1":0.1,"confidence":"LOW","impact_axis":1,"level":1,"level_name":"Low","population":528,"n_eds":4,"eds":"401,403,404,410"}}]}