{"type":"FeatureCollection","bandset":"bb","cycle":"20260817.15000","features":[{"type":"Feature","geometry":{"type":"MultiPolygon","coordinates":[[[[-59.61125,13.15847],[-59.61069,13.15624],[-59.60763,13.15791],[-59.60875,13.15486],[-59.61152,13.15430],[-59.61125,13.15847]]],[[[-59.44736,13.16486],[-59.44236,13.16347],[-59.44208,13.16097],[-59.44736,13.16486]]],[[[-59.64041,13.21791],[-59.64208,13.22736],[-59.64013,13.22736],[-59.63986,13.22013],[-59.63236,13.22347],[-59.62902,13.21930],[-59.63125,13.22430],[-59.63708,13.22486],[-59.63597,13.22930],[-59.63347,13.22930],[-59.63541,13.23347],[-59.63125,13.23569],[-59.63625,13.23708],[-59.63986,13.23374],[-59.63597,13.23263],[-59.63875,13.23152],[-59.63625,13.22930],[-59.64152,13.22847],[-59.64291,13.23041],[-59.64013,13.23875],[-59.63819,13.23569],[-59.63819,13.23902],[-59.63263,13.23736],[-59.62652,13.24013],[-59.63041,13.23791],[-59.63013,13.23597],[-59.62708,13.23708],[-59.62930,13.23097],[-59.62541,13.23069],[-59.62652,13.23652],[-59.62319,13.23736],[-59.62430,13.22958],[-59.61986,13.22819],[-59.61986,13.23013],[-59.62180,13.23819],[-59.62486,13.23819],[-59.62291,13.24236],[-59.62875,13.24124],[-59.63208,13.24958],[-59.63347,13.24652],[-59.63597,13.24986],[-59.64208,13.24902],[-59.64347,13.25152],[-59.63875,13.25319],[-59.64013,13.25541],[-59.63680,13.25930],[-59.64319,13.26319],[-59.64930,13.28125],[-59.64513,13.28513],[-59.64819,13.28513],[-59.64958,13.30374],[-59.64819,13.30541],[-59.64736,13.30180],[-59.63791,13.29819],[-59.63430,13.30430],[-59.63819,13.30736],[-59.64013,13.30597],[-59.64069,13.30958],[-59.64541,13.30319],[-59.64486,13.30680],[-59.64986,13.30624],[-59.64986,13.30819],[-59.64430,13.31152],[-59.64597,13.31319],[-59.64347,13.31708],[-59.63763,13.31875],[-59.63958,13.32125],[-59.63486,13.32430],[-59.63375,13.32847],[-59.63125,13.32597],[-59.62930,13.33069],[-59.61875,13.33263],[-59.61930,13.32569],[-59.61652,13.32374],[-59.61763,13.33263],[-59.61263,13.33458],[-59.61291,13.32930],[-59.60930,13.33263],[-59.59986,13.32708],[-59.60097,13.32430],[-59.60402,13.32541],[-59.60347,13.32152],[-59.60041,13.32374],[-59.59791,13.32319],[-59.59902,13.31986],[-59.59569,13.32180],[-59.59625,13.31541],[-59.59458,13.32013],[-59.59208,13.31902],[-59.59013,13.31458],[-59.59402,13.31597],[-59.59597,13.31374],[-59.59180,13.31430],[-59.59236,13.31097],[-59.59513,13.31125],[-59.59319,13.30819],[-59.59097,13.31319],[-59.58597,13.31347],[-59.59013,13.30902],[-59.58763,13.30708],[-59.58875,13.30402],[-59.58458,13.30541],[-59.58847,13.30847],[-59.58736,13.31013],[-59.58652,13.30763],[-59.58375,13.31125],[-59.57736,13.30847],[-59.57902,13.30569],[-59.57486,13.30125],[-59.57708,13.29652],[-59.56875,13.28569],[-59.57097,13.28041],[-59.56875,13.28041],[-59.56458,13.26597],[-59.56125,13.26541],[-59.55875,13.25569],[-59.55625,13.25513],[-59.55569,13.24652],[-59.55541,13.24930],[-59.55291,13.24930],[-59.54791,13.24319],[-59.54736,13.23791],[-59.54375,13.23736],[-59.54152,13.23152],[-59.54402,13.22986],[-59.54013,13.23069],[-59.52319,13.21236],[-59.51541,13.21291],[-59.51125,13.20902],[-59.50958,13.21013],[-59.49791,13.19736],[-59.48763,13.19736],[-59.48625,13.19152],[-59.47763,13.18902],[-59.47291,13.18263],[-59.46708,13.17986],[-59.45819,13.18263],[-59.45041,13.17430],[-59.45041,13.16513],[-59.44736,13.16486],[-59.44986,13.16402],[-59.45041,13.16152],[-59.44513,13.16263],[-59.44513,13.16041],[-59.44986,13.16041],[-59.44458,13.15958],[-59.44569,13.15624],[-59.44902,13.15708],[-59.44791,13.15263],[-59.45236,13.15125],[-59.44819,13.15180],[-59.44708,13.14958],[-59.44458,13.15708],[-59.44513,13.15152],[-59.44263,13.15347],[-59.43902,13.15180],[-59.43930,13.14930],[-59.44236,13.15041],[-59.44180,13.14791],[-59.45013,13.14652],[-59.44680,13.14374],[-59.44708,13.13930],[-59.44986,13.13847],[-59.44236,13.13847],[-59.44513,13.14486],[-59.44152,13.14180],[-59.43763,13.14430],[-59.43791,13.13930],[-59.44291,13.13708],[-59.44291,13.13180],[-59.44097,13.13680],[-59.43458,13.13680],[-59.43902,13.13541],[-59.43930,13.13097],[-59.44319,13.12680],[-59.43930,13.12513],[-59.43791,13.12874],[-59.43986,13.13013],[-59.43319,13.13291],[-59.43319,13.13819],[-59.42930,13.14013],[-59.43097,13.14236],[-59.42819,13.14236],[-59.42986,13.14541],[-59.42625,13.14263],[-59.42319,13.14374],[-59.42875,13.13486],[-59.42708,13.13097],[-59.43375,13.13041],[-59.43375,13.12041],[-59.44125,13.12069],[-59.43625,13.11874],[-59.43986,13.11791],[-59.44013,13.11402],[-59.44541,13.11513],[-59.44625,13.11180],[-59.44875,13.11069],[-59.44680,13.11736],[-59.44958,13.11513],[-59.45069,13.10930],[-59.44708,13.10986],[-59.44763,13.10541],[-59.45208,13.10569],[-59.45263,13.10402],[-59.44986,13.10458],[-59.45069,13.10097],[-59.45569,13.10069],[-59.45486,13.09847],[-59.45819,13.09763],[-59.45569,13.09708],[-59.45208,13.09986],[-59.45236,13.09513],[-59.45625,13.09486],[-59.45625,13.09069],[-59.46041,13.08652],[-59.46458,13.08652],[-59.46513,13.08291],[-59.47708,13.07819],[-59.47736,13.07458],[-59.48125,13.07402],[-59.48347,13.06986],[-59.48958,13.06986],[-59.49013,13.06652],[-59.49263,13.06930],[-59.49319,13.06652],[-59.49430,13.06874],[-59.50486,13.06902],[-59.50236,13.06652],[-59.49708,13.06680],[-59.49986,13.06513],[-59.50291,13.05319],[-59.51791,13.05041],[-59.51791,13.04708],[-59.52708,13.04541],[-59.52041,13.04874],[-59.52541,13.05125],[-59.52625,13.04763],[-59.53319,13.04736],[-59.53486,13.05152],[-59.53152,13.05402],[-59.53736,13.05597],[-59.53847,13.06041],[-59.54319,13.06374],[-59.54208,13.06680],[-59.54763,13.06819],[-59.54458,13.06430],[-59.56180,13.06791],[-59.56236,13.06569],[-59.56680,13.06541],[-59.57375,13.06708],[-59.57236,13.07041],[-59.57847,13.07041],[-59.57958,13.07374],[-59.58263,13.07125],[-59.59097,13.07458],[-59.59930,13.07402],[-59.60708,13.07930],[-59.61069,13.07819],[-59.60875,13.08486],[-59.61041,13.09124],[-59.61763,13.09763],[-59.62069,13.09708],[-59.62041,13.09902],[-59.62319,13.09736],[-59.62930,13.10041],[-59.62958,13.10541],[-59.62569,13.10736],[-59.62958,13.11236],[-59.62458,13.11569],[-59.63291,13.12402],[-59.63152,13.12736],[-59.63486,13.12986],[-59.63097,13.13180],[-59.63513,13.13097],[-59.63402,13.13680],[-59.63736,13.13874],[-59.63875,13.14513],[-59.63791,13.15069],[-59.63486,13.15069],[-59.63513,13.14597],[-59.63041,13.14680],[-59.63069,13.15097],[-59.62708,13.14902],[-59.62597,13.15736],[-59.62875,13.16041],[-59.63041,13.15875],[-59.62763,13.15763],[-59.63097,13.15652],[-59.63430,13.15736],[-59.63236,13.15986],[-59.63569,13.15986],[-59.63375,13.15569],[-59.63708,13.15569],[-59.63736,13.16097],[-59.62319,13.16291],[-59.62152,13.16680],[-59.61847,13.16763],[-59.61402,13.16402],[-59.62208,13.16430],[-59.62180,13.16208],[-59.62486,13.16208],[-59.62319,13.15930],[-59.62652,13.16124],[-59.62263,13.15736],[-59.62541,13.15125],[-59.62263,13.15263],[-59.62152,13.14958],[-59.62097,13.15152],[-59.61791,13.14986],[-59.61347,13.15847],[-59.61236,13.15541],[-59.61486,13.15513],[-59.61569,13.14958],[-59.61097,13.15319],[-59.61125,13.14986],[-59.60930,13.14875],[-59.61041,13.15180],[-59.60763,13.14986],[-59.60902,13.15347],[-59.60708,13.15458],[-59.60486,13.14819],[-59.60513,13.15180],[-59.60152,13.15291],[-59.60291,13.15513],[-59.60513,13.15319],[-59.60597,13.15958],[-59.60236,13.15819],[-59.60319,13.16097],[-59.61041,13.15875],[-59.60958,13.16097],[-59.61319,13.16180],[-59.60902,13.16208],[-59.61013,13.16291],[-59.60902,13.16486],[-59.60708,13.16041],[-59.60347,13.16347],[-59.60430,13.16569],[-59.60041,13.16319],[-59.59902,13.16652],[-59.60208,13.16875],[-59.60597,13.16430],[-59.60791,13.16541],[-59.60347,13.17097],[-59.59791,13.17013],[-59.59486,13.17513],[-59.59763,13.17763],[-59.59763,13.17458],[-59.60208,13.17430],[-59.59902,13.17597],[-59.59930,13.18069],[-59.60402,13.17986],[-59.60291,13.17708],[-59.60597,13.17930],[-59.60763,13.17569],[-59.60625,13.18152],[-59.60847,13.18180],[-59.60930,13.18791],[-59.61486,13.16708],[-59.62097,13.16902],[-59.61375,13.17402],[-59.61708,13.17958],[-59.62458,13.18152],[-59.62319,13.18486],[-59.62763,13.18236],[-59.62513,13.18819],[-59.62708,13.18569],[-59.63097,13.18652],[-59.63097,13.18402],[-59.63347,13.18458],[-59.63347,13.18763],[-59.63652,13.18597],[-59.63652,13.19013],[-59.63986,13.19208],[-59.64013,13.19569],[-59.63847,13.19347],[-59.63680,13.19486],[-59.64097,13.20208],[-59.63791,13.20069],[-59.63736,13.20291],[-59.63263,13.20291],[-59.62902,13.20986],[-59.62708,13.20902],[-59.62791,13.21236],[-59.62458,13.21736],[-59.62236,13.20958],[-59.62569,13.21263],[-59.62402,13.20652],[-59.62652,13.20708],[-59.62680,13.20430],[-59.62986,13.20597],[-59.63125,13.19708],[-59.62847,13.19708],[-59.62958,13.19986],[-59.62736,13.19874],[-59.62486,13.20375],[-59.62263,13.20180],[-59.62375,13.20708],[-59.62041,13.20958],[-59.61708,13.20902],[-59.61541,13.20458],[-59.61541,13.20930],[-59.60986,13.20847],[-59.61375,13.19791],[-59.60986,13.19208],[-59.61069,13.18819],[-59.61208,13.19152],[-59.61236,13.18736],[-59.60958,13.18791],[-59.60819,13.19708],[-59.61236,13.19791],[-59.60763,13.20263],[-59.60486,13.20097],[-59.60347,13.20236],[-59.60597,13.20208],[-59.60430,13.20458],[-59.60708,13.20402],[-59.60652,13.20708],[-59.60930,13.20597],[-59.60875,13.21097],[-59.61263,13.20958],[-59.61680,13.21180],[-59.61736,13.21569],[-59.61458,13.21430],[-59.61013,13.21763],[-59.61541,13.21652],[-59.61236,13.21791],[-59.61291,13.22402],[-59.61513,13.22208],[-59.61680,13.22430],[-59.62069,13.21986],[-59.61819,13.21875],[-59.61680,13.20930],[-59.62375,13.21486],[-59.62375,13.21736],[-59.62125,13.21402],[-59.61902,13.21624],[-59.62236,13.22013],[-59.62680,13.21986],[-59.62902,13.22402],[-59.62680,13.21597],[-59.62930,13.21819],[-59.63236,13.21708],[-59.63152,13.21402],[-59.63486,13.21513],[-59.63625,13.21763],[-59.63097,13.21819],[-59.63208,13.22013],[-59.64041,13.21791]]],[[[-59.63819,13.21819],[-59.63791,13.21513],[-59.63930,13.21513],[-59.63819,13.21819]]]]},"properties":{"zone":1,"cells":425236,"area_km2":406.604,"p90":0.4,"p90_max":0.6,"hazard_class":2,"hazard_name":"Moderate","worst_class":3,"worst_class_name":"High","share_at_class":16.4,"share_worst":2.1,"prob_band1":0.5,"confidence":"HIGH","impact_axis":3,"level":4,"level_name":"Very high","population":231865,"n_eds":600,"eds":"1,3,4,5,7,6,9,10..."}},{"type":"Feature","geometry":{"type":"Polygon","coordinates":[[[-59.64208,13.24819],[-59.64041,13.24430],[-59.64375,13.24430],[-59.64291,13.24180],[-59.63402,13.24236],[-59.63430,13.24763],[-59.63652,13.24458],[-59.63680,13.24708],[-59.64208,13.24819]]]},"properties":{"zone":2,"cells":533,"area_km2":0.51,"p90":0.3,"p90_max":0.31,"hazard_class":1,"hazard_name":"Low","worst_class":1,"worst_class_name":"Low","share_at_class":24.2,"share_worst":24.2,"prob_band1":0.2,"confidence":"MED","impact_axis":2,"level":2,"level_name":"Moderate","population":606,"n_eds":6,"eds":"563,564,565,570,566,571"}},{"type":"Feature","geometry":{"type":"Polygon","coordinates":[[[-59.62430,13.18013],[-59.62875,13.17847],[-59.62847,13.17513],[-59.62291,13.17430],[-59.62708,13.17458],[-59.62291,13.17125],[-59.62736,13.16569],[-59.62486,13.16763],[-59.62180,13.16625],[-59.62319,13.16902],[-59.62013,13.17180],[-59.62263,13.17208],[-59.62125,13.17652],[-59.62736,13.17708],[-59.62319,13.17847],[-59.62430,13.18013]]]},"properties":{"zone":3,"cells":586,"area_km2":0.56,"p90":0.3,"p90_max":0.32,"hazard_class":1,"hazard_name":"Low","worst_class":1,"worst_class_name":"Low","share_at_class":30.0,"share_worst":30.0,"prob_band1":0.22,"confidence":"MED","impact_axis":1,"level":1,"level_name":"Low","population":193,"n_eds":5,"eds":"464,465,494,495,513"}}]}