{"type":"FeatureCollection","bandset":"bb","cycle":"20260817.18000","features":[{"type":"Feature","geometry":{"type":"Polygon","coordinates":[[[-59.50902,13.20847],[-59.51069,13.20402],[-59.50708,13.20513],[-59.50569,13.20402],[-59.50763,13.20347],[-59.50680,13.20013],[-59.51208,13.19902],[-59.51069,13.19680],[-59.50541,13.19930],[-59.50375,13.20375],[-59.50902,13.20847]]]},"properties":{"zone":1,"cells":453,"area_km2":0.433,"p90":0.22,"p90_max":0.31,"hazard_class":0,"hazard_name":"No signal","worst_class":1,"worst_class_name":"Low","share_at_class":null,"share_worst":9.5,"prob_band1":0.3,"confidence":"MED","impact_axis":1,"level":1,"level_name":"Low","population":134,"n_eds":2,"eds":"418,423"}},{"type":"Feature","geometry":{"type":"Polygon","coordinates":[[[-59.51569,13.17319],[-59.51791,13.16847],[-59.52319,13.16347],[-59.51569,13.16736],[-59.51347,13.17069],[-59.51569,13.17319]]]},"properties":{"zone":2,"cells":367,"area_km2":0.351,"p90":0.21,"p90_max":0.31,"hazard_class":0,"hazard_name":"No signal","worst_class":1,"worst_class_name":"Low","share_at_class":null,"share_worst":3.8,"prob_band1":0.3,"confidence":"MED","impact_axis":1,"level":1,"level_name":"Low","population":89,"n_eds":2,"eds":"429,430"}},{"type":"Feature","geometry":{"type":"Polygon","coordinates":[[[-59.46875,13.13097],[-59.46819,13.12624],[-59.46319,13.12347],[-59.46180,13.13041],[-59.46347,13.12874],[-59.46875,13.13097]]]},"properties":{"zone":3,"cells":433,"area_km2":0.414,"p90":0.31,"p90_max":0.4,"hazard_class":1,"hazard_name":"Low","worst_class":2,"worst_class_name":"Moderate","share_at_class":25.9,"share_worst":1.6,"prob_band1":0.2,"confidence":"MED","impact_axis":1,"level":1,"level_name":"Low","population":105,"n_eds":3,"eds":"370,378,379"}},{"type":"Feature","geometry":{"type":"Polygon","coordinates":[[[-59.45375,13.12652],[-59.45847,13.12513],[-59.45597,13.11986],[-59.45569,13.12236],[-59.45069,13.11847],[-59.45097,13.12236],[-59.44625,13.12069],[-59.45375,13.12652]]]},"properties":{"zone":4,"cells":539,"area_km2":0.515,"p90":0.31,"p90_max":0.4,"hazard_class":1,"hazard_name":"Low","worst_class":2,"worst_class_name":"Moderate","share_at_class":30.8,"share_worst":0.2,"prob_band1":0.2,"confidence":"MED","impact_axis":2,"level":2,"level_name":"Moderate","population":782,"n_eds":7,"eds":"369,370,379,396,400,409,368"}},{"type":"Feature","geometry":{"type":"Polygon","coordinates":[[[-59.49513,13.11402],[-59.49430,13.11069],[-59.50041,13.10958],[-59.49708,13.10791],[-59.50152,13.10236],[-59.50402,13.10319],[-59.50236,13.09874],[-59.49902,13.09958],[-59.49069,13.11069],[-59.48819,13.10958],[-59.48763,13.11291],[-59.49513,13.11402]]]},"properties":{"zone":5,"cells":1033,"area_km2":0.988,"p90":0.31,"p90_max":0.4,"hazard_class":1,"hazard_name":"Low","worst_class":2,"worst_class_name":"Moderate","share_at_class":26.3,"share_worst":7.2,"prob_band1":0.2,"confidence":"MED","impact_axis":1,"level":1,"level_name":"Low","population":233,"n_eds":3,"eds":"272,357,271"}}]}