{"type":"FeatureCollection","bandset":"bb","cycle":"20260817.03000","features":[{"type":"Feature","geometry":{"type":"Polygon","coordinates":[[[-59.61375,13.33486],[-59.63347,13.32875],[-59.65013,13.30791],[-59.64986,13.28291],[-59.64180,13.26236],[-59.64402,13.24986],[-59.63430,13.24847],[-59.64180,13.24541],[-59.64125,13.24375],[-59.63819,13.24541],[-59.63569,13.24208],[-59.63819,13.23847],[-59.63208,13.23902],[-59.63819,13.23569],[-59.62847,13.23875],[-59.63125,13.24069],[-59.63013,13.24402],[-59.63375,13.24125],[-59.63652,13.24541],[-59.63263,13.24625],[-59.63291,13.24986],[-59.63041,13.24986],[-59.62958,13.24569],[-59.62986,13.24902],[-59.62597,13.24652],[-59.62430,13.24902],[-59.62402,13.24430],[-59.62041,13.24958],[-59.62069,13.24375],[-59.61986,13.24597],[-59.61486,13.24402],[-59.61625,13.24125],[-59.62041,13.24208],[-59.62180,13.23791],[-59.62097,13.23486],[-59.62013,13.23819],[-59.61625,13.23847],[-59.61847,13.23763],[-59.61736,13.23375],[-59.62152,13.23458],[-59.62125,13.23041],[-59.61763,13.23041],[-59.61875,13.23291],[-59.61652,13.23291],[-59.61541,13.22958],[-59.62208,13.22680],[-59.62013,13.22069],[-59.62541,13.22263],[-59.62291,13.22513],[-59.62347,13.22763],[-59.62625,13.22708],[-59.62375,13.23291],[-59.62708,13.23236],[-59.62763,13.23486],[-59.62958,13.23208],[-59.63125,13.23652],[-59.63430,13.23652],[-59.63208,13.23486],[-59.63680,13.23375],[-59.63319,13.23097],[-59.63819,13.23347],[-59.64291,13.23125],[-59.64263,13.22625],[-59.63847,13.22680],[-59.63625,13.23152],[-59.63652,13.22458],[-59.63319,13.22625],[-59.63486,13.22930],[-59.63152,13.22986],[-59.63236,13.22763],[-59.62875,13.22513],[-59.62930,13.21736],[-59.62986,13.22041],[-59.63791,13.21763],[-59.63791,13.21569],[-59.63458,13.21652],[-59.63430,13.21375],[-59.62930,13.21652],[-59.62819,13.21319],[-59.63097,13.21347],[-59.63541,13.20013],[-59.63736,13.20263],[-59.63708,13.19763],[-59.63513,13.19763],[-59.63375,13.20180],[-59.63180,13.20236],[-59.63375,13.19597],[-59.63041,13.19569],[-59.63152,13.20569],[-59.62375,13.20652],[-59.62152,13.20319],[-59.62375,13.19736],[-59.62069,13.19625],[-59.62513,13.19625],[-59.62347,13.20041],[-59.62486,13.20375],[-59.62736,13.19875],[-59.62930,13.19958],[-59.62708,13.19652],[-59.63013,13.19513],[-59.62569,13.19569],[-59.62541,13.19236],[-59.61763,13.19458],[-59.62319,13.19291],[-59.62319,13.18875],[-59.63347,13.19291],[-59.63152,13.19041],[-59.63541,13.19013],[-59.63541,13.18569],[-59.62847,13.18569],[-59.63152,13.18263],[-59.62708,13.18152],[-59.62541,13.18430],[-59.62736,13.18708],[-59.62208,13.18763],[-59.62486,13.18291],[-59.62236,13.17791],[-59.62847,13.17597],[-59.62430,13.17569],[-59.62319,13.17347],[-59.62597,13.17263],[-59.62152,13.17013],[-59.62875,13.16625],[-59.62069,13.16125],[-59.62041,13.15430],[-59.61847,13.15791],[-59.61625,13.15736],[-59.61958,13.15236],[-59.62319,13.15319],[-59.62458,13.15152],[-59.61180,13.14986],[-59.61013,13.15236],[-59.60930,13.15013],[-59.60708,13.15236],[-59.60763,13.15902],[-59.60319,13.16097],[-59.60625,13.15930],[-59.60597,13.15041],[-59.60291,13.15069],[-59.60486,13.15291],[-59.59930,13.15625],[-59.59986,13.15430],[-59.59569,13.15347],[-59.59625,13.14930],[-59.59236,13.14875],[-59.59013,13.15125],[-59.58375,13.14902],[-59.57902,13.15180],[-59.57875,13.14375],[-59.57680,13.14430],[-59.57847,13.14875],[-59.57236,13.14680],[-59.57152,13.14902],[-59.57013,13.14236],[-59.56847,13.14597],[-59.56819,13.14319],[-59.56652,13.14513],[-59.56486,13.14319],[-59.56180,13.14541],[-59.57041,13.14930],[-59.56319,13.15097],[-59.55736,13.15791],[-59.55847,13.16513],[-59.55180,13.16541],[-59.54958,13.16958],[-59.54986,13.17208],[-59.55569,13.17041],[-59.55708,13.17680],[-59.55569,13.18041],[-59.55041,13.17763],[-59.54986,13.18069],[-59.55013,13.18513],[-59.55319,13.18263],[-59.55430,13.18847],[-59.55180,13.18930],[-59.55236,13.18569],[-59.54986,13.18652],[-59.54986,13.19430],[-59.55319,13.19458],[-59.54986,13.19930],[-59.55347,13.19986],[-59.55013,13.20069],[-59.55319,13.20430],[-59.54986,13.20541],[-59.55347,13.20625],[-59.54958,13.21069],[-59.54986,13.21680],[-59.55152,13.21513],[-59.55652,13.21625],[-59.55791,13.21319],[-59.55791,13.21736],[-59.55180,13.21652],[-59.54958,13.21930],[-59.55180,13.22625],[-59.54986,13.22847],[-59.54986,13.24513],[-59.55430,13.24930],[-59.55597,13.24458],[-59.56152,13.24430],[-59.55930,13.23763],[-59.56041,13.22986],[-59.56319,13.22902],[-59.56208,13.23763],[-59.56597,13.23986],[-59.56236,13.24208],[-59.56319,13.24708],[-59.55819,13.24486],[-59.56180,13.24958],[-59.55569,13.24680],[-59.55625,13.25513],[-59.56125,13.26541],[-59.56458,13.26597],[-59.56875,13.28597],[-59.57736,13.29763],[-59.57486,13.29902],[-59.57513,13.30319],[-59.57791,13.30402],[-59.57708,13.30819],[-59.58958,13.31402],[-59.59319,13.32013],[-59.59986,13.32430],[-59.59986,13.32708],[-59.61375,13.33486]]]},"properties":{"zone":1,"cells":169930,"area_km2":162.484,"p90":0.6,"p90_max":0.8,"hazard_class":3,"hazard_name":"High","worst_class":4,"worst_class_name":"Very high","share_at_class":16.1,"share_worst":3.1,"prob_band1":0.64,"confidence":"HIGH","impact_axis":4,"level":4,"level_name":"Very high","population":53562,"n_eds":141,"eds":"83,439,440,441,443,445,447,449..."}},{"type":"Feature","geometry":{"type":"Polygon","coordinates":[[[-59.55180,13.16486],[-59.55625,13.16347],[-59.55402,13.15597],[-59.55736,13.15013],[-59.55347,13.14986],[-59.55347,13.14597],[-59.55013,13.14402],[-59.54986,13.14902],[-59.55236,13.14763],[-59.54986,13.15041],[-59.55263,13.15763],[-59.54986,13.15902],[-59.55180,13.16486]]]},"properties":{"zone":2,"cells":1055,"area_km2":1.009,"p90":0.4,"p90_max":0.4,"hazard_class":2,"hazard_name":"Moderate","worst_class":2,"worst_class_name":"Moderate","share_at_class":27.0,"share_worst":27.0,"prob_band1":0.4,"confidence":"MED","impact_axis":2,"level":2,"level_name":"Moderate","population":746,"n_eds":8,"eds":"325,334,342,345,351,352,343,346"}}]}