{"type":"FeatureCollection","bandset":"bb","cycle":"20260817.17000","features":[{"type":"Feature","geometry":{"type":"MultiPolygon","coordinates":[[[[-59.58625,13.13902],[-59.58819,13.14013],[-59.58847,13.14263],[-59.58625,13.13902]]],[[[-59.62652,13.18486],[-59.62625,13.18236],[-59.62763,13.18236],[-59.62652,13.18486]]],[[[-59.62236,13.18402],[-59.63097,13.18652],[-59.63208,13.18430],[-59.63402,13.18680],[-59.63125,13.18930],[-59.63347,13.18874],[-59.63486,13.18597],[-59.63625,13.18736],[-59.63541,13.19041],[-59.63152,13.19041],[-59.63347,13.19291],[-59.62652,13.19069],[-59.62375,13.19819],[-59.62180,13.19680],[-59.62375,13.20013],[-59.62736,13.19458],[-59.63347,13.19541],[-59.63902,13.19208],[-59.63597,13.19513],[-59.63597,13.19708],[-59.63819,13.19541],[-59.64097,13.20069],[-59.63236,13.20291],[-59.63430,13.20736],[-59.63069,13.20708],[-59.63152,13.19652],[-59.62236,13.20319],[-59.62375,13.20652],[-59.62652,13.20652],[-59.62847,13.20263],[-59.62875,13.20902],[-59.63069,13.20930],[-59.62847,13.21041],[-59.62875,13.21624],[-59.63236,13.21680],[-59.63263,13.21375],[-59.63625,13.21263],[-59.63430,13.21513],[-59.63652,13.21791],[-59.63347,13.21736],[-59.63402,13.22041],[-59.63013,13.21847],[-59.62847,13.22236],[-59.63708,13.22486],[-59.63625,13.23152],[-59.64152,13.22847],[-59.64236,13.23513],[-59.63875,13.23569],[-59.64013,13.23291],[-59.63152,13.23486],[-59.63069,13.23291],[-59.63402,13.23125],[-59.62875,13.23208],[-59.62791,13.23486],[-59.62625,13.22986],[-59.62597,13.23819],[-59.62458,13.23875],[-59.62375,13.23041],[-59.62652,13.22708],[-59.62263,13.22680],[-59.62208,13.22930],[-59.61708,13.22791],[-59.61541,13.22958],[-59.62125,13.23041],[-59.62097,13.24180],[-59.62402,13.23958],[-59.63013,13.24347],[-59.63180,13.24013],[-59.62736,13.24041],[-59.62986,13.23541],[-59.63791,13.23541],[-59.63791,13.23763],[-59.63097,13.23930],[-59.63513,13.23986],[-59.63708,13.24347],[-59.63875,13.24152],[-59.63986,13.24374],[-59.64375,13.24291],[-59.63819,13.24430],[-59.64180,13.24680],[-59.63652,13.24708],[-59.63569,13.24430],[-59.63541,13.24680],[-59.63125,13.24763],[-59.64347,13.25097],[-59.64125,13.25347],[-59.64041,13.25930],[-59.64236,13.25930],[-59.64208,13.25375],[-59.64402,13.25875],[-59.63958,13.26124],[-59.64347,13.26319],[-59.64375,13.26986],[-59.64625,13.27097],[-59.64958,13.28208],[-59.64986,13.30875],[-59.63347,13.32875],[-59.61263,13.33458],[-59.61125,13.33041],[-59.60930,13.33263],[-59.59986,13.32708],[-59.60041,13.32402],[-59.59569,13.32180],[-59.59625,13.31541],[-59.59458,13.32041],[-59.59208,13.31902],[-59.58958,13.31458],[-59.59263,13.31208],[-59.58625,13.31374],[-59.58541,13.31125],[-59.57736,13.30875],[-59.57902,13.30569],[-59.57486,13.30152],[-59.57736,13.29763],[-59.56875,13.28597],[-59.57041,13.28041],[-59.56458,13.26597],[-59.56125,13.26541],[-59.55875,13.25569],[-59.55625,13.25513],[-59.55625,13.24736],[-59.55819,13.24625],[-59.55875,13.24402],[-59.55513,13.24430],[-59.55458,13.23819],[-59.55458,13.24374],[-59.55152,13.24513],[-59.55569,13.24652],[-59.55291,13.24930],[-59.54819,13.24374],[-59.54736,13.23791],[-59.54513,13.23847],[-59.54597,13.23652],[-59.54375,13.23736],[-59.54180,13.23347],[-59.54402,13.22986],[-59.53847,13.22847],[-59.52347,13.21402],[-59.52513,13.21041],[-59.52097,13.21375],[-59.51541,13.21291],[-59.51180,13.21041],[-59.51236,13.20819],[-59.50958,13.21013],[-59.49791,13.19736],[-59.48736,13.19708],[-59.48625,13.19152],[-59.47430,13.18652],[-59.47291,13.18263],[-59.46763,13.17958],[-59.45819,13.18263],[-59.45041,13.17430],[-59.44847,13.16930],[-59.45041,13.16513],[-59.44541,13.16597],[-59.44180,13.16097],[-59.44569,13.15624],[-59.44875,13.15708],[-59.44875,13.15208],[-59.45263,13.15430],[-59.45152,13.14875],[-59.44680,13.14930],[-59.44458,13.15708],[-59.44291,13.15291],[-59.44513,13.15152],[-59.43791,13.15236],[-59.43930,13.14958],[-59.44236,13.15041],[-59.44180,13.14791],[-59.44375,13.15013],[-59.45013,13.14791],[-59.44847,13.14013],[-59.45152,13.13375],[-59.44902,13.12902],[-59.45041,13.12513],[-59.44569,13.12152],[-59.44541,13.12874],[-59.44013,13.13013],[-59.44347,13.12763],[-59.44097,13.12263],[-59.43902,13.12208],[-59.43902,13.12680],[-59.43375,13.12736],[-59.43375,13.12124],[-59.44125,13.12069],[-59.43986,13.11791],[-59.44263,13.11513],[-59.44458,13.11513],[-59.44402,13.11819],[-59.44708,13.11736],[-59.44819,13.12208],[-59.44930,13.11847],[-59.45263,13.11958],[-59.45208,13.11652],[-59.45486,13.11541],[-59.45236,13.11513],[-59.44902,13.11791],[-59.44986,13.11291],[-59.45263,13.11430],[-59.45041,13.11152],[-59.45208,13.10958],[-59.44902,13.10736],[-59.45263,13.10513],[-59.44986,13.10402],[-59.45069,13.10097],[-59.45569,13.10069],[-59.45513,13.09874],[-59.46680,13.09986],[-59.46486,13.10458],[-59.46097,13.10374],[-59.45847,13.10708],[-59.45986,13.10986],[-59.45402,13.10791],[-59.45319,13.11069],[-59.45652,13.11236],[-59.45708,13.11041],[-59.46152,13.11180],[-59.46097,13.10847],[-59.46430,13.10930],[-59.46736,13.10625],[-59.46736,13.10041],[-59.47263,13.09958],[-59.47097,13.10569],[-59.47625,13.10708],[-59.47486,13.09986],[-59.47763,13.09986],[-59.48013,13.10402],[-59.48125,13.09847],[-59.48708,13.09930],[-59.49180,13.10847],[-59.49180,13.10236],[-59.49652,13.09819],[-59.49569,13.10069],[-59.49875,13.10208],[-59.49930,13.09791],[-59.49708,13.09597],[-59.49319,13.09847],[-59.49208,13.08986],[-59.49541,13.08847],[-59.49513,13.09291],[-59.49986,13.09291],[-59.49680,13.08541],[-59.50013,13.08763],[-59.50180,13.08458],[-59.49958,13.08152],[-59.50347,13.08013],[-59.49875,13.07680],[-59.49625,13.08152],[-59.49152,13.08069],[-59.49375,13.08374],[-59.49597,13.08236],[-59.49597,13.08513],[-59.49097,13.08736],[-59.49069,13.08402],[-59.48791,13.08319],[-59.48847,13.07847],[-59.49041,13.07958],[-59.49013,13.07652],[-59.49513,13.07569],[-59.49652,13.07902],[-59.49736,13.07486],[-59.50375,13.07402],[-59.50902,13.07736],[-59.50680,13.07319],[-59.49819,13.07069],[-59.49986,13.06874],[-59.50625,13.06874],[-59.50652,13.07069],[-59.50958,13.06819],[-59.51013,13.06486],[-59.50375,13.06624],[-59.50180,13.06430],[-59.50208,13.06652],[-59.49763,13.06680],[-59.50291,13.05319],[-59.51041,13.05319],[-59.51125,13.05013],[-59.51791,13.04902],[-59.52236,13.05236],[-59.52347,13.05013],[-59.52430,13.05347],[-59.51958,13.05486],[-59.52319,13.05513],[-59.52236,13.05763],[-59.52541,13.05930],[-59.52958,13.05902],[-59.52597,13.06319],[-59.52569,13.06736],[-59.52819,13.06791],[-59.52791,13.06569],[-59.53069,13.06569],[-59.52986,13.05874],[-59.53291,13.05930],[-59.53291,13.05652],[-59.52541,13.05791],[-59.52458,13.05513],[-59.52847,13.05430],[-59.52819,13.04902],[-59.52958,13.05319],[-59.53375,13.04986],[-59.53486,13.05152],[-59.53152,13.05402],[-59.53736,13.05597],[-59.54013,13.06541],[-59.54763,13.06819],[-59.54819,13.06597],[-59.54458,13.06569],[-59.54458,13.06430],[-59.54847,13.06458],[-59.55236,13.07125],[-59.54819,13.07458],[-59.54819,13.07736],[-59.55069,13.07541],[-59.54902,13.08069],[-59.54430,13.07458],[-59.53597,13.08347],[-59.54125,13.08124],[-59.54152,13.08347],[-59.54458,13.08402],[-59.54263,13.08319],[-59.54402,13.08069],[-59.54902,13.08263],[-59.55902,13.07736],[-59.55680,13.08347],[-59.55375,13.08291],[-59.55625,13.09069],[-59.55375,13.09069],[-59.55375,13.08597],[-59.55125,13.08680],[-59.55013,13.08430],[-59.54541,13.08652],[-59.54986,13.08597],[-59.55152,13.08875],[-59.54486,13.08958],[-59.54208,13.09374],[-59.54208,13.09930],[-59.54958,13.09652],[-59.54958,13.10319],[-59.55291,13.10291],[-59.55069,13.10597],[-59.55375,13.10847],[-59.55069,13.10958],[-59.54902,13.10736],[-59.54569,13.11291],[-59.55125,13.11402],[-59.55291,13.11097],[-59.55680,13.11458],[-59.55791,13.11208],[-59.55708,13.11569],[-59.55902,13.11624],[-59.56013,13.10902],[-59.56347,13.10930],[-59.56625,13.11319],[-59.56430,13.11569],[-59.57013,13.11791],[-59.56958,13.12041],[-59.56430,13.12041],[-59.56375,13.11597],[-59.55986,13.11541],[-59.55875,13.11986],[-59.56152,13.11930],[-59.56291,13.12180],[-59.55958,13.12513],[-59.55763,13.12458],[-59.55930,13.12097],[-59.55263,13.11708],[-59.55041,13.11791],[-59.55208,13.12013],[-59.54541,13.11930],[-59.54625,13.12236],[-59.55152,13.12486],[-59.55069,13.12958],[-59.55513,13.13180],[-59.55125,13.13319],[-59.54875,13.13125],[-59.55597,13.14069],[-59.55069,13.14208],[-59.54986,13.14652],[-59.55236,13.14513],[-59.55236,13.14986],[-59.56097,13.15013],[-59.56263,13.14791],[-59.55513,13.14652],[-59.56069,13.14402],[-59.56541,13.14986],[-59.56930,13.14986],[-59.56625,13.14319],[-59.56097,13.14374],[-59.56125,13.13847],[-59.55708,13.14208],[-59.55902,13.13708],[-59.55652,13.13263],[-59.56513,13.12874],[-59.56097,13.12513],[-59.56430,13.12208],[-59.57152,13.12124],[-59.57097,13.11763],[-59.58430,13.12069],[-59.58736,13.11680],[-59.58513,13.13430],[-59.59013,13.13736],[-59.58791,13.13902],[-59.58597,13.13708],[-59.58541,13.14097],[-59.58791,13.14513],[-59.58208,13.14736],[-59.57875,13.15152],[-59.58347,13.14819],[-59.58513,13.14986],[-59.58875,13.14513],[-59.59013,13.14763],[-59.58736,13.14986],[-59.59430,13.14986],[-59.59597,13.14708],[-59.59569,13.15347],[-59.59763,13.15208],[-59.60541,13.15736],[-59.60013,13.15652],[-59.60152,13.16013],[-59.59819,13.15791],[-59.59736,13.16041],[-59.60208,13.16236],[-59.60708,13.16013],[-59.60430,13.16569],[-59.59986,13.16374],[-59.60208,13.16958],[-59.59625,13.17152],[-59.60097,13.17430],[-59.59708,13.17486],[-59.59763,13.17791],[-59.59986,13.17652],[-59.59930,13.18069],[-59.60180,13.17930],[-59.60180,13.18263],[-59.60902,13.18236],[-59.60847,13.18791],[-59.61041,13.18124],[-59.61319,13.18402],[-59.61680,13.18152],[-59.62069,13.18625],[-59.62236,13.18402]]]]},"properties":{"zone":1,"cells":340671,"area_km2":325.744,"p90":0.31,"p90_max":0.6,"hazard_class":1,"hazard_name":"Low","worst_class":3,"worst_class_name":"High","share_at_class":31.7,"share_worst":3.6,"prob_band1":0.5,"confidence":"HIGH","impact_axis":2,"level":3,"level_name":"High","population":123400,"n_eds":323,"eds":"80,82,83,119,84,439,440,441..."}},{"type":"Feature","geometry":{"type":"MultiPolygon","coordinates":[[[[-59.61847,13.14597],[-59.61763,13.15319],[-59.61541,13.15236],[-59.61652,13.14874],[-59.61263,13.14847],[-59.61125,13.15208],[-59.61069,13.14763],[-59.60430,13.14708],[-59.60513,13.14374],[-59.60125,13.14125],[-59.59902,13.14319],[-59.59847,13.13986],[-59.60847,13.14180],[-59.60652,13.13819],[-59.60375,13.13819],[-59.60430,13.13097],[-59.60652,13.12930],[-59.60930,13.13319],[-59.61041,13.13124],[-59.60847,13.12763],[-59.60458,13.12791],[-59.60375,13.12041],[-59.62625,13.10930],[-59.62347,13.11180],[-59.62597,13.11374],[-59.62263,13.11402],[-59.62208,13.11680],[-59.62680,13.11624],[-59.62708,13.11874],[-59.62486,13.11736],[-59.62430,13.12041],[-59.62097,13.12013],[-59.62402,13.12263],[-59.62013,13.12375],[-59.61930,13.12847],[-59.61541,13.12708],[-59.61791,13.12569],[-59.61541,13.12319],[-59.61763,13.12291],[-59.61625,13.11819],[-59.61458,13.12236],[-59.60819,13.12041],[-59.60875,13.12402],[-59.61291,13.12347],[-59.61430,13.12763],[-59.61125,13.12847],[-59.61430,13.13541],[-59.61069,13.13736],[-59.61486,13.13763],[-59.61402,13.14013],[-59.61597,13.14041],[-59.61013,13.14347],[-59.61291,13.14319],[-59.61375,13.14819],[-59.61847,13.14597]]],[[[-59.61875,13.14958],[-59.62041,13.15069],[-59.61875,13.15069],[-59.61875,13.14958]]]]},"properties":{"zone":2,"cells":4881,"area_km2":4.667,"p90":0.31,"p90_max":0.41,"hazard_class":1,"hazard_name":"Low","worst_class":2,"worst_class_name":"Moderate","share_at_class":32.1,"share_worst":4.2,"prob_band1":0.5,"confidence":"HIGH","impact_axis":2,"level":3,"level_name":"High","population":12461,"n_eds":67,"eds":"21,22,24,27,28,29,31,32..."}},{"type":"Feature","geometry":{"type":"Polygon","coordinates":[[[-59.62125,13.14763],[-59.62097,13.14291],[-59.62680,13.14097],[-59.63069,13.13458],[-59.62291,13.13569],[-59.62125,13.13791],[-59.62430,13.13652],[-59.62597,13.13763],[-59.62208,13.14152],[-59.61986,13.13819],[-59.61819,13.14569],[-59.62013,13.14486],[-59.62125,13.14763]]]},"properties":{"zone":3,"cells":571,"area_km2":0.546,"p90":0.31,"p90_max":0.4,"hazard_class":1,"hazard_name":"Low","worst_class":2,"worst_class_name":"Moderate","share_at_class":19.8,"share_worst":3.7,"prob_band1":0.3,"confidence":"MED","impact_axis":2,"level":2,"level_name":"Moderate","population":861,"n_eds":10,"eds":"70,71,18,484,485,489,480,491..."}},{"type":"Feature","geometry":{"type":"Polygon","coordinates":[[[-59.42819,13.13986],[-59.42930,13.13652],[-59.43263,13.13736],[-59.43152,13.13402],[-59.43569,13.12930],[-59.42902,13.13263],[-59.42819,13.13986]]]},"properties":{"zone":4,"cells":437,"area_km2":0.418,"p90":0.3,"p90_max":0.3,"hazard_class":1,"hazard_name":"Low","worst_class":1,"worst_class_name":"Low","share_at_class":43.2,"share_worst":43.2,"prob_band1":0.3,"confidence":"MED","impact_axis":1,"level":1,"level_name":"Low","population":408,"n_eds":4,"eds":"410,413,415,414"}},{"type":"Feature","geometry":{"type":"Polygon","coordinates":[[[-59.59736,13.13819],[-59.59513,13.12680],[-59.59069,13.12430],[-59.59152,13.12680],[-59.58791,13.12791],[-59.59097,13.13125],[-59.58986,13.13291],[-59.58763,13.13125],[-59.58652,13.13402],[-59.59208,13.13597],[-59.59375,13.13152],[-59.59486,13.13791],[-59.59736,13.13819]]]},"properties":{"zone":5,"cells":766,"area_km2":0.732,"p90":0.31,"p90_max":0.41,"hazard_class":1,"hazard_name":"Low","worst_class":2,"worst_class_name":"Moderate","share_at_class":45.8,"share_worst":8.2,"prob_band1":0.5,"confidence":"HIGH","impact_axis":1,"level":2,"level_name":"Moderate","population":543,"n_eds":5,"eds":"77,80,81,84,182"}},{"type":"Feature","geometry":{"type":"Polygon","coordinates":[[[-59.60152,13.13486],[-59.60375,13.13236],[-59.59930,13.12680],[-59.60430,13.12680],[-59.60208,13.12013],[-59.59930,13.12208],[-59.60263,13.12597],[-59.59541,13.12652],[-59.59791,13.13347],[-59.60152,13.13208],[-59.60152,13.13486]]]},"properties":{"zone":6,"cells":669,"area_km2":0.64,"p90":0.3,"p90_max":0.4,"hazard_class":1,"hazard_name":"Low","worst_class":2,"worst_class_name":"Moderate","share_at_class":21.5,"share_worst":1.5,"prob_band1":0.4,"confidence":"MED","impact_axis":1,"level":1,"level_name":"Low","population":226,"n_eds":4,"eds":"75,77,76,182"}},{"type":"Feature","geometry":{"type":"Polygon","coordinates":[[[-59.62958,13.13013],[-59.62875,13.12680],[-59.63125,13.12791],[-59.63208,13.12375],[-59.62513,13.12125],[-59.62736,13.12513],[-59.62513,13.12791],[-59.62958,13.13013]]]},"properties":{"zone":7,"cells":457,"area_km2":0.437,"p90":0.31,"p90_max":0.4,"hazard_class":1,"hazard_name":"Low","worst_class":2,"worst_class_name":"Moderate","share_at_class":32.4,"share_worst":4.4,"prob_band1":0.3,"confidence":"MED","impact_axis":2,"level":2,"level_name":"Moderate","population":803,"n_eds":9,"eds":"13,14,15,16,19,20,23,25..."}},{"type":"Feature","geometry":{"type":"Polygon","coordinates":[[[-59.60236,13.11847],[-59.60847,13.11708],[-59.60736,13.11347],[-59.59680,13.11125],[-59.59680,13.11402],[-59.60236,13.11847]]]},"properties":{"zone":8,"cells":665,"area_km2":0.636,"p90":0.31,"p90_max":0.41,"hazard_class":1,"hazard_name":"Low","worst_class":2,"worst_class_name":"Moderate","share_at_class":38.8,"share_worst":0.5,"prob_band1":0.4,"confidence":"MED","impact_axis":2,"level":2,"level_name":"Moderate","population":1869,"n_eds":11,"eds":"54,58,101,106,107,108,109,110..."}},{"type":"Feature","geometry":{"type":"Polygon","coordinates":[[[-59.57541,13.11763],[-59.57902,13.11680],[-59.58013,13.10930],[-59.58263,13.10874],[-59.58097,13.11263],[-59.58486,13.11374],[-59.58680,13.10958],[-59.59263,13.10902],[-59.59347,13.10569],[-59.58847,13.10513],[-59.59069,13.10708],[-59.58513,13.10791],[-59.58375,13.11069],[-59.58486,13.10680],[-59.58208,13.10624],[-59.58097,13.10208],[-59.57736,13.10236],[-59.57791,13.10430],[-59.57263,13.10236],[-59.57347,13.10486],[-59.57208,13.10652],[-59.56986,13.10513],[-59.57236,13.10347],[-59.56763,13.10458],[-59.56763,13.11597],[-59.57791,13.11208],[-59.57652,13.11597],[-59.57263,13.11458],[-59.57541,13.11763]]]},"properties":{"zone":9,"cells":2472,"area_km2":2.364,"p90":0.31,"p90_max":0.41,"hazard_class":1,"hazard_name":"Low","worst_class":2,"worst_class_name":"Moderate","share_at_class":46.0,"share_worst":9.0,"prob_band1":0.4,"confidence":"MED","impact_axis":2,"level":2,"level_name":"Moderate","population":3394,"n_eds":19,"eds":"119,135,137,141,167,168,169,170..."}},{"type":"Feature","geometry":{"type":"Polygon","coordinates":[[[-59.60680,13.11263],[-59.60958,13.10958],[-59.60930,13.10569],[-59.60708,13.10986],[-59.60486,13.10708],[-59.60013,13.10958],[-59.59875,13.10486],[-59.59430,13.10569],[-59.59597,13.11041],[-59.60402,13.10930],[-59.60680,13.11263]]]},"properties":{"zone":10,"cells":576,"area_km2":0.551,"p90":0.31,"p90_max":0.41,"hazard_class":1,"hazard_name":"Low","worst_class":2,"worst_class_name":"Moderate","share_at_class":27.3,"share_worst":0.9,"prob_band1":0.3,"confidence":"MED","impact_axis":2,"level":2,"level_name":"Moderate","population":1582,"n_eds":16,"eds":"103,104,105,106,110,111,114,113..."}},{"type":"Feature","geometry":{"type":"Polygon","coordinates":[[[-59.62041,13.10930],[-59.62597,13.10736],[-59.62263,13.10791],[-59.62208,13.09930],[-59.61652,13.09819],[-59.61708,13.10208],[-59.61430,13.10375],[-59.61013,13.10097],[-59.60958,13.10625],[-59.61541,13.10402],[-59.61513,13.10958],[-59.62097,13.10680],[-59.62041,13.10930]]]},"properties":{"zone":11,"cells":1132,"area_km2":1.082,"p90":0.31,"p90_max":0.5,"hazard_class":1,"hazard_name":"Low","worst_class":3,"worst_class_name":"High","share_at_class":34.4,"share_worst":0.2,"prob_band1":0.4,"confidence":"MED","impact_axis":2,"level":2,"level_name":"Moderate","population":3026,"n_eds":19,"eds":"3,4,5,7,6,9,10,11..."}},{"type":"Feature","geometry":{"type":"MultiPolygon","coordinates":[[[[-59.60763,13.09958],[-59.60152,13.09986],[-59.60125,13.09569],[-59.60791,13.09347],[-59.60958,13.08902],[-59.61097,13.09263],[-59.60763,13.09958]]],[[[-59.60486,13.10263],[-59.60513,13.10597],[-59.59708,13.10458],[-59.59541,13.09791],[-59.60013,13.09680],[-59.60013,13.10319],[-59.60486,13.10263]]]]},"properties":{"zone":12,"cells":1204,"area_km2":1.151,"p90":0.31,"p90_max":0.41,"hazard_class":1,"hazard_name":"Low","worst_class":2,"worst_class_name":"Moderate","share_at_class":24.8,"share_worst":3.1,"prob_band1":0.4,"confidence":"MED","impact_axis":2,"level":2,"level_name":"Moderate","population":2539,"n_eds":19,"eds":"1,3,118,120,122,123,124,125..."}},{"type":"Feature","geometry":{"type":"Polygon","coordinates":[[[-59.58708,13.10458],[-59.59347,13.10124],[-59.59069,13.09652],[-59.59263,13.09597],[-59.59291,13.09874],[-59.59597,13.09652],[-59.59486,13.09374],[-59.59263,13.09569],[-59.59125,13.09124],[-59.59125,13.09513],[-59.58652,13.09791],[-59.58930,13.09930],[-59.58819,13.10097],[-59.58236,13.09791],[-59.57958,13.09902],[-59.58708,13.10458]]]},"properties":{"zone":13,"cells":865,"area_km2":0.827,"p90":0.31,"p90_max":0.41,"hazard_class":1,"hazard_name":"Low","worst_class":2,"worst_class_name":"Moderate","share_at_class":25.4,"share_worst":2.7,"prob_band1":0.5,"confidence":"HIGH","impact_axis":2,"level":3,"level_name":"High","population":1270,"n_eds":15,"eds":"138,139,141,154,155,156,165,160..."}},{"type":"Feature","geometry":{"type":"Polygon","coordinates":[[[-59.45930,13.09708],[-59.46791,13.09374],[-59.47180,13.08680],[-59.47291,13.09097],[-59.47819,13.08902],[-59.47569,13.08486],[-59.47986,13.08652],[-59.47958,13.08152],[-59.47625,13.08041],[-59.47680,13.08374],[-59.47347,13.08152],[-59.47402,13.08347],[-59.46930,13.08402],[-59.47541,13.07902],[-59.47319,13.07819],[-59.47291,13.08041],[-59.46513,13.08291],[-59.46458,13.08652],[-59.46041,13.08652],[-59.45625,13.09374],[-59.45930,13.09708]]]},"properties":{"zone":14,"cells":2448,"area_km2":2.341,"p90":0.31,"p90_max":0.41,"hazard_class":1,"hazard_name":"Low","worst_class":2,"worst_class_name":"Moderate","share_at_class":16.7,"share_worst":0.6,"prob_band1":0.2,"confidence":"MED","impact_axis":1,"level":1,"level_name":"Low","population":2382,"n_eds":12,"eds":"380,382,384,385,387,389,375,280..."}},{"type":"Feature","geometry":{"type":"Polygon","coordinates":[[[-59.59847,13.09569],[-59.60569,13.09180],[-59.60430,13.09013],[-59.60680,13.08597],[-59.60013,13.09013],[-59.59847,13.09569]]]},"properties":{"zone":15,"cells":364,"area_km2":0.348,"p90":0.31,"p90_max":0.4,"hazard_class":1,"hazard_name":"Low","worst_class":2,"worst_class_name":"Moderate","share_at_class":32.7,"share_worst":4.4,"prob_band1":0.3,"confidence":"MED","impact_axis":2,"level":2,"level_name":"Moderate","population":1123,"n_eds":11,"eds":"126,131,132,133,138,142,143,147..."}},{"type":"Feature","geometry":{"type":"MultiPolygon","coordinates":[[[[-59.56986,13.08430],[-59.57652,13.08236],[-59.57541,13.07875],[-59.57513,13.08097],[-59.57375,13.07819],[-59.57125,13.07986],[-59.56847,13.07208],[-59.57625,13.06986],[-59.57680,13.07430],[-59.58208,13.07486],[-59.58208,13.07680],[-59.57763,13.07541],[-59.58013,13.07847],[-59.57819,13.08263],[-59.58236,13.08375],[-59.57625,13.08791],[-59.57347,13.08597],[-59.57402,13.09069],[-59.56986,13.08680],[-59.56958,13.09097],[-59.56597,13.09263],[-59.56236,13.09097],[-59.56375,13.08791],[-59.56541,13.08986],[-59.56930,13.08847],[-59.56458,13.08736],[-59.56847,13.08013],[-59.56986,13.08430]]],[[[-59.56986,13.08347],[-59.57069,13.08208],[-59.57069,13.08347],[-59.56986,13.08347]]],[[[-59.56430,13.08513],[-59.56513,13.08402],[-59.56513,13.08513],[-59.56430,13.08513]]]]},"properties":{"zone":16,"cells":2334,"area_km2":2.232,"p90":0.31,"p90_max":0.4,"hazard_class":1,"hazard_name":"Low","worst_class":2,"worst_class_name":"Moderate","share_at_class":21.2,"share_worst":3.5,"prob_band1":0.3,"confidence":"MED","impact_axis":2,"level":2,"level_name":"Moderate","population":3027,"n_eds":23,"eds":"194,195,197,198,199,201,202,204..."}},{"type":"Feature","geometry":{"type":"MultiPolygon","coordinates":[[[[-59.56263,13.08847],[-59.56152,13.07986],[-59.55930,13.08236],[-59.55930,13.07791],[-59.56819,13.07874],[-59.56486,13.08208],[-59.56263,13.08097],[-59.56263,13.08847]]],[[[-59.56125,13.08847],[-59.56013,13.08958],[-59.56013,13.08847],[-59.56125,13.08847]]]]},"properties":{"zone":17,"cells":468,"area_km2":0.447,"p90":0.31,"p90_max":0.4,"hazard_class":1,"hazard_name":"Low","worst_class":2,"worst_class_name":"Moderate","share_at_class":31.0,"share_worst":6.0,"prob_band1":0.3,"confidence":"MED","impact_axis":2,"level":2,"level_name":"Moderate","population":701,"n_eds":5,"eds":"212,214,215,216,236"}},{"type":"Feature","geometry":{"type":"Polygon","coordinates":[[[-59.60152,13.08652],[-59.60597,13.08402],[-59.60402,13.08208],[-59.60597,13.07902],[-59.60236,13.08124],[-59.59986,13.07930],[-59.60263,13.07958],[-59.60263,13.07763],[-59.59847,13.07652],[-59.59597,13.08263],[-59.60291,13.08263],[-59.60180,13.08513],[-59.59930,13.08458],[-59.60152,13.08652]]]},"properties":{"zone":18,"cells":535,"area_km2":0.512,"p90":0.3,"p90_max":0.4,"hazard_class":1,"hazard_name":"Low","worst_class":2,"worst_class_name":"Moderate","share_at_class":16.4,"share_worst":0.4,"prob_band1":0.3,"confidence":"MED","impact_axis":2,"level":2,"level_name":"Moderate","population":1140,"n_eds":12,"eds":"144,145,146,147,148,150,184,185..."}}]}