{"type":"FeatureCollection","bandset":"bb","cycle":"20260817.19000","features":[{"type":"Feature","geometry":{"type":"Polygon","coordinates":[[[-59.49125,13.11347],[-59.49902,13.10708],[-59.49902,13.10347],[-59.49069,13.10902],[-59.49125,13.11347]]]},"properties":{"zone":1,"cells":479,"area_km2":0.458,"p90":0.3,"p90_max":0.31,"hazard_class":1,"hazard_name":"Low","worst_class":1,"worst_class_name":"Low","share_at_class":21.1,"share_worst":21.1,"prob_band1":0.2,"confidence":"MED","impact_axis":1,"level":1,"level_name":"Low","population":96,"n_eds":2,"eds":"272,357"}}]}