{"type":"FeatureCollection","bandset":"gt","cycle":"20260817.16000","features":[{"type":"Feature","geometry":{"type":"Polygon","coordinates":[[[-59.58930,13.30013],[-59.59097,13.29708],[-59.59180,13.29875],[-59.59347,13.29791],[-59.59180,13.29513],[-59.58791,13.29597],[-59.59069,13.29319],[-59.58541,13.29347],[-59.58680,13.28986],[-59.58458,13.29125],[-59.58375,13.28819],[-59.58291,13.29291],[-59.58930,13.30013]]]},"properties":{"zone":1,"cells":592,"area_km2":0.566,"p90":0.5,"p90_max":0.5,"hazard_class":1,"hazard_name":"Low","worst_class":1,"worst_class_name":"Low","share_at_class":56.2,"share_worst":56.2,"prob_band1":0.2,"confidence":"MED","impact_axis":1,"level":1,"level_name":"Low","population":171,"n_eds":3,"eds":"583,584,604"}},{"type":"Feature","geometry":{"type":"Polygon","coordinates":[[[-59.59430,13.29541],[-59.59708,13.29152],[-59.60013,13.29152],[-59.59958,13.28402],[-59.59652,13.28208],[-59.59541,13.28763],[-59.58875,13.28263],[-59.59180,13.28624],[-59.59069,13.28902],[-59.59708,13.29041],[-59.59263,13.29319],[-59.59430,13.29541]]]},"properties":{"zone":2,"cells":694,"area_km2":0.664,"p90":0.5,"p90_max":0.5,"hazard_class":1,"hazard_name":"Low","worst_class":1,"worst_class_name":"Low","share_at_class":56.2,"share_worst":56.2,"prob_band1":0.2,"confidence":"MED","impact_axis":1,"level":1,"level_name":"Low","population":166,"n_eds":4,"eds":"581,583,601,604"}},{"type":"Feature","geometry":{"type":"Polygon","coordinates":[[[-59.58208,13.28152],[-59.58736,13.27847],[-59.58347,13.27625],[-59.58625,13.27180],[-59.57680,13.27708],[-59.57819,13.27902],[-59.58097,13.27652],[-59.58208,13.28152]]]},"properties":{"zone":3,"cells":472,"area_km2":0.451,"p90":0.5,"p90_max":0.6,"hazard_class":1,"hazard_name":"Low","worst_class":1,"worst_class_name":"Low","share_at_class":64.0,"share_worst":64.0,"prob_band1":0.2,"confidence":"MED","impact_axis":1,"level":1,"level_name":"Low","population":137,"n_eds":2,"eds":"554,582"}},{"type":"Feature","geometry":{"type":"Polygon","coordinates":[[[-59.59125,13.27125],[-59.58986,13.26347],[-59.58791,13.26347],[-59.58680,13.26902],[-59.58347,13.26347],[-59.58319,13.27013],[-59.59125,13.27125]]]},"properties":{"zone":4,"cells":485,"area_km2":0.464,"p90":0.6,"p90_max":0.6,"hazard_class":1,"hazard_name":"Low","worst_class":1,"worst_class_name":"Low","share_at_class":58.8,"share_worst":58.8,"prob_band1":0.2,"confidence":"MED","impact_axis":1,"level":1,"level_name":"Low","population":38,"n_eds":1,"eds":"554"}},{"type":"Feature","geometry":{"type":"MultiPolygon","coordinates":[[[[-59.50902,13.20819],[-59.50375,13.20458],[-59.50597,13.19847],[-59.50930,13.19763],[-59.50680,13.19458],[-59.51208,13.19819],[-59.50652,13.20041],[-59.50875,13.20319],[-59.50625,13.20430],[-59.51152,13.20375],[-59.50902,13.20819]]],[[[-59.50986,13.20819],[-59.51069,13.20902],[-59.50986,13.20902],[-59.50986,13.20819]]]]},"properties":{"zone":5,"cells":627,"area_km2":0.6,"p90":0.51,"p90_max":0.6,"hazard_class":1,"hazard_name":"Low","worst_class":1,"worst_class_name":"Low","share_at_class":19.1,"share_worst":19.1,"prob_band1":0.2,"confidence":"MED","impact_axis":1,"level":1,"level_name":"Low","population":184,"n_eds":2,"eds":"418,423"}},{"type":"Feature","geometry":{"type":"Polygon","coordinates":[[[-59.61125,13.12874],[-59.61319,13.12763],[-59.61208,13.12347],[-59.60986,13.12569],[-59.60875,13.12180],[-59.60513,13.12013],[-59.60513,13.12319],[-59.61125,13.12874]]]},"properties":{"zone":6,"cells":370,"area_km2":0.354,"p90":0.5,"p90_max":0.51,"hazard_class":1,"hazard_name":"Low","worst_class":1,"worst_class_name":"Low","share_at_class":13.5,"share_worst":13.5,"prob_band1":0.2,"confidence":"MED","impact_axis":2,"level":2,"level_name":"Moderate","population":1130,"n_eds":8,"eds":"34,35,36,39,56,57,58,37"}},{"type":"Feature","geometry":{"type":"Polygon","coordinates":[[[-59.45291,13.12597],[-59.45847,13.12430],[-59.45597,13.11986],[-59.45486,13.12236],[-59.44958,13.11874],[-59.45291,13.12597]]]},"properties":{"zone":7,"cells":392,"area_km2":0.375,"p90":0.5,"p90_max":0.5,"hazard_class":1,"hazard_name":"Low","worst_class":1,"worst_class_name":"Low","share_at_class":41.6,"share_worst":41.6,"prob_band1":0.2,"confidence":"MED","impact_axis":2,"level":2,"level_name":"Moderate","population":600,"n_eds":6,"eds":"369,370,379,396,400,368"}},{"type":"Feature","geometry":{"type":"Polygon","coordinates":[[[-59.49236,13.11236],[-59.50097,13.10208],[-59.50458,13.10319],[-59.50319,13.09930],[-59.50013,13.09930],[-59.49236,13.11236]]]},"properties":{"zone":8,"cells":457,"area_km2":0.437,"p90":0.5,"p90_max":0.5,"hazard_class":1,"hazard_name":"Low","worst_class":1,"worst_class_name":"Low","share_at_class":29.1,"share_worst":29.1,"prob_band1":0.2,"confidence":"MED","impact_axis":1,"level":1,"level_name":"Low","population":143,"n_eds":3,"eds":"272,357,271"}},{"type":"Feature","geometry":{"type":"Polygon","coordinates":[[[-59.57902,13.11124],[-59.57819,13.10874],[-59.58402,13.10736],[-59.57986,13.10347],[-59.57736,13.10597],[-59.57402,13.10513],[-59.57347,13.10874],[-59.57902,13.11124]]]},"properties":{"zone":9,"cells":502,"area_km2":0.48,"p90":0.5,"p90_max":0.51,"hazard_class":1,"hazard_name":"Low","worst_class":1,"worst_class_name":"Low","share_at_class":36.5,"share_worst":36.5,"prob_band1":0.2,"confidence":"MED","impact_axis":1,"level":1,"level_name":"Low","population":781,"n_eds":5,"eds":"169,178,180,181,179"}}]}