{"type":"FeatureCollection","bandset":"gt","cycle":"20260817.13000","features":[{"type":"Feature","geometry":{"type":"MultiPolygon","coordinates":[[[[-59.50208,13.17513],[-59.50013,13.17430],[-59.50208,13.17430],[-59.50208,13.17513]]],[[[-59.52458,13.19458],[-59.52347,13.18874],[-59.52791,13.18819],[-59.52708,13.19069],[-59.53097,13.19125],[-59.53208,13.19430],[-59.52541,13.19236],[-59.52458,13.19458]]],[[[-59.52458,13.19458],[-59.53652,13.19708],[-59.53458,13.19875],[-59.53569,13.19958],[-59.53736,13.19819],[-59.53597,13.19513],[-59.53875,13.19652],[-59.53958,13.19458],[-59.53930,13.18736],[-59.54097,13.19069],[-59.54152,13.18819],[-59.54569,13.19125],[-59.54513,13.18819],[-59.54708,13.18874],[-59.54680,13.18541],[-59.54041,13.18708],[-59.54013,13.18430],[-59.54347,13.18402],[-59.54430,13.18125],[-59.54263,13.17902],[-59.54041,13.18347],[-59.53958,13.17930],[-59.54263,13.17652],[-59.54486,13.18041],[-59.54847,13.17847],[-59.54652,13.18458],[-59.54986,13.18486],[-59.55041,13.18847],[-59.54791,13.19069],[-59.54958,13.19513],[-59.54680,13.19402],[-59.54652,13.19819],[-59.55013,13.19708],[-59.54736,13.20736],[-59.55041,13.20763],[-59.55041,13.21347],[-59.54791,13.21291],[-59.55041,13.21791],[-59.54875,13.21819],[-59.54819,13.22125],[-59.54958,13.21902],[-59.55347,13.22125],[-59.54597,13.22680],[-59.54847,13.22597],[-59.55013,13.22847],[-59.55041,13.24513],[-59.54791,13.23847],[-59.54375,13.23736],[-59.54458,13.23374],[-59.54152,13.23236],[-59.54736,13.22847],[-59.53791,13.22791],[-59.52375,13.21402],[-59.52763,13.21041],[-59.53125,13.21458],[-59.53625,13.21486],[-59.53791,13.20986],[-59.52625,13.20958],[-59.52625,13.20402],[-59.53125,13.19902],[-59.52402,13.20125],[-59.52486,13.21041],[-59.52208,13.21319],[-59.51791,13.20986],[-59.52013,13.20263],[-59.52180,13.20347],[-59.52097,13.19958],[-59.51847,13.20041],[-59.51652,13.20819],[-59.51458,13.20430],[-59.51486,13.20847],[-59.51236,13.21041],[-59.51291,13.20708],[-59.50819,13.20847],[-59.50013,13.20125],[-59.50180,13.19819],[-59.49791,13.19902],[-59.50430,13.18958],[-59.49902,13.19180],[-59.49736,13.18902],[-59.50125,13.18819],[-59.49875,13.18597],[-59.50180,13.18458],[-59.49986,13.18041],[-59.50319,13.17986],[-59.50208,13.17513],[-59.50513,13.17569],[-59.50625,13.18013],[-59.50958,13.17680],[-59.50958,13.18013],[-59.51430,13.17763],[-59.51236,13.18013],[-59.51625,13.17958],[-59.51541,13.18152],[-59.52013,13.18291],[-59.51958,13.18763],[-59.52291,13.18597],[-59.52069,13.18819],[-59.52236,13.19847],[-59.52513,13.19847],[-59.52347,13.19458],[-59.52458,13.19458]]]]},"properties":{"zone":1,"cells":18791,"area_km2":17.968,"p90":0.51,"p90_max":0.51,"hazard_class":1,"hazard_name":"Low","worst_class":1,"worst_class_name":"Low","share_at_class":28.7,"share_worst":28.7,"prob_band1":0.2,"confidence":"MED","impact_axis":1,"level":1,"level_name":"Low","population":5529,"n_eds":23,"eds":"534,535,536,538,539,541,542,543..."}},{"type":"Feature","geometry":{"type":"MultiPolygon","coordinates":[[[[-59.52347,13.18375],[-59.52402,13.18569],[-59.52097,13.18430],[-59.52041,13.18013],[-59.52208,13.17680],[-59.52013,13.17486],[-59.52375,13.17680],[-59.52458,13.18013],[-59.52152,13.18013],[-59.52541,13.18152],[-59.52347,13.18375]]],[[[-59.52680,13.18736],[-59.52680,13.18124],[-59.53319,13.18124],[-59.53430,13.18569],[-59.53791,13.18347],[-59.53930,13.18513],[-59.53847,13.18791],[-59.53625,13.18597],[-59.53652,13.18930],[-59.53291,13.19263],[-59.53013,13.18819],[-59.53458,13.18902],[-59.53541,13.18652],[-59.52680,13.18736]]]]},"properties":{"zone":2,"cells":1322,"area_km2":1.264,"p90":0.5,"p90_max":0.51,"hazard_class":1,"hazard_name":"Low","worst_class":1,"worst_class_name":"Low","share_at_class":12.9,"share_worst":12.9,"prob_band1":0.2,"confidence":"MED","impact_axis":1,"level":1,"level_name":"Low","population":465,"n_eds":5,"eds":"425,426,427,428,537"}},{"type":"Feature","geometry":{"type":"Polygon","coordinates":[[[-59.48458,13.18736],[-59.48375,13.18013],[-59.48930,13.18569],[-59.48791,13.18013],[-59.49208,13.17069],[-59.48513,13.17486],[-59.48680,13.17819],[-59.48041,13.17930],[-59.48152,13.18541],[-59.48458,13.18736]]]},"properties":{"zone":3,"cells":810,"area_km2":0.775,"p90":0.41,"p90_max":0.5,"hazard_class":0,"hazard_name":"No signal","worst_class":1,"worst_class_name":"Low","share_at_class":null,"share_worst":1.1,"prob_band1":0.2,"confidence":"MED","impact_axis":1,"level":1,"level_name":"Low","population":303,"n_eds":4,"eds":"420,433,436,437"}},{"type":"Feature","geometry":{"type":"Polygon","coordinates":[[[-59.46013,13.18263],[-59.46041,13.18013],[-59.46347,13.18013],[-59.46486,13.17541],[-59.46236,13.17847],[-59.45458,13.17736],[-59.46013,13.18263]]]},"properties":{"zone":4,"cells":379,"area_km2":0.362,"p90":0.5,"p90_max":0.5,"hazard_class":1,"hazard_name":"Low","worst_class":1,"worst_class_name":"Low","share_at_class":12.7,"share_worst":12.7,"prob_band1":0.2,"confidence":"MED","impact_axis":1,"level":1,"level_name":"Low","population":134,"n_eds":3,"eds":"364,434,435"}},{"type":"Feature","geometry":{"type":"Polygon","coordinates":[[[-59.52569,13.17875],[-59.53375,13.17986],[-59.53680,13.17152],[-59.53013,13.17263],[-59.53291,13.17736],[-59.52569,13.17875]]]},"properties":{"zone":5,"cells":410,"area_km2":0.392,"p90":0.5,"p90_max":0.51,"hazard_class":1,"hazard_name":"Low","worst_class":1,"worst_class_name":"Low","share_at_class":13.9,"share_worst":13.9,"prob_band1":0.2,"confidence":"MED","impact_axis":1,"level":1,"level_name":"Low","population":117,"n_eds":3,"eds":"352,428,537"}},{"type":"Feature","geometry":{"type":"MultiPolygon","coordinates":[[[[-59.49875,13.16958],[-59.50291,13.16763],[-59.49958,13.16291],[-59.50430,13.15847],[-59.50430,13.15541],[-59.50236,13.15597],[-59.50347,13.15013],[-59.50986,13.15041],[-59.50847,13.15319],[-59.51097,13.15263],[-59.51152,13.15763],[-59.51236,13.15180],[-59.51541,13.15013],[-59.51819,13.15097],[-59.51347,13.15375],[-59.51958,13.15347],[-59.52125,13.15013],[-59.52347,13.15125],[-59.52208,13.15541],[-59.52486,13.15652],[-59.52736,13.15541],[-59.52597,13.15347],[-59.52986,13.15430],[-59.52513,13.15263],[-59.52625,13.14875],[-59.53930,13.15375],[-59.54430,13.15236],[-59.54402,13.15597],[-59.54736,13.15597],[-59.54680,13.15902],[-59.55180,13.16125],[-59.55041,13.16597],[-59.54625,13.16430],[-59.53541,13.16791],[-59.53013,13.15847],[-59.52708,13.15847],[-59.52708,13.16263],[-59.52986,13.16208],[-59.53041,13.16680],[-59.53236,13.16513],[-59.53430,13.16847],[-59.52291,13.17069],[-59.52125,13.16736],[-59.51847,13.16763],[-59.51902,13.17152],[-59.52125,13.16958],[-59.52208,13.17180],[-59.51847,13.17430],[-59.51763,13.17902],[-59.51763,13.17569],[-59.51013,13.17597],[-59.51291,13.17486],[-59.51013,13.17041],[-59.51347,13.17097],[-59.51013,13.16541],[-59.51013,13.17013],[-59.50763,13.16819],[-59.50819,13.17069],[-59.50486,13.17291],[-59.50180,13.17069],[-59.49930,13.17291],[-59.49875,13.16958]]],[[[-59.49791,13.17069],[-59.49763,13.17291],[-59.49625,13.17291],[-59.49791,13.17069]]]]},"properties":{"zone":6,"cells":10545,"area_km2":10.083,"p90":0.5,"p90_max":0.51,"hazard_class":1,"hazard_name":"Low","worst_class":1,"worst_class_name":"Low","share_at_class":22.0,"share_worst":22.0,"prob_band1":0.2,"confidence":"MED","impact_axis":1,"level":1,"level_name":"Low","population":3072,"n_eds":18,"eds":"317,321,323,326,348,351,352,426..."}},{"type":"Feature","geometry":{"type":"Polygon","coordinates":[[[-59.48125,13.17847],[-59.47847,13.17097],[-59.47263,13.17097],[-59.47263,13.16847],[-59.47097,13.16791],[-59.46902,13.17430],[-59.47180,13.17541],[-59.47402,13.17208],[-59.47347,13.17486],[-59.47680,13.17375],[-59.48125,13.17847]]]},"properties":{"zone":7,"cells":612,"area_km2":0.585,"p90":0.5,"p90_max":0.51,"hazard_class":1,"hazard_name":"Low","worst_class":1,"worst_class_name":"Low","share_at_class":11.6,"share_worst":11.6,"prob_band1":0.2,"confidence":"MED","impact_axis":1,"level":1,"level_name":"Low","population":129,"n_eds":4,"eds":"434,436,437,438"}},{"type":"Feature","geometry":{"type":"Polygon","coordinates":[[[-59.61152,13.13069],[-59.61180,13.12597],[-59.60458,13.12041],[-59.60458,13.12375],[-59.61152,13.13069]]]},"properties":{"zone":8,"cells":416,"area_km2":0.398,"p90":0.23,"p90_max":0.23,"hazard_class":0,"hazard_name":"No signal","worst_class":0,"worst_class_name":"No signal","share_at_class":null,"share_worst":100.0,"prob_band1":0.1,"confidence":"LOW","impact_axis":2,"level":1,"level_name":"Low","population":1257,"n_eds":9,"eds":"34,36,39,56,57,58,62,37..."}},{"type":"Feature","geometry":{"type":"Polygon","coordinates":[[[-59.57763,13.11013],[-59.58180,13.10625],[-59.57708,13.10263],[-59.57791,13.10458],[-59.57375,13.10486],[-59.57291,13.10847],[-59.57763,13.11013]]]},"properties":{"zone":9,"cells":506,"area_km2":0.484,"p90":0.23,"p90_max":0.23,"hazard_class":0,"hazard_name":"No signal","worst_class":0,"worst_class_name":"No signal","share_at_class":null,"share_worst":100.0,"prob_band1":0.1,"confidence":"LOW","impact_axis":1,"level":1,"level_name":"Low","population":802,"n_eds":6,"eds":"169,178,180,181,179,176"}},{"type":"Feature","geometry":{"type":"Polygon","coordinates":[[[-59.61458,13.10902],[-59.61958,13.10513],[-59.62236,13.10569],[-59.61875,13.10125],[-59.61458,13.10263],[-59.61458,13.10902]]]},"properties":{"zone":10,"cells":362,"area_km2":0.346,"p90":0.23,"p90_max":0.23,"hazard_class":0,"hazard_name":"No signal","worst_class":0,"worst_class_name":"No signal","share_at_class":null,"share_worst":100.0,"prob_band1":0.1,"confidence":"LOW","impact_axis":2,"level":1,"level_name":"Low","population":1403,"n_eds":11,"eds":"4,5,7,9,10,11,12,8..."}}]}