{"type":"FeatureCollection","bandset":"gt","cycle":"20260817.15000","features":[{"type":"Feature","geometry":{"type":"Polygon","coordinates":[[[-59.59013,13.29986],[-59.59097,13.29708],[-59.59180,13.29875],[-59.59347,13.29791],[-59.59180,13.29513],[-59.58791,13.29597],[-59.59069,13.29319],[-59.58541,13.29347],[-59.58680,13.28986],[-59.58458,13.29125],[-59.58375,13.28819],[-59.58291,13.29291],[-59.59013,13.29986]]]},"properties":{"zone":1,"cells":581,"area_km2":0.556,"p90":0.5,"p90_max":0.5,"hazard_class":1,"hazard_name":"Low","worst_class":1,"worst_class_name":"Low","share_at_class":19.1,"share_worst":19.1,"prob_band1":0.2,"confidence":"MED","impact_axis":1,"level":1,"level_name":"Low","population":169,"n_eds":3,"eds":"583,584,604"}},{"type":"Feature","geometry":{"type":"Polygon","coordinates":[[[-59.59430,13.29541],[-59.59986,13.29152],[-59.59791,13.28208],[-59.59541,13.28347],[-59.59625,13.28763],[-59.59013,13.28375],[-59.59069,13.28902],[-59.59902,13.28819],[-59.59263,13.29319],[-59.59430,13.29541]]]},"properties":{"zone":2,"cells":598,"area_km2":0.572,"p90":0.5,"p90_max":0.5,"hazard_class":1,"hazard_name":"Low","worst_class":1,"worst_class_name":"Low","share_at_class":18.9,"share_worst":18.9,"prob_band1":0.2,"confidence":"MED","impact_axis":1,"level":1,"level_name":"Low","population":145,"n_eds":4,"eds":"581,583,601,604"}},{"type":"Feature","geometry":{"type":"Polygon","coordinates":[[[-59.58208,13.28152],[-59.58625,13.27930],[-59.58347,13.27625],[-59.58625,13.27180],[-59.57680,13.27708],[-59.57819,13.27902],[-59.58097,13.27652],[-59.58208,13.28152]]]},"properties":{"zone":3,"cells":447,"area_km2":0.427,"p90":0.5,"p90_max":0.5,"hazard_class":1,"hazard_name":"Low","worst_class":1,"worst_class_name":"Low","share_at_class":32.2,"share_worst":32.2,"prob_band1":0.2,"confidence":"MED","impact_axis":1,"level":1,"level_name":"Low","population":130,"n_eds":2,"eds":"554,582"}},{"type":"Feature","geometry":{"type":"Polygon","coordinates":[[[-59.59125,13.27125],[-59.58847,13.26597],[-59.58680,13.26902],[-59.58430,13.26791],[-59.58347,13.26347],[-59.58319,13.27013],[-59.59125,13.27125]]]},"properties":{"zone":4,"cells":415,"area_km2":0.397,"p90":0.5,"p90_max":0.6,"hazard_class":1,"hazard_name":"Low","worst_class":1,"worst_class_name":"Low","share_at_class":53.5,"share_worst":53.5,"prob_band1":0.2,"confidence":"MED","impact_axis":1,"level":1,"level_name":"Low","population":33,"n_eds":1,"eds":"554"}},{"type":"Feature","geometry":{"type":"MultiPolygon","coordinates":[[[[-59.50902,13.20819],[-59.50375,13.20458],[-59.50597,13.19847],[-59.50930,13.19763],[-59.50680,13.19458],[-59.51069,13.19652],[-59.51069,13.19874],[-59.50652,13.20013],[-59.50875,13.20319],[-59.50625,13.20430],[-59.51152,13.20375],[-59.50902,13.20819]]],[[[-59.50986,13.20819],[-59.51069,13.20902],[-59.50986,13.20902],[-59.50986,13.20819]]]]},"properties":{"zone":5,"cells":609,"area_km2":0.582,"p90":0.51,"p90_max":0.6,"hazard_class":1,"hazard_name":"Low","worst_class":1,"worst_class_name":"Low","share_at_class":48.8,"share_worst":48.8,"prob_band1":0.2,"confidence":"MED","impact_axis":1,"level":1,"level_name":"Low","population":179,"n_eds":2,"eds":"418,423"}},{"type":"Feature","geometry":{"type":"Polygon","coordinates":[[[-59.61319,13.12930],[-59.61208,13.12347],[-59.60986,13.12569],[-59.60819,13.12069],[-59.60513,13.12013],[-59.60597,13.12402],[-59.61319,13.12930]]]},"properties":{"zone":6,"cells":399,"area_km2":0.382,"p90":0.41,"p90_max":0.42,"hazard_class":0,"hazard_name":"No signal","worst_class":0,"worst_class_name":"No signal","share_at_class":null,"share_worst":100.0,"prob_band1":0.1,"confidence":"LOW","impact_axis":2,"level":1,"level_name":"Low","population":1201,"n_eds":8,"eds":"34,35,36,39,56,57,58,37"}},{"type":"Feature","geometry":{"type":"Polygon","coordinates":[[[-59.45652,13.12624],[-59.45847,13.12430],[-59.45625,13.12013],[-59.45486,13.12236],[-59.44958,13.11874],[-59.45152,13.12291],[-59.44902,13.12319],[-59.45652,13.12624]]]},"properties":{"zone":7,"cells":460,"area_km2":0.44,"p90":0.41,"p90_max":0.51,"hazard_class":0,"hazard_name":"No signal","worst_class":1,"worst_class_name":"Low","share_at_class":null,"share_worst":1.3,"prob_band1":0.2,"confidence":"MED","impact_axis":2,"level":2,"level_name":"Moderate","population":691,"n_eds":7,"eds":"369,370,379,396,400,409,368"}},{"type":"Feature","geometry":{"type":"Polygon","coordinates":[[[-59.49180,13.11263],[-59.50152,13.10236],[-59.50430,13.10319],[-59.50263,13.09847],[-59.49958,13.09930],[-59.50013,13.10208],[-59.49180,13.11263]]]},"properties":{"zone":8,"cells":509,"area_km2":0.487,"p90":0.5,"p90_max":0.51,"hazard_class":1,"hazard_name":"Low","worst_class":1,"worst_class_name":"Low","share_at_class":14.7,"share_worst":14.7,"prob_band1":0.2,"confidence":"MED","impact_axis":1,"level":1,"level_name":"Low","population":155,"n_eds":3,"eds":"272,357,271"}},{"type":"Feature","geometry":{"type":"Polygon","coordinates":[[[-59.57902,13.11208],[-59.57819,13.10874],[-59.58402,13.10819],[-59.57986,13.10347],[-59.57319,13.10625],[-59.57902,13.11208]]]},"properties":{"zone":9,"cells":517,"area_km2":0.494,"p90":0.5,"p90_max":0.51,"hazard_class":1,"hazard_name":"Low","worst_class":1,"worst_class_name":"Low","share_at_class":17.8,"share_worst":17.8,"prob_band1":0.2,"confidence":"MED","impact_axis":1,"level":1,"level_name":"Low","population":804,"n_eds":5,"eds":"169,178,180,181,179"}}]}