{"type":"FeatureCollection","bandset":"gt","cycle":"20260817.14000","features":[{"type":"Feature","geometry":{"type":"Polygon","coordinates":[[[-59.59125,13.25347],[-59.59597,13.25041],[-59.59263,13.24847],[-59.59263,13.24180],[-59.59458,13.24208],[-59.59319,13.24513],[-59.59458,13.24652],[-59.59819,13.24430],[-59.59541,13.24152],[-59.60041,13.24097],[-59.59652,13.23624],[-59.59736,13.23374],[-59.60013,13.23402],[-59.59986,13.23125],[-59.59541,13.23263],[-59.59930,13.22791],[-59.59236,13.22875],[-59.59625,13.22680],[-59.59569,13.22347],[-59.59069,13.22597],[-59.59097,13.23041],[-59.58958,13.22486],[-59.58347,13.22847],[-59.58291,13.22597],[-59.58541,13.22652],[-59.58402,13.22430],[-59.58736,13.22430],[-59.58736,13.22291],[-59.58180,13.22180],[-59.58430,13.21875],[-59.58680,13.22041],[-59.58625,13.21569],[-59.58347,13.21708],[-59.58263,13.21458],[-59.58041,13.21875],[-59.57708,13.21875],[-59.57708,13.22180],[-59.58069,13.22180],[-59.58236,13.22430],[-59.57930,13.22374],[-59.57875,13.22597],[-59.57791,13.22263],[-59.57041,13.22680],[-59.57986,13.22736],[-59.58069,13.23680],[-59.58763,13.23347],[-59.59041,13.23875],[-59.58597,13.24374],[-59.59097,13.24236],[-59.59180,13.24875],[-59.58569,13.25152],[-59.59180,13.24958],[-59.59125,13.25347]]]},"properties":{"zone":1,"cells":4330,"area_km2":4.14,"p90":0.41,"p90_max":0.6,"hazard_class":0,"hazard_name":"No signal","worst_class":1,"worst_class_name":"Low","share_at_class":null,"share_worst":2.7,"prob_band1":0.28,"confidence":"MED","impact_axis":1,"level":1,"level_name":"Low","population":556,"n_eds":6,"eds":"439,552,553,555,556,576"}},{"type":"Feature","geometry":{"type":"MultiPolygon","coordinates":[[[[-59.53375,13.19236],[-59.52902,13.19180],[-59.52902,13.19069],[-59.53347,13.19013],[-59.53375,13.19236]]],[[[-59.53458,13.19402],[-59.53625,13.18930],[-59.54013,13.19263],[-59.54125,13.18902],[-59.53763,13.18680],[-59.54152,13.18680],[-59.54375,13.18986],[-59.54236,13.19569],[-59.54652,13.19791],[-59.54569,13.19986],[-59.55208,13.20125],[-59.54986,13.20180],[-59.55180,13.20541],[-59.54736,13.20624],[-59.55041,13.20930],[-59.55819,13.20347],[-59.55736,13.21208],[-59.56180,13.21597],[-59.55819,13.21763],[-59.55736,13.21347],[-59.55375,13.21597],[-59.55402,13.21263],[-59.55041,13.21180],[-59.55180,13.21513],[-59.54902,13.21597],[-59.54875,13.21902],[-59.55375,13.21736],[-59.55347,13.22180],[-59.54597,13.22597],[-59.55097,13.22847],[-59.55263,13.22569],[-59.55402,13.22541],[-59.55013,13.23152],[-59.55125,13.23819],[-59.54930,13.23708],[-59.54902,13.24152],[-59.55375,13.24180],[-59.55152,13.24180],[-59.55125,13.24513],[-59.55652,13.24347],[-59.55347,13.24819],[-59.54847,13.24402],[-59.54791,13.23847],[-59.54375,13.23736],[-59.54152,13.23152],[-59.54402,13.22986],[-59.53791,13.22791],[-59.52347,13.21402],[-59.52513,13.21041],[-59.52208,13.21375],[-59.51958,13.20930],[-59.51486,13.21236],[-59.51513,13.20874],[-59.51180,13.21041],[-59.51152,13.20680],[-59.50819,13.20847],[-59.50013,13.20152],[-59.50402,13.19625],[-59.50069,13.19236],[-59.50402,13.18986],[-59.49930,13.19236],[-59.50041,13.19874],[-59.49597,13.19736],[-59.49930,13.18458],[-59.49902,13.18819],[-59.50736,13.18763],[-59.50569,13.19097],[-59.50847,13.19347],[-59.51680,13.18347],[-59.51986,13.18375],[-59.51569,13.18819],[-59.51958,13.18819],[-59.51819,13.19652],[-59.52069,13.19486],[-59.52263,13.19736],[-59.51847,13.20041],[-59.51625,13.20819],[-59.51736,13.20930],[-59.52208,13.19847],[-59.52541,13.19874],[-59.52347,13.19402],[-59.52847,13.19625],[-59.52652,13.19874],[-59.52902,13.20180],[-59.53791,13.19763],[-59.54013,13.20069],[-59.54125,13.19541],[-59.53875,13.19597],[-59.53819,13.19263],[-59.53458,13.19402]]]]},"properties":{"zone":2,"cells":17276,"area_km2":16.519,"p90":0.42,"p90_max":0.52,"hazard_class":0,"hazard_name":"No signal","worst_class":1,"worst_class_name":"Low","share_at_class":null,"share_worst":7.8,"prob_band1":0.2,"confidence":"MED","impact_axis":1,"level":1,"level_name":"Low","population":4578,"n_eds":20,"eds":"535,536,538,539,541,542,543,546..."}},{"type":"Feature","geometry":{"type":"MultiPolygon","coordinates":[[[[-59.57486,13.20569],[-59.57430,13.20375],[-59.57597,13.20375],[-59.57486,13.20569]]],[[[-59.58152,13.21152],[-59.57763,13.21041],[-59.58041,13.21291],[-59.57875,13.21652],[-59.57097,13.21736],[-59.57513,13.21430],[-59.57013,13.21208],[-59.57291,13.20569],[-59.57708,13.20736],[-59.57736,13.20347],[-59.57930,13.20347],[-59.58041,13.20624],[-59.58375,13.20597],[-59.58152,13.21152]]],[[[-59.58152,13.21236],[-59.58458,13.21125],[-59.58458,13.21208],[-59.58152,13.21236]]]]},"properties":{"zone":3,"cells":1313,"area_km2":1.255,"p90":0.41,"p90_max":0.42,"hazard_class":0,"hazard_name":"No signal","worst_class":0,"worst_class_name":"No signal","share_at_class":null,"share_worst":100.0,"prob_band1":0.1,"confidence":"LOW","impact_axis":1,"level":1,"level_name":"Low","population":289,"n_eds":3,"eds":"521,544,549"}},{"type":"Feature","geometry":{"type":"MultiPolygon","coordinates":[[[[-59.56347,13.20819],[-59.56263,13.19902],[-59.57208,13.20319],[-59.56708,13.19736],[-59.57347,13.19763],[-59.57347,13.20430],[-59.56569,13.20430],[-59.56986,13.20513],[-59.57069,13.20986],[-59.56763,13.21125],[-59.56458,13.20736],[-59.56458,13.21375],[-59.56125,13.21319],[-59.56347,13.20819]]],[[[-59.56236,13.20819],[-59.56152,13.20736],[-59.56236,13.20736],[-59.56236,13.20819]]]]},"properties":{"zone":4,"cells":1120,"area_km2":1.071,"p90":0.33,"p90_max":0.42,"hazard_class":0,"hazard_name":"No signal","worst_class":0,"worst_class_name":"No signal","share_at_class":null,"share_worst":100.0,"prob_band1":0.1,"confidence":"LOW","impact_axis":1,"level":1,"level_name":"Low","population":194,"n_eds":2,"eds":"543,544"}},{"type":"Feature","geometry":{"type":"Polygon","coordinates":[[[-59.49375,13.19236],[-59.49652,13.19069],[-59.49486,13.18597],[-59.49875,13.18263],[-59.49263,13.18347],[-59.49375,13.18791],[-59.49097,13.19069],[-59.49375,13.19236]]]},"properties":{"zone":5,"cells":432,"area_km2":0.413,"p90":0.42,"p90_max":0.52,"hazard_class":0,"hazard_name":"No signal","worst_class":1,"worst_class_name":"Low","share_at_class":null,"share_worst":2.3,"prob_band1":0.2,"confidence":"MED","impact_axis":1,"level":1,"level_name":"Low","population":167,"n_eds":4,"eds":"420,422,423,431"}},{"type":"Feature","geometry":{"type":"Polygon","coordinates":[[[-59.48708,13.19097],[-59.48986,13.18819],[-59.48652,13.18874],[-59.48319,13.18263],[-59.48708,13.18152],[-59.48847,13.18708],[-59.48930,13.17652],[-59.49625,13.16541],[-59.49180,13.16041],[-59.48847,13.16236],[-59.48819,13.16541],[-59.49152,13.16236],[-59.49152,13.16513],[-59.49486,13.16569],[-59.49263,13.16819],[-59.49013,13.16625],[-59.49041,13.17208],[-59.48486,13.16930],[-59.48791,13.17263],[-59.48458,13.17541],[-59.48541,13.17847],[-59.47791,13.17319],[-59.48041,13.17041],[-59.47541,13.17069],[-59.47763,13.16791],[-59.47263,13.17069],[-59.47291,13.16819],[-59.47125,13.16763],[-59.46930,13.17013],[-59.48041,13.17652],[-59.47708,13.17763],[-59.47541,13.17486],[-59.47208,13.17986],[-59.47430,13.18041],[-59.47597,13.17736],[-59.48208,13.18041],[-59.48125,13.18541],[-59.48708,13.19097]]]},"properties":{"zone":6,"cells":2708,"area_km2":2.589,"p90":0.42,"p90_max":0.52,"hazard_class":0,"hazard_name":"No signal","worst_class":1,"worst_class_name":"Low","share_at_class":null,"share_worst":0.4,"prob_band1":0.2,"confidence":"MED","impact_axis":1,"level":1,"level_name":"Low","population":744,"n_eds":8,"eds":"420,422,432,433,434,436,437,438"}},{"type":"Feature","geometry":{"type":"Polygon","coordinates":[[[-59.51013,13.18736],[-59.51069,13.18125],[-59.51375,13.18486],[-59.51513,13.18152],[-59.51319,13.18208],[-59.51152,13.17680],[-59.50569,13.18125],[-59.50486,13.17486],[-59.50291,13.17513],[-59.50208,13.18541],[-59.50736,13.18541],[-59.50819,13.18263],[-59.51013,13.18736]]]},"properties":{"zone":7,"cells":880,"area_km2":0.841,"p90":0.42,"p90_max":0.52,"hazard_class":0,"hazard_name":"No signal","worst_class":1,"worst_class_name":"Low","share_at_class":null,"share_worst":4.2,"prob_band1":0.2,"confidence":"MED","impact_axis":1,"level":1,"level_name":"Low","population":440,"n_eds":6,"eds":"424,425,426,430,431,421"}},{"type":"Feature","geometry":{"type":"Polygon","coordinates":[[[-59.51291,13.17597],[-59.52263,13.17208],[-59.52041,13.16930],[-59.51902,13.17236],[-59.51875,13.16819],[-59.52541,13.16930],[-59.52430,13.16513],[-59.53125,13.16430],[-59.52513,13.16180],[-59.52319,13.16374],[-59.52291,13.16069],[-59.52041,13.16347],[-59.51875,13.16069],[-59.51958,13.16597],[-59.50958,13.17013],[-59.51041,13.17374],[-59.51375,13.17208],[-59.51125,13.17458],[-59.51291,13.17597]]]},"properties":{"zone":8,"cells":1402,"area_km2":1.341,"p90":0.51,"p90_max":0.52,"hazard_class":1,"hazard_name":"Low","worst_class":1,"worst_class_name":"Low","share_at_class":14.2,"share_worst":14.2,"prob_band1":0.2,"confidence":"MED","impact_axis":1,"level":1,"level_name":"Low","population":333,"n_eds":8,"eds":"323,348,426,428,429,430,431,421"}},{"type":"Feature","geometry":{"type":"Polygon","coordinates":[[[-59.50125,13.17263],[-59.50652,13.17069],[-59.50263,13.16986],[-59.50486,13.16597],[-59.49625,13.17208],[-59.50013,13.17291],[-59.49930,13.17069],[-59.50180,13.16958],[-59.50125,13.17263]]]},"properties":{"zone":9,"cells":357,"area_km2":0.341,"p90":0.42,"p90_max":0.52,"hazard_class":0,"hazard_name":"No signal","worst_class":1,"worst_class_name":"Low","share_at_class":null,"share_worst":1.7,"prob_band1":0.2,"confidence":"MED","impact_axis":1,"level":1,"level_name":"Low","population":85,"n_eds":3,"eds":"429,430,433"}},{"type":"Feature","geometry":{"type":"Polygon","coordinates":[[[-59.50958,13.16986],[-59.51625,13.16680],[-59.51708,13.16097],[-59.51430,13.16152],[-59.51569,13.16513],[-59.51291,13.16541],[-59.51236,13.16152],[-59.51013,13.16236],[-59.51069,13.16819],[-59.50708,13.16569],[-59.50958,13.16986]]]},"properties":{"zone":10,"cells":484,"area_km2":0.463,"p90":0.42,"p90_max":0.52,"hazard_class":0,"hazard_name":"No signal","worst_class":1,"worst_class_name":"Low","share_at_class":null,"share_worst":3.3,"prob_band1":0.2,"confidence":"MED","impact_axis":1,"level":1,"level_name":"Low","population":106,"n_eds":2,"eds":"429,430"}},{"type":"Feature","geometry":{"type":"Polygon","coordinates":[[[-59.54902,13.16736],[-59.55458,13.16236],[-59.55513,13.15763],[-59.54347,13.16486],[-59.54041,13.16041],[-59.54180,13.15708],[-59.53902,13.15513],[-59.54041,13.15291],[-59.53041,13.15736],[-59.53125,13.16347],[-59.53597,13.16402],[-59.53763,13.16125],[-59.53430,13.16319],[-59.53486,13.15847],[-59.53736,13.16013],[-59.53819,13.15819],[-59.53708,13.16458],[-59.54180,13.16458],[-59.54347,13.16736],[-59.54736,13.16430],[-59.54902,13.16736]]]},"properties":{"zone":11,"cells":1717,"area_km2":1.642,"p90":0.52,"p90_max":0.52,"hazard_class":1,"hazard_name":"Low","worst_class":1,"worst_class_name":"Low","share_at_class":15.2,"share_worst":15.2,"prob_band1":0.2,"confidence":"MED","impact_axis":1,"level":1,"level_name":"Low","population":563,"n_eds":7,"eds":"323,326,345,348,351,352,347"}},{"type":"Feature","geometry":{"type":"MultiPolygon","coordinates":[[[[-59.45541,13.15847],[-59.45375,13.15875],[-59.45569,13.15652],[-59.45319,13.15236],[-59.45819,13.15263],[-59.45541,13.15847]]],[[[-59.45763,13.15847],[-59.46875,13.15763],[-59.46680,13.15958],[-59.46902,13.16236],[-59.46097,13.16013],[-59.46291,13.16291],[-59.46069,13.16291],[-59.45625,13.16013],[-59.45597,13.16402],[-59.45930,13.16319],[-59.45680,13.16597],[-59.45347,13.16180],[-59.45763,13.15847]]]]},"properties":{"zone":12,"cells":935,"area_km2":0.894,"p90":0.42,"p90_max":0.42,"hazard_class":0,"hazard_name":"No signal","worst_class":0,"worst_class_name":"No signal","share_at_class":null,"share_worst":100.0,"prob_band1":0.1,"confidence":"LOW","impact_axis":1,"level":1,"level_name":"Low","population":223,"n_eds":4,"eds":"360,362,365,374"}},{"type":"Feature","geometry":{"type":"Polygon","coordinates":[[[-59.56708,13.16402],[-59.56652,13.16180],[-59.56875,13.16236],[-59.57430,13.15319],[-59.56902,13.15902],[-59.56347,13.15819],[-59.56458,13.16347],[-59.56708,13.16402]]]},"properties":{"zone":13,"cells":422,"area_km2":0.404,"p90":0.32,"p90_max":0.33,"hazard_class":0,"hazard_name":"No signal","worst_class":0,"worst_class_name":"No signal","share_at_class":null,"share_worst":100.0,"prob_band1":0.1,"confidence":"LOW","impact_axis":1,"level":1,"level_name":"Low","population":166,"n_eds":3,"eds":"532,350,351"}},{"type":"Feature","geometry":{"type":"Polygon","coordinates":[[[-59.46375,13.15597],[-59.46486,13.15125],[-59.46208,13.14986],[-59.46763,13.14930],[-59.46597,13.15208],[-59.47208,13.15430],[-59.47236,13.15013],[-59.47680,13.14875],[-59.47458,13.14458],[-59.47291,13.14763],[-59.47486,13.14847],[-59.46986,13.14986],[-59.47013,13.14541],[-59.47347,13.14597],[-59.47208,13.14152],[-59.47680,13.14097],[-59.47347,13.13652],[-59.46819,13.13763],[-59.46763,13.13986],[-59.47319,13.14013],[-59.46986,13.14041],[-59.47041,13.14430],[-59.46958,13.14236],[-59.46652,13.14347],[-59.46736,13.14763],[-59.46041,13.14902],[-59.46236,13.15152],[-59.46041,13.15486],[-59.46375,13.15597]]]},"properties":{"zone":14,"cells":1475,"area_km2":1.41,"p90":0.42,"p90_max":0.42,"hazard_class":0,"hazard_name":"No signal","worst_class":0,"worst_class_name":"No signal","share_at_class":null,"share_worst":100.0,"prob_band1":0.1,"confidence":"LOW","impact_axis":1,"level":1,"level_name":"Low","population":219,"n_eds":3,"eds":"360,361,362"}},{"type":"Feature","geometry":{"type":"MultiPolygon","coordinates":[[[[-59.59819,13.14208],[-59.60263,13.14069],[-59.60263,13.13875],[-59.59819,13.13847],[-59.59875,13.13541],[-59.60263,13.13680],[-59.60291,13.12736],[-59.60069,13.12875],[-59.59958,13.12597],[-59.60069,13.13402],[-59.59513,13.12736],[-59.59791,13.14013],[-59.59513,13.13958],[-59.59208,13.14625],[-59.58986,13.14541],[-59.59319,13.14875],[-59.59208,13.15125],[-59.59013,13.14791],[-59.58875,13.15097],[-59.58569,13.15097],[-59.58319,13.14541],[-59.58319,13.14875],[-59.57875,13.15180],[-59.57069,13.15236],[-59.57291,13.15013],[-59.56819,13.15152],[-59.56763,13.14680],[-59.56763,13.15013],[-59.56541,13.14791],[-59.56291,13.14958],[-59.56291,13.14791],[-59.56125,13.14680],[-59.56180,13.14875],[-59.55597,13.14986],[-59.55791,13.15208],[-59.55291,13.15263],[-59.55513,13.14791],[-59.55347,13.14652],[-59.54986,13.15430],[-59.54986,13.15013],[-59.54680,13.14847],[-59.54875,13.14236],[-59.54791,13.13930],[-59.54569,13.14291],[-59.54708,13.14513],[-59.54486,13.14458],[-59.54597,13.15013],[-59.53041,13.14958],[-59.52597,13.15208],[-59.52902,13.15291],[-59.52847,13.15513],[-59.52430,13.15319],[-59.52569,13.15069],[-59.52208,13.14819],[-59.52041,13.15180],[-59.51291,13.14847],[-59.50930,13.15152],[-59.50986,13.14763],[-59.51819,13.14847],[-59.51291,13.14652],[-59.51430,13.14430],[-59.50902,13.14597],[-59.50875,13.14319],[-59.51208,13.14374],[-59.51097,13.14152],[-59.50791,13.14180],[-59.50819,13.14513],[-59.50541,13.14458],[-59.50902,13.14680],[-59.50791,13.15097],[-59.50263,13.15069],[-59.49902,13.14486],[-59.50347,13.14263],[-59.50041,13.14319],[-59.49958,13.13930],[-59.50236,13.13791],[-59.50013,13.13819],[-59.49902,13.13458],[-59.50347,13.13291],[-59.50458,13.13041],[-59.49986,13.13236],[-59.49902,13.12180],[-59.50208,13.12319],[-59.50402,13.12013],[-59.49847,13.12097],[-59.50125,13.11902],[-59.49847,13.11263],[-59.50041,13.11125],[-59.50180,13.11458],[-59.50541,13.11513],[-59.50152,13.11125],[-59.50486,13.11013],[-59.50819,13.11458],[-59.50847,13.11041],[-59.51097,13.11402],[-59.51208,13.10930],[-59.51458,13.11291],[-59.51736,13.11013],[-59.51791,13.11513],[-59.52041,13.11236],[-59.52680,13.11263],[-59.52486,13.11291],[-59.52458,13.11847],[-59.51902,13.11597],[-59.51430,13.11791],[-59.51430,13.11319],[-59.50847,13.11652],[-59.51347,13.11763],[-59.51375,13.11986],[-59.51791,13.11791],[-59.51875,13.12347],[-59.52597,13.12291],[-59.52680,13.12486],[-59.52486,13.12375],[-59.52347,13.12680],[-59.52958,13.12624],[-59.52847,13.12791],[-59.53347,13.13152],[-59.53625,13.13097],[-59.53375,13.12791],[-59.53930,13.12902],[-59.53736,13.12513],[-59.54125,13.12569],[-59.53652,13.12208],[-59.54236,13.12319],[-59.53958,13.11847],[-59.54375,13.11791],[-59.54291,13.11236],[-59.54680,13.11430],[-59.54736,13.11875],[-59.54430,13.12097],[-59.55375,13.12291],[-59.55069,13.12541],[-59.55902,13.12402],[-59.56097,13.12041],[-59.55708,13.12097],[-59.55236,13.11708],[-59.55041,13.11736],[-59.55236,13.11986],[-59.54847,13.12069],[-59.54875,13.11569],[-59.56208,13.11375],[-59.56236,13.11791],[-59.56291,13.10930],[-59.56402,13.11041],[-59.56513,13.10958],[-59.56236,13.10736],[-59.56291,13.10236],[-59.56013,13.10402],[-59.56013,13.10125],[-59.56569,13.10152],[-59.56569,13.09930],[-59.56819,13.10069],[-59.57041,13.09847],[-59.57236,13.10097],[-59.57041,13.10402],[-59.57763,13.10180],[-59.57708,13.09847],[-59.57902,13.09986],[-59.57902,13.09625],[-59.58125,13.09597],[-59.57819,13.09430],[-59.58375,13.09236],[-59.57986,13.08986],[-59.57986,13.08597],[-59.57763,13.08708],[-59.57819,13.08402],[-59.57486,13.09097],[-59.57125,13.08819],[-59.56847,13.09236],[-59.56236,13.09097],[-59.56402,13.08791],[-59.56680,13.08819],[-59.56458,13.08375],[-59.56875,13.08124],[-59.57013,13.08541],[-59.57263,13.08180],[-59.57069,13.07569],[-59.56569,13.07458],[-59.56902,13.07041],[-59.56597,13.06958],[-59.56736,13.07125],[-59.56513,13.07263],[-59.56208,13.06875],[-59.56958,13.06819],[-59.57180,13.07180],[-59.57430,13.07069],[-59.57458,13.07347],[-59.57541,13.06986],[-59.57847,13.07041],[-59.57652,13.07569],[-59.58597,13.07930],[-59.58486,13.08124],[-59.57875,13.07958],[-59.58319,13.08486],[-59.59736,13.08097],[-59.59597,13.07736],[-59.59847,13.07680],[-59.59597,13.07430],[-59.59791,13.07430],[-59.59847,13.07652],[-59.60625,13.07791],[-59.60569,13.08791],[-59.60375,13.08486],[-59.59986,13.08680],[-59.59930,13.08430],[-59.60291,13.08347],[-59.60291,13.08263],[-59.59736,13.08180],[-59.59847,13.08347],[-59.59347,13.08569],[-59.59180,13.09013],[-59.58791,13.08902],[-59.59208,13.09236],[-59.59291,13.08986],[-59.59680,13.08958],[-59.59375,13.09291],[-59.59680,13.09930],[-59.59319,13.09930],[-59.59625,13.10902],[-59.59930,13.10486],[-59.59708,13.10458],[-59.59791,13.09569],[-59.60013,13.09541],[-59.59875,13.10041],[-59.60236,13.10513],[-59.60319,13.10125],[-59.60763,13.10152],[-59.60875,13.09736],[-59.61208,13.09652],[-59.61291,13.09958],[-59.61541,13.09902],[-59.61513,13.10263],[-59.61708,13.10236],[-59.61680,13.09708],[-59.62069,13.09708],[-59.62291,13.10041],[-59.62291,13.09819],[-59.62513,13.09847],[-59.62541,13.10125],[-59.62902,13.10013],[-59.62958,13.10541],[-59.62569,13.10652],[-59.62236,13.11347],[-59.61930,13.11375],[-59.62041,13.11597],[-59.61597,13.11652],[-59.61847,13.11819],[-59.62430,13.11541],[-59.62319,13.12347],[-59.61902,13.12319],[-59.61680,13.13402],[-59.61097,13.13708],[-59.61569,13.13791],[-59.61625,13.13597],[-59.61736,13.13847],[-59.62152,13.13763],[-59.62069,13.14125],[-59.62430,13.14013],[-59.62569,13.13708],[-59.62263,13.13902],[-59.62236,13.13597],[-59.63041,13.13291],[-59.62791,13.12847],[-59.62486,13.12902],[-59.62458,13.12597],[-59.62736,13.12513],[-59.62402,13.12430],[-59.62458,13.12152],[-59.62958,13.12458],[-59.63013,13.12097],[-59.63097,13.12763],[-59.63347,13.12875],[-59.63097,13.13041],[-59.63180,13.13402],[-59.63347,13.13152],[-59.63513,13.13152],[-59.63347,13.13819],[-59.63180,13.13486],[-59.62680,13.14180],[-59.62347,13.14097],[-59.62069,13.14402],[-59.62319,13.14763],[-59.62319,13.14541],[-59.62569,13.14597],[-59.62680,13.14986],[-59.62402,13.15041],[-59.62430,13.15263],[-59.62069,13.14958],[-59.61652,13.15319],[-59.61708,13.14902],[-59.61347,13.15125],[-59.60625,13.14347],[-59.59819,13.14208]]],[[[-59.59569,13.14208],[-59.59847,13.14875],[-59.59736,13.14875],[-59.59569,13.14208]]]]},"properties":{"zone":15,"cells":69508,"area_km2":66.462,"p90":0.33,"p90_max":0.52,"hazard_class":0,"hazard_name":"No signal","worst_class":1,"worst_class_name":"Low","share_at_class":null,"share_worst":0.1,"prob_band1":0.2,"confidence":"MED","impact_axis":2,"level":2,"level_name":"Moderate","population":73839,"n_eds":270,"eds":"3,4,5,7,6,9,10,11..."}},{"type":"Feature","geometry":{"type":"Polygon","coordinates":[[[-59.46569,13.14347],[-59.46541,13.13819],[-59.45986,13.13986],[-59.45791,13.13736],[-59.46375,13.13708],[-59.46541,13.13402],[-59.46847,13.13569],[-59.46958,13.13208],[-59.47375,13.13486],[-59.46763,13.12402],[-59.46402,13.12430],[-59.46097,13.13152],[-59.45486,13.13263],[-59.45763,13.13402],[-59.45708,13.13791],[-59.45125,13.13486],[-59.45125,13.13791],[-59.45708,13.13902],[-59.45625,13.14208],[-59.46486,13.14152],[-59.46569,13.14347]]]},"properties":{"zone":16,"cells":2087,"area_km2":1.996,"p90":0.42,"p90_max":0.42,"hazard_class":0,"hazard_name":"No signal","worst_class":0,"worst_class_name":"No signal","share_at_class":null,"share_worst":100.0,"prob_band1":0.1,"confidence":"LOW","impact_axis":1,"level":1,"level_name":"Low","population":456,"n_eds":6,"eds":"361,362,370,371,378,379"}},{"type":"Feature","geometry":{"type":"Polygon","coordinates":[[[-59.49069,13.14236],[-59.49625,13.14013],[-59.49430,13.13624],[-59.49930,13.13375],[-59.49736,13.13069],[-59.49180,13.13847],[-59.48902,13.13763],[-59.49069,13.14236]]]},"properties":{"zone":17,"cells":560,"area_km2":0.535,"p90":0.42,"p90_max":0.42,"hazard_class":0,"hazard_name":"No signal","worst_class":0,"worst_class_name":"No signal","share_at_class":null,"share_worst":100.0,"prob_band1":0.1,"confidence":"LOW","impact_axis":1,"level":1,"level_name":"Low","population":590,"n_eds":5,"eds":"356,355,354,358,359"}},{"type":"Feature","geometry":{"type":"Polygon","coordinates":[[[-59.45958,13.12930],[-59.45763,13.12652],[-59.46013,13.12680],[-59.46125,13.12069],[-59.45819,13.11958],[-59.45791,13.11486],[-59.45458,13.11652],[-59.45541,13.12208],[-59.45069,13.11819],[-59.45152,13.12291],[-59.44930,13.12180],[-59.44875,13.12458],[-59.45263,13.12513],[-59.44958,13.12624],[-59.45013,13.12847],[-59.45486,13.12874],[-59.45597,13.12652],[-59.45958,13.12930]]]},"properties":{"zone":18,"cells":1318,"area_km2":1.26,"p90":0.42,"p90_max":0.42,"hazard_class":0,"hazard_name":"No signal","worst_class":0,"worst_class_name":"No signal","share_at_class":null,"share_worst":100.0,"prob_band1":0.1,"confidence":"LOW","impact_axis":2,"level":1,"level_name":"Low","population":1178,"n_eds":8,"eds":"369,370,379,396,400,407,409,368"}},{"type":"Feature","geometry":{"type":"Polygon","coordinates":[[[-59.49041,13.11347],[-59.48958,13.10874],[-59.48625,13.10986],[-59.48625,13.10513],[-59.48236,13.10625],[-59.48180,13.10263],[-59.48125,13.10541],[-59.47902,13.10458],[-59.47513,13.10874],[-59.48013,13.10958],[-59.47847,13.11291],[-59.48263,13.11291],[-59.48125,13.10958],[-59.48375,13.10708],[-59.48680,13.11291],[-59.49041,13.11347]]]},"properties":{"zone":19,"cells":792,"area_km2":0.757,"p90":0.42,"p90_max":0.42,"hazard_class":0,"hazard_name":"No signal","worst_class":0,"worst_class_name":"No signal","share_at_class":null,"share_worst":100.0,"prob_band1":0.1,"confidence":"LOW","impact_axis":1,"level":1,"level_name":"Low","population":347,"n_eds":4,"eds":"357,376,375,377"}},{"type":"Feature","geometry":{"type":"Polygon","coordinates":[[[-59.54458,13.11180],[-59.54847,13.10736],[-59.55069,13.10986],[-59.55986,13.10847],[-59.55652,13.10680],[-59.55958,13.10013],[-59.55513,13.09986],[-59.55430,13.10208],[-59.55152,13.09847],[-59.55263,13.10263],[-59.54958,13.10319],[-59.55013,13.09819],[-59.54875,13.09819],[-59.54708,13.10569],[-59.54013,13.10180],[-59.53791,13.10708],[-59.53319,13.10708],[-59.53736,13.11041],[-59.53819,13.10763],[-59.54208,13.10680],[-59.54458,13.11180]]]},"properties":{"zone":20,"cells":1919,"area_km2":1.835,"p90":0.41,"p90_max":0.43,"hazard_class":0,"hazard_name":"No signal","worst_class":0,"worst_class_name":"No signal","share_at_class":null,"share_worst":100.0,"prob_band1":0.1,"confidence":"LOW","impact_axis":1,"level":1,"level_name":"Low","population":423,"n_eds":6,"eds":"236,237,239,311,312,238"}},{"type":"Feature","geometry":{"type":"MultiPolygon","coordinates":[[[[-59.49458,13.09486],[-59.49375,13.09708],[-59.49291,13.09458],[-59.49458,13.09486]]],[[[-59.51652,13.09902],[-59.51763,13.10013],[-59.51652,13.10013],[-59.51652,13.09902]]],[[[-59.51652,13.10013],[-59.51458,13.10319],[-59.51013,13.10236],[-59.50847,13.10458],[-59.52125,13.10541],[-59.52069,13.10152],[-59.52652,13.10013],[-59.52263,13.10319],[-59.52736,13.10236],[-59.52680,13.10458],[-59.52013,13.10680],[-59.52569,13.11069],[-59.51652,13.10930],[-59.51708,13.10736],[-59.50819,13.11013],[-59.50208,13.10375],[-59.49263,13.10986],[-59.50013,13.10208],[-59.49902,13.09458],[-59.49569,13.09597],[-59.49458,13.09319],[-59.50291,13.09374],[-59.50569,13.09680],[-59.50458,13.09986],[-59.51652,13.10013]]]]},"properties":{"zone":21,"cells":2822,"area_km2":2.698,"p90":0.42,"p90_max":0.52,"hazard_class":0,"hazard_name":"No signal","worst_class":1,"worst_class_name":"Low","share_at_class":null,"share_worst":0.3,"prob_band1":0.2,"confidence":"MED","impact_axis":1,"level":1,"level_name":"Low","population":782,"n_eds":8,"eds":"265,270,272,357,267,268,266,271"}},{"type":"Feature","geometry":{"type":"Polygon","coordinates":[[[-59.51569,13.09874],[-59.51680,13.09458],[-59.51458,13.09652],[-59.51375,13.09569],[-59.51763,13.09374],[-59.51680,13.08986],[-59.51152,13.09263],[-59.51236,13.09791],[-59.51569,13.09874]]]},"properties":{"zone":22,"cells":358,"area_km2":0.342,"p90":0.42,"p90_max":0.42,"hazard_class":0,"hazard_name":"No signal","worst_class":0,"worst_class_name":"No signal","share_at_class":null,"share_worst":100.0,"prob_band1":0.1,"confidence":"LOW","impact_axis":1,"level":1,"level_name":"Low","population":43,"n_eds":1,"eds":"270"}},{"type":"Feature","geometry":{"type":"MultiPolygon","coordinates":[[[[-59.61152,13.09263],[-59.61263,13.09347],[-59.61152,13.09347],[-59.61152,13.09263]]],[[[-59.60819,13.08986],[-59.61097,13.09625],[-59.60097,13.09819],[-59.60319,13.09291],[-59.59847,13.09430],[-59.59791,13.09069],[-59.60736,13.08930],[-59.60402,13.09347],[-59.60763,13.09319],[-59.60819,13.08986]]]]},"properties":{"zone":23,"cells":892,"area_km2":0.853,"p90":0.33,"p90_max":0.34,"hazard_class":0,"hazard_name":"No signal","worst_class":0,"worst_class_name":"No signal","share_at_class":null,"share_worst":100.0,"prob_band1":0.1,"confidence":"LOW","impact_axis":2,"level":1,"level_name":"Low","population":1589,"n_eds":12,"eds":"1,126,129,2,131,132,133,138..."}},{"type":"Feature","geometry":{"type":"MultiPolygon","coordinates":[[[[-59.47513,13.08375],[-59.47402,13.08236],[-59.47513,13.08236],[-59.47513,13.08375]]],[[[-59.47652,13.08375],[-59.46680,13.09375],[-59.45708,13.09625],[-59.45875,13.09208],[-59.46236,13.09263],[-59.46041,13.08652],[-59.46319,13.08930],[-59.46319,13.08652],[-59.46875,13.08652],[-59.47097,13.08291],[-59.47430,13.08486],[-59.47652,13.08375]]]]},"properties":{"zone":24,"cells":1242,"area_km2":1.188,"p90":0.41,"p90_max":0.42,"hazard_class":0,"hazard_name":"No signal","worst_class":0,"worst_class_name":"No signal","share_at_class":null,"share_worst":100.0,"prob_band1":0.1,"confidence":"LOW","impact_axis":1,"level":1,"level_name":"Low","population":1349,"n_eds":8,"eds":"380,382,384,387,381,383,390,386"}},{"type":"Feature","geometry":{"type":"Polygon","coordinates":[[[-59.54041,13.08819],[-59.54291,13.08541],[-59.54680,13.08569],[-59.54680,13.08236],[-59.54041,13.08569],[-59.53986,13.08430],[-59.53430,13.08291],[-59.53791,13.08208],[-59.53736,13.07597],[-59.53152,13.07847],[-59.53291,13.08291],[-59.52986,13.08291],[-59.52986,13.08458],[-59.53402,13.08291],[-59.54041,13.08819]]]},"properties":{"zone":25,"cells":810,"area_km2":0.775,"p90":0.42,"p90_max":0.42,"hazard_class":0,"hazard_name":"No signal","worst_class":0,"worst_class_name":"No signal","share_at_class":null,"share_worst":100.0,"prob_band1":0.1,"confidence":"LOW","impact_axis":2,"level":1,"level_name":"Low","population":589,"n_eds":5,"eds":"240,248,258,251,257"}},{"type":"Feature","geometry":{"type":"Polygon","coordinates":[[[-59.48958,13.08319],[-59.49069,13.08069],[-59.49597,13.08152],[-59.49736,13.07680],[-59.49652,13.07902],[-59.49569,13.07652],[-59.49208,13.07680],[-59.48791,13.08124],[-59.48958,13.08319]]]},"properties":{"zone":26,"cells":385,"area_km2":0.368,"p90":0.32,"p90_max":0.42,"hazard_class":0,"hazard_name":"No signal","worst_class":0,"worst_class_name":"No signal","share_at_class":null,"share_worst":100.0,"prob_band1":0.1,"confidence":"LOW","impact_axis":1,"level":1,"level_name":"Low","population":64,"n_eds":3,"eds":"282,280,278"}},{"type":"Feature","geometry":{"type":"Polygon","coordinates":[[[-59.54763,13.07541],[-59.54763,13.07125],[-59.55097,13.07347],[-59.54986,13.07041],[-59.54291,13.06819],[-59.54763,13.07541]]]},"properties":{"zone":27,"cells":383,"area_km2":0.366,"p90":0.42,"p90_max":0.42,"hazard_class":0,"hazard_name":"No signal","worst_class":0,"worst_class_name":"No signal","share_at_class":null,"share_worst":100.0,"prob_band1":0.1,"confidence":"LOW","impact_axis":2,"level":1,"level_name":"Low","population":867,"n_eds":7,"eds":"221,222,223,224,225,243,244"}},{"type":"Feature","geometry":{"type":"Polygon","coordinates":[[[-59.53347,13.07458],[-59.53736,13.07097],[-59.53236,13.06486],[-59.53847,13.06291],[-59.53597,13.05902],[-59.53097,13.05930],[-59.53041,13.06736],[-59.52263,13.06819],[-59.52569,13.07375],[-59.52875,13.07458],[-59.52680,13.07208],[-59.53375,13.06763],[-59.53041,13.07208],[-59.53347,13.07458]]]},"properties":{"zone":28,"cells":1240,"area_km2":1.186,"p90":0.42,"p90_max":0.42,"hazard_class":0,"hazard_name":"No signal","worst_class":0,"worst_class_name":"No signal","share_at_class":null,"share_worst":100.0,"prob_band1":0.1,"confidence":"LOW","impact_axis":2,"level":1,"level_name":"Low","population":1551,"n_eds":13,"eds":"252,253,254,256,260,261,297,298..."}},{"type":"Feature","geometry":{"type":"MultiPolygon","coordinates":[[[[-59.51986,13.05763],[-59.51847,13.05624],[-59.51986,13.05624],[-59.51986,13.05763]]],[[[-59.51986,13.05763],[-59.52208,13.05986],[-59.52736,13.05874],[-59.52819,13.06208],[-59.52152,13.06791],[-59.52125,13.06430],[-59.52625,13.06180],[-59.52013,13.06041],[-59.51986,13.05763]]]]},"properties":{"zone":29,"cells":452,"area_km2":0.432,"p90":0.42,"p90_max":0.42,"hazard_class":0,"hazard_name":"No signal","worst_class":0,"worst_class_name":"No signal","share_at_class":null,"share_worst":100.0,"prob_band1":0.1,"confidence":"LOW","impact_axis":2,"level":1,"level_name":"Low","population":399,"n_eds":5,"eds":"261,288,305,306,307"}},{"type":"Feature","geometry":{"type":"Polygon","coordinates":[[[-59.51013,13.06291],[-59.50875,13.05680],[-59.51458,13.05791],[-59.51486,13.05486],[-59.50597,13.05319],[-59.50402,13.05652],[-59.50763,13.05430],[-59.50763,13.05791],[-59.50486,13.05902],[-59.51013,13.06291]]]},"properties":{"zone":30,"cells":477,"area_km2":0.456,"p90":0.42,"p90_max":0.42,"hazard_class":0,"hazard_name":"No signal","worst_class":0,"worst_class_name":"No signal","share_at_class":null,"share_worst":100.0,"prob_band1":0.1,"confidence":"LOW","impact_axis":2,"level":1,"level_name":"Low","population":580,"n_eds":9,"eds":"274,290,291,292,294,296,308,293..."}}]}