{"type":"FeatureCollection","bandset":"gt","cycle":"20260817.01000","features":[{"type":"Feature","geometry":{"type":"MultiPolygon","coordinates":[[[[-59.60513,13.32958],[-59.59986,13.32708],[-59.60180,13.32486],[-59.60597,13.32652],[-59.60319,13.32430],[-59.60430,13.32097],[-59.59930,13.32374],[-59.59597,13.31263],[-59.59236,13.31208],[-59.59708,13.31125],[-59.59625,13.30819],[-59.60041,13.32097],[-59.60180,13.31819],[-59.60625,13.31930],[-59.60708,13.31736],[-59.60819,13.31958],[-59.61375,13.31930],[-59.61263,13.32236],[-59.60763,13.32041],[-59.60597,13.32347],[-59.61069,13.32402],[-59.61680,13.31958],[-59.61958,13.32069],[-59.62375,13.31430],[-59.62625,13.31569],[-59.62513,13.31958],[-59.62152,13.31847],[-59.62236,13.32236],[-59.62486,13.32069],[-59.62791,13.32402],[-59.62458,13.33152],[-59.61875,13.33236],[-59.62041,13.32291],[-59.61847,13.32541],[-59.61625,13.32374],[-59.61847,13.32736],[-59.61458,13.33041],[-59.61513,13.33430],[-59.61125,13.33375],[-59.61291,13.32930],[-59.61013,13.32486],[-59.60513,13.32958]]],[[[-59.60625,13.32958],[-59.61013,13.33236],[-59.60625,13.33069],[-59.60625,13.32958]]]]},"properties":{"zone":1,"cells":3601,"area_km2":3.443,"p90":0.6,"p90_max":0.6,"hazard_class":1,"hazard_name":"Low","worst_class":1,"worst_class_name":"Low","share_at_class":50.8,"share_worst":50.8,"prob_band1":0.4,"confidence":"MED","impact_axis":1,"level":1,"level_name":"Low","population":671,"n_eds":5,"eds":"596,598,608,609,597"}},{"type":"Feature","geometry":{"type":"Polygon","coordinates":[[[-59.63486,13.32430],[-59.63958,13.32013],[-59.63708,13.31847],[-59.64347,13.31708],[-59.64291,13.31291],[-59.64569,13.31347],[-59.64430,13.30958],[-59.64597,13.30875],[-59.64652,13.31180],[-59.64986,13.30625],[-59.64625,13.30791],[-59.64375,13.30430],[-59.64347,13.30902],[-59.63986,13.30958],[-59.63902,13.30597],[-59.63736,13.31125],[-59.63486,13.31180],[-59.63625,13.31569],[-59.63208,13.31791],[-59.63458,13.31625],[-59.63375,13.31458],[-59.62736,13.31819],[-59.63402,13.31958],[-59.63486,13.32430]]]},"properties":{"zone":2,"cells":1843,"area_km2":1.762,"p90":0.6,"p90_max":0.6,"hazard_class":1,"hazard_name":"Low","worst_class":1,"worst_class_name":"Low","share_at_class":56.3,"share_worst":56.3,"prob_band1":0.4,"confidence":"MED","impact_axis":1,"level":1,"level_name":"Low","population":786,"n_eds":6,"eds":"591,594,595,596,598,593"}},{"type":"Feature","geometry":{"type":"Polygon","coordinates":[[[-59.60513,13.31736],[-59.60930,13.31597],[-59.60847,13.31291],[-59.61208,13.31263],[-59.60847,13.31180],[-59.60847,13.30902],[-59.60513,13.31152],[-59.60541,13.31597],[-59.60319,13.31569],[-59.60513,13.31736]]]},"properties":{"zone":3,"cells":356,"area_km2":0.34,"p90":0.6,"p90_max":0.6,"hazard_class":1,"hazard_name":"Low","worst_class":1,"worst_class_name":"Low","share_at_class":61.5,"share_worst":61.5,"prob_band1":0.34,"confidence":"MED","impact_axis":1,"level":1,"level_name":"Low","population":61,"n_eds":3,"eds":"596,602,608"}},{"type":"Feature","geometry":{"type":"MultiPolygon","coordinates":[[[[-59.64041,13.29541],[-59.63208,13.28458],[-59.63347,13.28125],[-59.63069,13.28430],[-59.62458,13.28402],[-59.63375,13.28791],[-59.63375,13.29347],[-59.62930,13.29375],[-59.63125,13.30013],[-59.62763,13.30097],[-59.62791,13.30263],[-59.62208,13.30180],[-59.62847,13.30402],[-59.63125,13.30097],[-59.63152,13.30791],[-59.62791,13.30486],[-59.62208,13.30847],[-59.61958,13.30458],[-59.61652,13.30625],[-59.61652,13.31041],[-59.61930,13.31013],[-59.61930,13.31236],[-59.61486,13.31347],[-59.61541,13.30763],[-59.61013,13.31041],[-59.61375,13.30708],[-59.61430,13.30319],[-59.61708,13.30180],[-59.61625,13.30430],[-59.61902,13.30374],[-59.62069,13.29291],[-59.62263,13.29458],[-59.62402,13.29291],[-59.62180,13.28958],[-59.62458,13.29041],[-59.62125,13.28819],[-59.62041,13.28013],[-59.62458,13.27791],[-59.62041,13.27736],[-59.62041,13.27541],[-59.62486,13.27763],[-59.62597,13.27541],[-59.62041,13.27458],[-59.62236,13.26819],[-59.61875,13.26736],[-59.61819,13.26347],[-59.61819,13.26152],[-59.62097,13.26097],[-59.61986,13.26291],[-59.62291,13.26402],[-59.62125,13.26208],[-59.62347,13.26152],[-59.62013,13.26013],[-59.62041,13.25763],[-59.61930,13.26013],[-59.61652,13.25958],[-59.61902,13.25680],[-59.61569,13.25625],[-59.61736,13.26486],[-59.61402,13.26375],[-59.61430,13.26125],[-59.61125,13.26291],[-59.61291,13.26625],[-59.61791,13.26625],[-59.61930,13.27736],[-59.61652,13.27708],[-59.61513,13.28125],[-59.61819,13.27819],[-59.61902,13.28486],[-59.61708,13.28569],[-59.61986,13.28791],[-59.61763,13.28958],[-59.61958,13.29375],[-59.61819,13.29513],[-59.61791,13.29208],[-59.61402,13.29152],[-59.61347,13.29458],[-59.61597,13.29375],[-59.61736,13.29708],[-59.61458,13.29763],[-59.61791,13.30041],[-59.61263,13.29875],[-59.61013,13.30125],[-59.60958,13.29902],[-59.60708,13.29875],[-59.60847,13.30125],[-59.60625,13.30152],[-59.60902,13.30208],[-59.60902,13.30458],[-59.60347,13.30791],[-59.59847,13.30458],[-59.59486,13.30652],[-59.59208,13.29986],[-59.58652,13.30097],[-59.58819,13.30319],[-59.58263,13.30569],[-59.58097,13.30180],[-59.58291,13.30347],[-59.58625,13.30236],[-59.57902,13.29875],[-59.57708,13.30263],[-59.58013,13.30291],[-59.57986,13.30569],[-59.58291,13.30597],[-59.58097,13.30930],[-59.58513,13.31097],[-59.57875,13.31041],[-59.57847,13.30374],[-59.57486,13.30125],[-59.57819,13.29791],[-59.57291,13.29319],[-59.57625,13.28902],[-59.57375,13.28569],[-59.58152,13.28569],[-59.58013,13.28402],[-59.58486,13.28069],[-59.58125,13.28152],[-59.58208,13.27819],[-59.57902,13.27652],[-59.57819,13.27958],[-59.57569,13.27875],[-59.57458,13.28430],[-59.57125,13.28347],[-59.57402,13.27986],[-59.56986,13.28041],[-59.57041,13.27597],[-59.56791,13.27708],[-59.56597,13.27152],[-59.57958,13.26874],[-59.57625,13.26625],[-59.57069,13.26847],[-59.56458,13.26708],[-59.56569,13.26486],[-59.56152,13.26569],[-59.55625,13.25291],[-59.56736,13.25763],[-59.56597,13.25319],[-59.56902,13.25124],[-59.56819,13.25291],[-59.57180,13.25402],[-59.57041,13.25124],[-59.57236,13.24986],[-59.57930,13.24986],[-59.57875,13.25208],[-59.58125,13.25013],[-59.57986,13.25486],[-59.59180,13.24847],[-59.60041,13.24986],[-59.59986,13.25180],[-59.62152,13.24986],[-59.62402,13.25263],[-59.62375,13.24958],[-59.63847,13.25041],[-59.63569,13.25319],[-59.63819,13.25625],[-59.63458,13.25569],[-59.63819,13.26097],[-59.63625,13.26458],[-59.63958,13.26625],[-59.63680,13.26736],[-59.63652,13.27097],[-59.64208,13.26625],[-59.64625,13.27097],[-59.64736,13.28013],[-59.64458,13.28069],[-59.64513,13.28597],[-59.64180,13.28513],[-59.64097,13.29069],[-59.64652,13.29263],[-59.64430,13.29125],[-59.64486,13.28736],[-59.64680,13.28875],[-59.64597,13.28569],[-59.64819,13.28541],[-59.64930,13.30513],[-59.64625,13.30402],[-59.64763,13.29819],[-59.64486,13.30013],[-59.64180,13.29875],[-59.64208,13.29152],[-59.63958,13.29236],[-59.64041,13.29541]]],[[[-59.63625,13.29513],[-59.63569,13.29708],[-59.63847,13.29736],[-59.63597,13.29847],[-59.63375,13.29680],[-59.63486,13.30041],[-59.63263,13.30069],[-59.63291,13.29486],[-59.63625,13.29513]]],[[[-59.57986,13.30180],[-59.58097,13.30097],[-59.58097,13.30180],[-59.57986,13.30180]]],[[[-59.61097,13.30819],[-59.61041,13.30736],[-59.61263,13.30430],[-59.61236,13.30736],[-59.61097,13.30819]]]]},"properties":{"zone":4,"cells":46259,"area_km2":44.232,"p90":0.7,"p90_max":0.8,"hazard_class":1,"hazard_name":"Low","worst_class":1,"worst_class_name":"Low","share_at_class":43.3,"share_worst":43.3,"prob_band1":0.4,"confidence":"MED","impact_axis":2,"level":2,"level_name":"Moderate","population":13095,"n_eds":44,"eds":"546,552,554,555,557,558,562,564..."}}]}