{"type":"FeatureCollection","bandset":"gt","cycle":"20260817.17000","features":[{"type":"Feature","geometry":{"type":"MultiPolygon","coordinates":[[[[-59.57736,13.25402],[-59.57708,13.25208],[-59.57541,13.25124],[-59.57625,13.25541],[-59.57402,13.25541],[-59.57208,13.26124],[-59.57819,13.26180],[-59.57958,13.26874],[-59.57708,13.26763],[-59.57763,13.26486],[-59.57458,13.26597],[-59.57402,13.26291],[-59.57125,13.26263],[-59.56958,13.25486],[-59.57291,13.25430],[-59.57236,13.24986],[-59.57930,13.24986],[-59.57736,13.25402]]],[[[-59.60680,13.25986],[-59.60597,13.26069],[-59.60597,13.25986],[-59.60680,13.25986]]],[[[-59.60625,13.25791],[-59.60347,13.26041],[-59.60652,13.26180],[-59.60819,13.26069],[-59.60930,13.26625],[-59.60486,13.26569],[-59.60347,13.26319],[-59.60625,13.26430],[-59.60708,13.26347],[-59.60125,13.26097],[-59.60041,13.26375],[-59.59569,13.26236],[-59.59402,13.26819],[-59.58958,13.26652],[-59.59125,13.27152],[-59.58791,13.27041],[-59.59208,13.27319],[-59.59069,13.27597],[-59.59319,13.27597],[-59.59319,13.27819],[-59.58986,13.27652],[-59.58986,13.28319],[-59.59625,13.28763],[-59.59236,13.28069],[-59.59763,13.28125],[-59.59458,13.27958],[-59.59680,13.27680],[-59.60041,13.28874],[-59.60013,13.29152],[-59.59291,13.29541],[-59.59208,13.29236],[-59.59569,13.29291],[-59.59680,13.28986],[-59.59041,13.28902],[-59.59013,13.28402],[-59.58625,13.28319],[-59.58930,13.28847],[-59.58652,13.29291],[-59.59097,13.29319],[-59.58875,13.29624],[-59.59180,13.29513],[-59.59347,13.29791],[-59.59097,13.29708],[-59.59097,13.29958],[-59.58819,13.30013],[-59.58291,13.29291],[-59.58208,13.28930],[-59.58541,13.28708],[-59.58152,13.28569],[-59.58152,13.28263],[-59.58847,13.28069],[-59.58597,13.27486],[-59.58930,13.27430],[-59.58180,13.26680],[-59.58458,13.26347],[-59.58430,13.26791],[-59.58680,13.26902],[-59.58902,13.26124],[-59.58291,13.26208],[-59.58125,13.25819],[-59.57930,13.25902],[-59.58208,13.26152],[-59.57819,13.26097],[-59.57736,13.25625],[-59.58430,13.25347],[-59.58486,13.25680],[-59.59458,13.25847],[-59.59375,13.26041],[-59.59847,13.26208],[-59.60236,13.25680],[-59.60625,13.25791]]]]},"properties":{"zone":1,"cells":6126,"area_km2":5.858,"p90":0.5,"p90_max":0.6,"hazard_class":1,"hazard_name":"Low","worst_class":1,"worst_class_name":"Low","share_at_class":48.8,"share_worst":48.8,"prob_band1":0.2,"confidence":"MED","impact_axis":1,"level":1,"level_name":"Low","population":1099,"n_eds":12,"eds":"546,552,554,555,577,580,581,582..."}},{"type":"Feature","geometry":{"type":"Polygon","coordinates":[[[-59.58208,13.29986],[-59.58041,13.29652],[-59.58375,13.29763],[-59.58458,13.29597],[-59.57569,13.29430],[-59.57791,13.28930],[-59.57680,13.28736],[-59.57597,13.29180],[-59.57291,13.29319],[-59.57819,13.29736],[-59.57763,13.29958],[-59.58208,13.29986]]]},"properties":{"zone":2,"cells":433,"area_km2":0.414,"p90":0.5,"p90_max":0.51,"hazard_class":1,"hazard_name":"Low","worst_class":1,"worst_class_name":"Low","share_at_class":50.1,"share_worst":50.1,"prob_band1":0.2,"confidence":"MED","impact_axis":1,"level":1,"level_name":"Low","population":133,"n_eds":3,"eds":"585,607,604"}},{"type":"Feature","geometry":{"type":"Polygon","coordinates":[[[-59.60569,13.29319],[-59.61347,13.29347],[-59.61347,13.29152],[-59.61625,13.29263],[-59.61513,13.28874],[-59.61902,13.28791],[-59.61541,13.28541],[-59.61902,13.28402],[-59.61430,13.28375],[-59.61430,13.28874],[-59.61125,13.28930],[-59.61236,13.29236],[-59.61069,13.29069],[-59.60875,13.29319],[-59.60819,13.29041],[-59.60569,13.29069],[-59.60569,13.29319]]]},"properties":{"zone":3,"cells":543,"area_km2":0.519,"p90":0.5,"p90_max":0.5,"hazard_class":1,"hazard_name":"Low","worst_class":1,"worst_class_name":"Low","share_at_class":46.0,"share_worst":46.0,"prob_band1":0.18,"confidence":"LOW","impact_axis":1,"level":1,"level_name":"Low","population":70,"n_eds":1,"eds":"601"}},{"type":"Feature","geometry":{"type":"Polygon","coordinates":[[[-59.62652,13.29069],[-59.62763,13.28819],[-59.62291,13.28597],[-59.62541,13.28624],[-59.62680,13.28152],[-59.62180,13.28208],[-59.62152,13.28819],[-59.62652,13.29069]]]},"properties":{"zone":4,"cells":356,"area_km2":0.34,"p90":0.5,"p90_max":0.5,"hazard_class":1,"hazard_name":"Low","worst_class":1,"worst_class_name":"Low","share_at_class":54.2,"share_worst":54.2,"prob_band1":0.2,"confidence":"MED","impact_axis":1,"level":1,"level_name":"Low","population":92,"n_eds":2,"eds":"600,601"}},{"type":"Feature","geometry":{"type":"MultiPolygon","coordinates":[[[[-59.60430,13.27791],[-59.60763,13.27763],[-59.60986,13.27263],[-59.61013,13.27513],[-59.61486,13.27513],[-59.61375,13.27791],[-59.60791,13.27763],[-59.61041,13.28208],[-59.60541,13.28180],[-59.60847,13.27930],[-59.60430,13.27791]]],[[[-59.60430,13.28041],[-59.60375,13.28375],[-59.60486,13.28597],[-59.60236,13.28208],[-59.60430,13.28041]]]]},"properties":{"zone":5,"cells":626,"area_km2":0.599,"p90":0.5,"p90_max":0.5,"hazard_class":1,"hazard_name":"Low","worst_class":1,"worst_class_name":"Low","share_at_class":49.0,"share_worst":49.0,"prob_band1":0.18,"confidence":"LOW","impact_axis":1,"level":1,"level_name":"Low","population":76,"n_eds":2,"eds":"581,583"}},{"type":"Feature","geometry":{"type":"MultiPolygon","coordinates":[[[[-59.58069,13.27375],[-59.57986,13.27291],[-59.58069,13.27291],[-59.58069,13.27375]]],[[[-59.57569,13.27708],[-59.58708,13.27236],[-59.58402,13.27458],[-59.58680,13.27958],[-59.58125,13.28152],[-59.58236,13.27819],[-59.57875,13.27652],[-59.57597,13.28097],[-59.57458,13.27902],[-59.56986,13.28041],[-59.57013,13.27791],[-59.57291,13.27791],[-59.57069,13.27541],[-59.57180,13.26958],[-59.57430,13.26930],[-59.57319,13.27152],[-59.58180,13.27041],[-59.57430,13.27180],[-59.57486,13.27486],[-59.57708,13.27375],[-59.57569,13.27708]]]]},"properties":{"zone":6,"cells":1275,"area_km2":1.219,"p90":0.5,"p90_max":0.6,"hazard_class":1,"hazard_name":"Low","worst_class":1,"worst_class_name":"Low","share_at_class":56.5,"share_worst":56.5,"prob_band1":0.2,"confidence":"MED","impact_axis":1,"level":1,"level_name":"Low","population":214,"n_eds":2,"eds":"554,582"}},{"type":"Feature","geometry":{"type":"MultiPolygon","coordinates":[[[[-59.63625,13.27263],[-59.63902,13.26791],[-59.64097,13.26791],[-59.64263,13.27180],[-59.63625,13.27263]]],[[[-59.63625,13.27458],[-59.63819,13.27430],[-59.63763,13.27652],[-59.63236,13.27736],[-59.62986,13.27319],[-59.63458,13.27041],[-59.63486,13.26708],[-59.63625,13.27458]]]]},"properties":{"zone":7,"cells":667,"area_km2":0.638,"p90":0.5,"p90_max":0.5,"hazard_class":1,"hazard_name":"Low","worst_class":1,"worst_class_name":"Low","share_at_class":46.3,"share_worst":46.3,"prob_band1":0.2,"confidence":"MED","impact_axis":1,"level":1,"level_name":"Low","population":169,"n_eds":2,"eds":"562,560"}},{"type":"Feature","geometry":{"type":"Polygon","coordinates":[[[-59.60041,13.27458],[-59.59930,13.27236],[-59.60402,13.26930],[-59.60125,13.26986],[-59.60069,13.26541],[-59.59847,13.26402],[-59.59958,13.26625],[-59.59625,13.26625],[-59.59625,13.26819],[-59.59847,13.26736],[-59.59875,13.27041],[-59.59597,13.27375],[-59.60041,13.27458]]]},"properties":{"zone":8,"cells":448,"area_km2":0.428,"p90":0.5,"p90_max":0.5,"hazard_class":1,"hazard_name":"Low","worst_class":1,"worst_class_name":"Low","share_at_class":43.1,"share_worst":43.1,"prob_band1":0.2,"confidence":"MED","impact_axis":1,"level":1,"level_name":"Low","population":50,"n_eds":4,"eds":"554,555,580,581"}},{"type":"Feature","geometry":{"type":"Polygon","coordinates":[[[-59.61291,13.26625],[-59.61125,13.26180],[-59.61430,13.26124],[-59.61736,13.26486],[-59.61791,13.26041],[-59.61458,13.25930],[-59.61513,13.25680],[-59.62013,13.25680],[-59.61708,13.25208],[-59.61263,13.25319],[-59.61375,13.25986],[-59.60930,13.25930],[-59.61291,13.26625]]]},"properties":{"zone":9,"cells":732,"area_km2":0.7,"p90":0.5,"p90_max":0.5,"hazard_class":1,"hazard_name":"Low","worst_class":1,"worst_class_name":"Low","share_at_class":51.0,"share_worst":51.0,"prob_band1":0.18,"confidence":"LOW","impact_axis":1,"level":1,"level_name":"Low","population":195,"n_eds":4,"eds":"577,580,578,576"}},{"type":"Feature","geometry":{"type":"Polygon","coordinates":[[[-59.62069,13.25958],[-59.62902,13.25680],[-59.62791,13.25486],[-59.62513,13.25625],[-59.62569,13.25180],[-59.62069,13.25236],[-59.62430,13.25652],[-59.62152,13.25541],[-59.62069,13.25958]]]},"properties":{"zone":10,"cells":369,"area_km2":0.353,"p90":0.5,"p90_max":0.5,"hazard_class":1,"hazard_name":"Low","worst_class":1,"worst_class_name":"Low","share_at_class":48.5,"share_worst":48.5,"prob_band1":0.18,"confidence":"LOW","impact_axis":1,"level":1,"level_name":"Low","population":154,"n_eds":3,"eds":"574,575,577"}},{"type":"Feature","geometry":{"type":"Polygon","coordinates":[[[-59.59847,13.25847],[-59.59763,13.25597],[-59.59263,13.25347],[-59.59458,13.24986],[-59.58486,13.25041],[-59.58569,13.25569],[-59.58847,13.25430],[-59.59847,13.25847]]]},"properties":{"zone":11,"cells":697,"area_km2":0.666,"p90":0.6,"p90_max":0.6,"hazard_class":1,"hazard_name":"Low","worst_class":1,"worst_class_name":"Low","share_at_class":54.5,"share_worst":54.5,"prob_band1":0.2,"confidence":"MED","impact_axis":1,"level":1,"level_name":"Low","population":85,"n_eds":3,"eds":"554,555,580"}},{"type":"Feature","geometry":{"type":"Polygon","coordinates":[[[-59.63652,13.25569],[-59.63680,13.25041],[-59.62625,13.25013],[-59.62875,13.25319],[-59.63486,13.25124],[-59.63097,13.25541],[-59.63652,13.25569]]]},"properties":{"zone":12,"cells":423,"area_km2":0.404,"p90":0.5,"p90_max":0.5,"hazard_class":1,"hazard_name":"Low","worst_class":1,"worst_class_name":"Low","share_at_class":48.9,"share_worst":48.9,"prob_band1":0.2,"confidence":"MED","impact_axis":2,"level":2,"level_name":"Moderate","population":178,"n_eds":5,"eds":"557,564,574,568,566"}}]}